id,name,brewery_type,street,city,state,postal_code,website_url,phone,created_at,updated_at,country,longitude,latitude,tags
gravel-bottom-craft-brewery,Gravel Bottom Craft Brewery,micro,452 Ada Dr SE,Ada,Michigan,49301,http://www.gravelbottom.com,6169207398,2018-07-24 01:33:34.569295,2018-08-24 00:43:04.313205,United States,-85.4857858,42.955144,
cotton-brewing-co,Cotton Brewing Co,brewpub,626 Oak St,Adrian,Michigan,49221-3367,http://www.cottonbrewing.com,5179026608,2018-07-24 01:33:33.80399,2018-08-24 00:42:38.568232,United States,-84.0246341818182,41.8913613636364,
burt-lake-brewery-/-seasons-of-the-north-winery,Burt Lake Brewery / Seasons of the North Winery,micro,9090 W M-68 Hwy,Alanson,Michigan,49706,http://www.burtlakebrewery.com,2315481280,2018-07-24 01:33:33.571138,2018-08-11 21:37:47.316226,United States,,,
albion-malleable-brewing-company,Albion Malleable Brewing Company,brewpub,420 S Superior St,Albion,Michigan,49224,http://www.albionmalleable.com,5173432202,2018-07-24 01:33:32.538756,2018-08-24 00:42:01.479013,United States,-84.7532755,42.2423188,
hops-bitters-and-mash,"Hops, Bitters, And Mash",planning,,Allen Park,Michigan,48101-2539,,,2018-07-24 01:33:34.897472,2018-08-11 21:37:50.888861,United States,,,
trail-point-brewing-co,Trail Point Brewing Co.,micro,6035 Lake Michigan Dr,Allendale,Michigan,49401-9101,http://www.trailpointbrewing.com,6168952739,2018-07-24 01:33:37.218356,2018-08-24 00:44:30.96534,United States,-85.9354153586956,42.9720778152174,
alma-brewing-co,Alma Brewing Co,brewpub,208 E Superior St,Alma,Michigan,48801-1819,http://www.almabrewing.com,9894620208,2018-07-24 01:33:32.551507,2018-08-24 00:42:01.941812,United States,-84.6588718983051,43.3788880847458,
austin-brothers-beer-company,Austin Brothers' Beer Company,brewpub,821 W Miller St,Alpena,Michigan,49707-1825,http://www.austinbrosbeerco.com,9893402300,2018-07-24 01:33:32.72479,2018-08-24 00:42:08.335637,United States,-83.4358357755102,45.0729699795918,
pileated-brewing-co,Pileated Brewing Co,micro,2290 South Industrial Highway,Ann Arbor,Michigan,48104,http://www.pileatedbrewing.com,7343696290,2018-07-24 01:33:36.12199,2018-08-24 00:43:55.050139,United States,-83.7338530381679,42.2528624961832,
arbor-brewing-co,Arbor Brewing Co,brewpub,114 E Washington St,Ann Arbor,Michigan,48104-1905,http://www.arborbrewing.com,7342131393,2018-07-24 01:33:32.602846,2018-08-24 00:42:03.795036,United States,-83.7482247142857,42.2804102857143,
biercamp,Biercamp,brewpub,1643 S State St,Ann Arbor,Michigan,48104-4302,http://www.bier-camp.com,7349952437,2018-07-24 01:33:33.00743,2018-08-24 00:42:16.384344,United States,-83.740111,42.2586786,
edelbrau-brewing-company,Edelbrau Brewing Company,planning,,Ann Arbor,Michigan,48108-3393,http://www.edelbrau.com,7347075184,2018-07-24 01:33:34.102563,2018-08-11 21:37:48.535207,United States,,,
homes-brewery,HOMES Brewery,brewpub,2321 Jackson Ave,Ann Arbor,Michigan,48103-3814,http://www.homesbrewery.com,7349546637,2018-07-24 01:33:34.834967,2018-08-24 00:43:13.467385,United States,-83.7784521082709,42.28032635,
jolly-pumpkin-cafe-and-brewery,Jolly Pumpkin Cafe and Brewery,brewpub,311 S Main St,Ann Arbor,Michigan,48104-2107,http://www.jollypumpkin.com,7349132730,2018-07-24 01:33:35.042168,2018-08-24 00:43:19.086348,United States,-83.7484551,42.2791598,
pointless-brewery,Pointless Brewery,micro,3014 Packard St,Ann Arbor,Michigan,48108-1935,http://www.pointlessbrew.com,9894554484,2018-07-24 01:33:36.134554,2018-08-24 00:43:55.536408,United States,-83.7297662,42.260633,
townies-brewery,Townies Brewery,brewpub,2350 W Liberty Rd,Ann Arbor,Michigan,48103,,,2018-07-24 01:33:37.193774,2018-08-24 00:44:29.937015,United States,-83.7891745,42.2730356,
wolverine-state-brewing-co,Wolverine State Brewing Co,brewpub,2019 W Stadium Blvd # 103,Ann Arbor,Michigan,48103-4557,http://www.wolverinebeer.com,7343692990,2018-07-24 01:33:37.532106,2018-08-24 00:44:41.788227,United States,-83.7745473,42.2694316,
grizzly-peak-brewing-co,Grizzly Peak Brewing Co,brewpub,120 W Washington St Ste 1,Ann Arbor,Michigan,48104-1356,http://www.grizzlypeak.net,7347417325,2018-07-24 01:33:34.674177,2018-08-11 21:37:50.120598,United States,,,
blue-tractor-brewing-co,Blue Tractor Brewing Co,brewpub,207 E Washington St,Ann Arbor,Michigan,48104-2007,,7342224095,2018-07-24 01:33:33.261124,2018-08-24 00:42:24.126825,United States,-83.7470457755102,42.2805275918367,
tbd,TBD,micro,17985 Armada Center Rd,Armada,Michigan,48005-2323,http://www.blakeshardcider.com,5869897454,2018-07-24 01:33:36.832184,2018-08-24 00:44:18.754933,United States,-82.9512485577328,42.8494245500451,
rochester-mills-production-brewery,Rochester Mills Production Brewery,micro,3275 Lapeer W Rd,Auburn Hills,Michigan,48326-1723,http://www.beercos.com,2483773130,2018-07-24 01:33:36.337145,2018-08-11 21:37:55.388651,United States,,,
cognito-brewing-company,Cognito Brewing Company,brewpub,142 W Monroe St,Bangor,Michigan,49013-1333,http://www.cognitobrewingcompany.com,9718088863,2018-07-24 01:33:33.747788,2018-08-24 00:42:36.7413,United States,-86.1115220816327,42.3130809897959,
hop-head-farms-brewing-llc,"Hop Head Farms Brewing, LLC",planning,,Baroda,Michigan,49101-9351,,,2018-07-24 01:33:34.859208,2018-08-11 21:37:50.777601,United States,,,
round-barn-brewery-and-public-house,Round Barn Brewery & Public House,micro,9151 First St,Baroda,Michigan,49101-8927,http://www.roundbarnbrewery.com,2693267059,2018-07-24 01:33:36.375355,2018-08-11 21:37:55.530974,United States,,,
round-barn-brewery-/-round-barn-winery,Round Barn Brewery / Round Barn Winery,micro,10983 Hills Rd,Baroda,Michigan,49101-8742,http://www.roundbarnwinery.com,8007169463,2018-07-24 01:33:36.389037,2018-08-24 00:44:03.458721,United States,-86.479395,41.950161,
new-holland-brewing,New Holland Brewing,planning,,Battle Creek,Michigan,49017,,,2018-07-24 01:33:35.610501,2018-08-11 21:37:53.086318,United States,,,
lumber-barons-brewery,Lumber Barons Brewery,brewpub,804 E Midland St,Bay City,Michigan,48706-4953,http://www.lumberbaronsbrewery.com,9898910100,2018-07-24 01:33:35.387206,2018-08-11 21:37:52.399296,United States,,,
tri-city-brewing-co,Tri City Brewing Co,micro,4170 Shrestha Dr,Bay City,Michigan,48706-2184,http://www.tricitybrewing.com,9896861340,2018-07-24 01:33:37.242763,2018-08-11 21:37:57.936751,United States,,,
whiskey-point-brewing-company,Whiskey Point Brewing Company,planning,,Beaver Island,Michigan,49782-5105,http://www.whiskeypointbrewing.com,2313737842,2018-07-24 01:33:37.481986,2018-08-11 21:37:58.479951,United States,,,
belding-brewing-company,Belding Brewing Company,planning,,Belding,Michigan,48809-1678,,6163086285,2018-07-24 01:33:32.930807,2018-08-11 21:37:45.750116,United States,,,
shorts-brewing-co,Short's Brewing Co,brewpub,121 N Bridge St,Bellaire,Michigan,49615-9509,http://www.shortsbrewing.com,2315336622,2018-07-24 01:33:36.540944,2018-08-24 00:44:08.778163,United States,-85.2101242857143,44.975604,
cravings-bistro-and-pub,Cravings Bistro & Pub,brewpub,1599 Mall Dr Ste B,Benton Harbor,Michigan,49022-2330,,2699349700,2018-07-24 01:33:33.854975,2018-08-11 21:37:47.962318,United States,,,
north-pier-brewing,North Pier Brewing,micro,670 N Shore Dr,Benton Harbor,Michigan,49022-3646,http://www.northpierbrewing.com,2697577163,2018-07-24 01:33:35.714162,2018-08-24 00:43:42.57573,United States,-86.4549931471288,42.1245434862641,
the-livery,The Livery,brewpub,190 5th St,Benton Harbor,Michigan,49022-3484,http://www.liverybrew.com,2699258760,2018-07-24 01:33:36.973501,2018-08-24 00:44:23.888967,United States,-86.4533001875,42.118135375,
st-ambrose-cellars,St Ambrose Cellars,micro,841 S Pioneer Rd,Beulah,Michigan,49617,http://www.stambrose-mead-wine.com,2313834262,2018-07-24 01:33:36.684915,2018-08-11 21:37:56.593101,United States,,,
blue-cow-cafe/big-rapids-brewing-co,Blue Cow Cafe/Big Rapids Brewing Co,brewpub,119 N Michigan Ave,Big Rapids,Michigan,49307-1401,http://www.bluecowcafe.com,2317960100,2018-07-24 01:33:33.235791,2018-08-24 00:42:23.191059,United States,-85.4821179262462,43.6987143943289,
crankers-brewery,Cranker's Brewery,brewpub,213 S State St,Big Rapids,Michigan,49307-1758,,2317961919,2018-07-24 01:33:33.816703,2018-08-24 00:42:39.07674,United States,-85.483723,43.688013,
big-rock-chop-house-and-brewery,Big Rock Chop House & Brewery,contract,245 S Eton St,Birmingham,Michigan,48009-6577,http://www.bigrockchophouse.com,2486477774,2018-07-24 01:33:33.123982,2018-08-24 00:42:19.275795,United States,-83.1960391071924,42.5469386819908,
griffin-claw-brewing-co,Griffin Claw Brewing Co,micro,575 S Eton St,Birmingham,Michigan,48009-6824,http://www.griffinclawbrewingcompany.com,,2018-07-24 01:33:34.660301,2018-08-24 00:43:07.451791,United States,-83.1954642945733,42.5434572,
old-detroit-brewing-co,Old Detroit Brewing Co,planning,,Bloomfield Hills,Michigan,48304-3817,,,2018-07-24 01:33:35.788682,2018-08-11 21:37:53.548661,United States,,,
stiggs-brewery-and-kitchen,Stiggs Brewery & Kitchen,brewpub,112 S Park St,Boyne City,Michigan,49712-1251,http://www.stiggsbrewingcompany.com,2314976100,2018-07-24 01:33:36.717885,2018-08-11 21:37:56.662111,United States,,,
tapistry-brewing-company,Tapistry Brewing Company,micro,4236 Lake St,Bridgman,Michigan,49106-9109,http://www.tapistrybrewing.com,2692667349,2018-07-24 01:33:36.819009,2018-08-24 00:44:18.183495,United States,-86.5561575,41.9427559,
haymarket-brewery-and-taproom,Haymarket Brewery and Taproom,micro,9301 Red Arrow Hwy,Bridgman,Michigan,49106-9558,,3126380707,2018-07-24 01:33:34.761234,2018-08-24 00:43:11.213976,United States,-86.5594780582524,41.947153631068,
transient-artisan-ales,Transient Artisan Ales,micro,4229 Lake St,Bridgman,Michigan,49106-9109,,,2018-07-24 01:33:37.230466,2018-08-24 00:44:31.441372,United States,-86.5557093703704,41.942998037037,
brewery-becker,Brewery Becker,brewpub,500 W Main St,Brighton,Michigan,48116-1471,http://www.brauereibecker.us,8108440225,2018-07-24 01:33:33.349998,2018-08-24 00:42:27.372844,United States,-83.785481,42.529522,
abners-restaurant-inc-/-northern-michigan-beer,Abner's Restaurant Inc / Northern Michigan Beer,brewpub,7528 N Woodbridge (M37),Brohman,Michigan,49312,,2316892295,2018-07-24 01:33:32.524184,2018-08-11 21:37:44.716782,United States,,,
lehmans-orchard-brewery-and-farmhouse,Lehmans Orchard Brewery and Farmhouse,brewpub,204 N Red Bud Trl,Buchanan,Michigan,49107-1366,http://www.lehmansfarmhouse.com,2693624063,2018-07-24 01:33:35.234184,2018-08-24 00:43:26.066307,United States,-86.3583403061224,41.8291059591837,
redline-brewing-company,Redline Brewing Company,micro,5470 Lapeer Rd,Burton,Michigan,48509-2235,http://redlinebrewingcompany.com,8102592009,2018-07-24 01:33:36.221444,2018-08-24 00:43:57.784727,United States,-83.5979524423077,43.01100775,
the-red-baron,The Red Baron,brewpub,2495 S Center Rd,Burton,Michigan,48519-1145,http://www.baronburger.com,8107441310,2018-07-24 01:33:37.082492,2018-08-24 00:44:26.642588,United States,-83.63373728,42.9924788,
clam-lake-beer-co,Clam Lake Beer Co,brewpub,106 S Mitchell St Ste A,Cadillac,Michigan,49601-2177,http://www.clamlakebeerco.com,2317756150,2018-07-24 01:33:33.719947,2018-08-11 21:37:47.659488,United States,,,
eb-coffee-and-pub,EB Coffee and Pub,brewpub,8980 N Rodgers Ct SE,Caledonia,Michigan,49316-8051,http://www.ebcoffeepub.com,6168917700,2018-07-24 01:33:34.09044,2018-08-24 00:42:48.755467,United States,-85.5083933304401,42.8014568202072,
red-jacket-brewing-at-michigan-house-cafe,Red Jacket Brewing at Michigan House Cafe,brewpub,300 6th St,Calumet,Michigan,49913-1508,http://www.michiganhousecafe.com/brewpub.html,9063371910,2018-07-24 01:33:36.207625,2018-08-24 00:43:57.316036,United States,-88.4535254,47.2464521,
canton-brew-works-llc,"Canton Brew Works, LLC",micro,8521 N Lilley Rd,Canton,Michigan,48187-2091,http://www.cantonbrewworks.com,7349277081,2018-07-24 01:33:33.583564,2018-08-24 00:42:32.052952,United States,-83.4586331,42.3224786,
cedar-springs-brewing-company,Cedar Springs Brewing Company,brewpub,95 N Main # 34,Cedar Springs,Michigan,49319-5140,http://www.CSBrew.com,616696,2018-07-24 01:33:33.610588,2018-08-11 21:37:47.404111,United States,,,
big-cat-brewing-company,Big Cat Brewing Company,brewpub,8699 S Good Harbor Trl,Cedar,Michigan,49621-8580,http://www.bigcatbrewingco.com,2312282282,2018-07-24 01:33:33.057547,2018-08-24 00:42:17.788236,United States,-85.7931151093116,44.8531928678156,
sugarfoot-saloon,Sugarfoot Saloon,brewpub,4997 S Good Harbor Trl,Cedar,Michigan,49621-8543,,2312286166,2018-07-24 01:33:36.780885,2018-08-24 00:44:16.828603,United States,-85.7962569772727,44.9078508181818,
les-cheneaux-distillers,Les Cheneaux Distillers,brewpub,172 S Meridian St,Cedarville,Michigan,49719,http://www.lescheneauxdistillers.com,9064841213,2018-07-24 01:33:35.247208,2018-08-24 00:43:26.5104,United States,-84.3630108872417,45.9974272430432,
beards-brewery-production-facility,Beards Brewery Production Facility,micro,6328 Ferry Ave,Charlevoix,Michigan,49720-9504,,,2018-07-24 01:33:32.898605,2018-08-24 00:42:13.648726,United States,-85.249116,45.304738,
lake-charlevoix-brewing-company,Lake Charlevoix Brewing Company,brewpub,111 Bridge Park Dr,Charlevoix,Michigan,49720-1397,http://www.lakecharlevoixbrewing.com,2314373220,2018-07-24 01:33:35.181734,2018-08-24 00:43:24.144126,United States,-85.2580011223289,45.3172830722043,
eaton-pub-and-grille-brewery-/-charlotte-brewing-co,Eaton Pub & Grille Brewery / Charlotte Brewing Co,brewpub,214 S Cochran Ave,Charlotte,Michigan,48813-1551,http://www.eatonpub.com,5175438882,2018-07-24 01:33:34.07601,2018-08-24 00:42:48.310178,United States,-84.83579,42.549391,
cheboygan-brewing-co,Cheboygan Brewing Co,micro,101 N Main St,Cheboygan,Michigan,49721-1637,http://www.cheboyganbrewing.com,2312683277,2018-07-24 01:33:33.651193,2018-08-24 00:42:33.844815,United States,-84.4743633,45.647403,
chelsea-alehouse-brewery,Chelsea Alehouse Brewery,brewpub,420 N Main St Ste 100,Chelsea,Michigan,48118-1299,http://www.chelseaalehouse.com,7344335500,2018-07-24 01:33:33.664468,2018-08-11 21:37:47.531684,United States,,,
bitter-old-fecker-rustic-ales,Bitter Old Fecker Rustic Ales,micro,12855 E Old US Hwy 12,Chelsea,Michigan,48118-9229,,7344445201,2018-07-24 01:33:33.151757,2018-08-24 00:42:20.205654,United States,-83.9845228089172,42.2995378980892,
four-leaf-brewing,Four Leaf Brewing,brewpub,412 N McEwan St,Clare,Michigan,48617-1403,http://www.fourleafcraftbeer.com,9894246114,2018-07-24 01:33:34.384277,2018-08-24 00:42:58.455711,United States,-84.7683591,43.8256884,
parkers-hilltop-brewery,Parkers Hilltop Brewery,brewpub,6110 Dixie Hwy,Clarkston,Michigan,48346-3409,http://www.hilltopbrew.com,2483838444,2018-07-24 01:33:36.008692,2018-08-24 00:43:51.316351,United States,-83.4149011,42.7174413,
black-lotus-brewing-co,Black Lotus Brewing Co,brewpub,1 E 14 Mile Rd,Clawson,Michigan,48017-2132,http://WWW.BLACKLOTUSBEER.COM,2485771878,2018-07-24 01:33:33.178431,2018-08-24 00:42:21.248953,United States,-83.141428,42.533563,
great-baraboo-brewing-co,Great Baraboo Brewing Co,brewpub,35905 Utica Rd,Clinton Township,Michigan,48035-2155,http://www.greatbaraboo.com,5867927397,2018-07-24 01:33:34.582427,2018-08-24 00:43:04.798598,United States,-82.9651401780061,42.5602803395477,
kuhnhenn-clinton-township,Kuhnhenn Clinton Township,micro,36000 Groesbeck Hwy,Clinton Township,Michigan,48035-1541,,5862310249,2018-07-24 01:33:35.157242,2018-08-24 00:43:23.276769,United States,-82.9178273922037,42.5617964642745,
cjs-brewing-co,CJs Brewing Co,brewpub,8115 Richardson Rd,Commerce Township,Michigan,48390-4131,http://www.cjsbrewingcompany.com,2483667979,2018-07-24 01:33:33.705646,2018-08-24 00:42:35.289171,United States,-83.4429583905637,42.5774369385358,
kickstand-brewing-co,Kickstand Brewing Co,brewpub,3050 Union Lake Rd Ste 4A,Commerce Township,Michigan,48382-4543,http://www.kickstandbrewingco.com,2483015941,2018-07-24 01:33:35.116905,2018-08-11 21:37:51.461624,United States,,,
bier-distillery,Bier Distillery,micro,5295 West River Dr NE Ste 100,Comstock Park,Michigan,49321-8030,http://bierdistillery.com,6168889746,2018-07-24 01:33:32.993293,2018-08-11 21:37:45.910487,United States,,,
elk-brewing-co,Elk Brewing Co,brewpub,400 Dodge Rd NE,Comstock Park,Michigan,49321-8041,,6162385227,2018-07-24 01:33:34.116076,2018-08-11 21:37:48.570278,United States,,,
speciation-artisan-ales,Speciation Artisan Ales,micro,3720 West River Dr NE Ste 201,Comstock Park,Michigan,49321-8980,http://speciationartisanales.com,6166666783,2018-07-24 01:33:36.656813,2018-08-11 21:37:56.520635,United States,,,
perrin-brewing-company,Perrin Brewing Company,regional,5910 Comstock Park Dr NW,Comstock Park,Michigan,49321-8256,http://www.perrinbrewing.com,6165511957,2018-07-24 01:33:36.058873,2018-08-11 21:37:54.546364,United States,,,
constantine-brewing-co,Constantine Brewing Co,brewpub,145 S Washington St,Constantine,Michigan,49042-1047,http://www.constantinebrewingco.com,2694351230,2018-07-24 01:33:33.790229,2018-08-24 00:42:38.080124,United States,-85.668595877551,41.8416421632653,
brickside-brewery,Brickside Brewery,micro,64 Gratiot Street,Copper Harbor,Michigan,49918,http://www.bricksidebrewery.com,9062894772,2018-07-24 01:33:33.502638,2018-08-11 21:37:47.159336,United States,,,
mds-sports-tavern-and-grill,MDs Sports Tavern and Grill,brewpub,3040 N State Rd,Davison,Michigan,48423-1146,http://www.mdsportstavern.com,8106536408,2018-07-24 01:33:35.463873,2018-08-24 00:43:34.004085,United States,-83.517313303003,43.05021425,
dearborn-brewing,Dearborn Brewing,micro,21930 Michigan Ave,Dearborn,Michigan,48124-2351,http://www.dearbornbrewing.com,3139144187,2018-07-24 01:33:33.905754,2018-08-24 00:42:42.458559,United States,-83.2433835,42.30664415,
downey-brewing-company,Downey Brewing Company,micro,13121 Prospect St,Dearborn,Michigan,48126-3603,http://www.downeybrewingcompany.com,3132888442,2018-07-24 01:33:33.946018,2018-08-24 00:42:43.882762,United States,-83.1735072471655,42.3162529546485,
final-gravity-brewing-company,Final Gravity Brewing Company,planning,,Decatur,Michigan,49045-1118,http://www.finalgravitybrew.com,,2018-07-24 01:33:34.287932,2018-08-11 21:37:49.02094,United States,,,
final-gravity-brewing-co,Final Gravity Brewing Co,brewpub,103 N Phelps St,Decatur,Michigan,49045-1008,http://www.finalgravitybrew.com,2694368052,2018-07-24 01:33:34.275924,2018-08-24 00:42:54.857199,United States,-85.9745474897959,42.1087669387755,
vanmax-brewing-company-llc,VanMax Brewing Company LLC,micro,103 N Phelps St,Decatur,Michigan,49045-1008,http://www.vanmaxbrewing.com,2692171720,2018-07-24 01:33:37.391818,2018-08-24 00:44:36.919541,United States,-85.9745474897959,42.1087669387755,
tujax-tavern,Tujax Tavern,brewpub,103 S Grove St,Delton,Michigan,49046-9470,,2696238310,2018-07-24 01:33:37.287393,2018-08-24 00:44:33.202988,United States,-85.407991,42.496258,
brewery-faisan,Brewery Faisan,planning,,Detroit,Michigan,48207,http://www.breweryfaisan.com,5867032030,2018-07-24 01:33:33.362323,2018-08-11 21:37:46.808609,United States,,,
american-badass-beer,American Badass Beer,contract,1401 Abbott St Corktown,Detroit,Michigan,48216-1946,http://www.americanbadassbeer.com,,2018-07-24 01:33:32.566279,2018-08-11 21:37:44.799454,United States,,,
atwater-brewing-co,Atwater Brewing Co,regional,237 Joseph Campau St,Detroit,Michigan,48207-4107,http://www.atwaterbeer.com,3138779205,2018-07-24 01:33:32.679859,2018-08-24 00:42:06.885141,United States,-83.072904,42.4190883,
batch-brewing-co,Batch Brewing Co,brewpub,1400 Porter St,Detroit,Michigan,48216-1934,http://www.BatchBrewingCompany.com,3133388008,2018-07-24 01:33:32.868186,2018-08-24 00:42:12.702031,United States,-83.088689,42.3184806,
brew-detroit,Brew Detroit,micro,1401 Abbott St,Detroit,Michigan,48216-1946,http://www.brewdetroit.com,3139747366,2018-07-24 01:33:33.312448,2018-08-24 00:42:26.008157,United States,-83.0619768993289,42.327702885906,
detroit-beer-co,Detroit Beer Co,brewpub,1529 Broadway St Ste 100,Detroit,Michigan,48226-2141,http://www.detroitbeerco.com,3139621529,2018-07-24 01:33:33.919112,2018-08-24 00:42:42.965652,United States,-83.0487178571428,42.335962,
eastern-market-brewing-company,Eastern Market Brewing Company,micro,2515 Riopelle St,Detroit,Michigan,48207-4526,http://www.easternmarket.beer,,2018-07-24 01:33:34.063631,2018-08-24 00:42:47.859573,United States,-83.0387622857143,42.346625,
founders-brewing-co,Founders Brewing Co,regional,456 Charlotte St,Detroit,Michigan,48201-2640,,,2018-07-24 01:33:34.347274,2018-08-24 00:42:57.111959,United States,-83.0605729011145,42.34299565,
granite-city-food-and-brewery,Granite City Food & Brewery,brewpub,100 Renaissance Ctr,Detroit,Michigan,48243-1114,,,2018-07-24 01:33:34.533926,2018-08-24 00:43:02.975856,United States,-83.0405393062553,42.32916295,
motor-city-brewing-works,Motor City Brewing Works,brewpub,470 W Canfield St,Detroit,Michigan,48201-1220,http://www.motorcitybeer.com,3138322700,2018-07-24 01:33:35.558851,2018-08-24 00:43:37.231648,United States,-83.0660373282061,42.3518156,
motor-city-brewing-works-warehouse,Motor City Brewing Works Warehouse,micro,441 W Canfield St,Detroit,Michigan,48201-1231,,,2018-07-24 01:33:35.572309,2018-08-24 00:43:37.667735,United States,-83.0647489292929,42.351519969697,
vivios-food,Vivio's Food,planning,,Detroit,Michigan,48207-4516,http://www.viviosdetroit.com,3133931711,2018-07-24 01:33:37.416252,2018-08-11 21:37:58.334809,United States,,,
traffic-jam-and-snug,Traffic Jam and Snug,brewpub,4268 2nd Ave,Detroit,Michigan,48201-1706,http://www.trafficjamdetroit.com,3138319470,2018-07-24 01:33:37.206024,2018-08-24 00:44:30.488016,United States,-83.086546,42.384371,
looking-glass-brewing-company,Looking Glass Brewing Company,brewpub,115 N Bridge St,Dewitt,Michigan,48820-8901,http://www.facebook.com/DeWittBreweryProject/,5175827287,2018-07-24 01:33:35.350636,2018-08-24 00:43:30.33037,United States,-84.5692237142857,42.8424362857143,
jolly-pumpkin-artisan-ales,Jolly Pumpkin Artisan Ales,micro,2319 Bishop Cir E,Dexter,Michigan,48130-1567,http://www.jollypumpkin.com,7344264962,2018-07-24 01:33:35.002225,2018-08-24 00:43:18.584476,United States,-83.8768368213333,42.3248727749811,
dimes-brewhouse,Dimes Brewhouse,micro,145 N Bridge St,Dimondale,Michigan,48821-9201,http://www.dimesbrewhouse.com,5173032067,2018-07-24 01:33:33.931979,2018-08-24 00:42:43.407216,United States,-84.6483014,42.64660055,
5-lakes-brewing-co,5 Lakes Brewing Co.,brewpub,1638 142nd Ave,Dorr,Michigan,49323-9312,http://www.5lakesbrewing.com,6163599555,2018-07-24 01:33:32.4643,2018-08-24 00:41:58.746362,United States,-85.7044551836735,42.7249715714286,
saugatuck-brewing-co,Saugatuck Brewing Co,micro,2948 Blue Star Hwy,Douglas,Michigan,49406-5195,http://www.saugatuckbrewing.com,2698577222,2018-07-24 01:33:36.48991,2018-08-24 00:44:06.736852,United States,-86.2120076981151,42.6298938561253,
sister-lakes-brewing-company,Sister Lakes Brewing Company,brewpub,92500 County Road 690,Dowagiac,Michigan,49047-9021,http://www.sisterlakesbrewing.com,2693325135,2018-07-24 01:33:36.579035,2018-08-11 21:37:56.299827,United States,,,
strand-brewery,Strand Brewery,brewpub,93415 County Road 690,Dowagiac,Michigan,49047-9025,http://www.strandbrewery.com,2694247500,2018-07-24 01:33:36.768432,2018-08-11 21:37:56.891643,United States,,,
railtown-brewing-co,Railtown Brewing Co,micro,3595 68th St SE,Dutton,Michigan,49316-8503,http://www.railtownbrewing.com,6168812364,2018-07-24 01:33:36.176143,2018-08-24 00:43:56.435304,United States,-85.5783306530612,42.841188877551,
harpers-restaurant-and-brewpub,Harpers Restaurant and Brewpub,brewpub,131 Albert Ave,East Lansing,Michigan,48823-4315,http://www.harpersbrewpub.com,5173334040,2018-07-24 01:33:34.725545,2018-08-24 00:43:09.362049,United States,-84.4828245246491,42.73626665,
ellison-brewery-and-spirits,Ellison Brewery & Spirits,micro,4903 Dawn Ave,East Lansing,Michigan,48823-5610,http://www.ellisonbrewing.com,5172035498,2018-07-24 01:33:34.152487,2018-08-11 21:37:48.664146,United States,,,
shorts-brewing-co-production-facility,Short's Brewing Co - Production Facility,regional,211 Industrial Park Dr,Elk Rapids,Michigan,49629-9452,http://www.shortsbrewing.com,2314982300,2018-07-24 01:33:36.553606,2018-08-11 21:37:56.171188,United States,,,
hereford-and-hops-steakhouse-and-brewpub,Hereford and Hops Steakhouse and Brewpub,brewpub,624 Ludington St,Escanaba,Michigan,49829-3844,http://www.herefordandhops.com,9067891945,2018-07-24 01:33:34.785112,2018-08-24 00:43:12.088079,United States,-87.0564571,45.7458964,
upper-hand-brewery,Upper Hand Brewery,micro,3525 Airport Rd,Escanaba,Michigan,49829-1096,http://www.upperhandbrewery.com,2693822338,2018-07-24 01:33:37.353175,2018-08-24 00:44:35.516011,United States,-87.097528,45.7164279,
farmington-underground-canning-and-kegging,Farmington Underground Canning and Kegging,micro,,Farmington,Michigan,48336,,,2018-07-24 01:33:34.212032,2018-08-11 21:37:48.84176,United States,,,
farmington-brewing-company-llc,Farmington Brewing Company LLC,micro,33336 Grand River Ave,Farmington,Michigan,48336-3124,http://fbcbrewing.com,2489579543,2018-07-24 01:33:34.200008,2018-08-24 00:42:53.032248,United States,-83.3760374202167,42.4649541,
brewery-in-planning-fennville,Brewery In Planning - Fennville,planning,,Fennville,Michigan,49408-8413,http://www.fennvalley.com,2695612396,2018-07-24 01:33:33.386869,2018-08-11 21:37:46.867734,United States,,,
waypost-brewing-co,Waypost Brewing Co.,planning,,Fennville,Michigan,49408,http://waypostbeer.com,6169162362,2018-07-24 01:33:37.469033,2018-08-11 21:37:58.451273,United States,,,
fenton-winery-and-brewery,Fenton Winery & Brewery,brewpub,1370 N Long Lake Rd,Fenton,Michigan,48430-8867,http://www.fentonwinery.com,8103734194,2018-07-24 01:33:34.225786,2018-08-24 00:42:53.525737,United States,-83.7047087631579,42.8515555657895,
lynchpin-beer-company-/-the-laundry,Lynchpin Beer Company / The Laundry,brewpub,115 W Shiawassee Ave,Fenton,Michigan,48430-2005,http://www.lunchandbeyond.com,8106298852,2018-07-24 01:33:35.400454,2018-08-24 00:43:31.764683,United States,-83.7064281428571,42.792852,
axle-brewing-company,Axle Brewing Company,micro,567 Livernois St,Ferndale,Michigan,48220-2303,http://www.axlebrewing.com,2486137002,2018-07-24 01:33:32.740815,2018-08-24 00:42:08.765118,United States,-83.1428144,42.4508021,
urbanrest-brewing-company,Urbanrest Brewing Company,micro,2615 Wolcott St,Ferndale,Michigan,48220-1422,http://www.urbanrest.com,,2018-07-24 01:33:37.365604,2018-08-24 00:44:35.943634,United States,-83.1274188,42.4679929,
woodward-avenue-brewers,Woodward Avenue Brewers,brewpub,22646 Woodward Ave,Ferndale,Michigan,48220-1810,http://www.thewabsite.com,2485463696,2018-07-24 01:33:37.545525,2018-08-24 00:44:42.249413,United States,-83.133331090021,42.4596444,
fife-lake-brewery,Fife Lake Brewery,planning,,Fife Lake,Michigan,49633-9319,,2313926757,2018-07-24 01:33:34.251458,2018-08-11 21:37:48.933186,United States,,,
redwood-brewing-co,Redwood Brewing Co,brewpub,5304 Gateway Ctr,Flint,Michigan,48507-3930,http://www.redwoodbrewingco.com,8102338000,2018-07-24 01:33:36.238982,2018-08-11 21:37:55.106128,United States,,,
tenacity-brewing,Tenacity Brewing,micro,119 N Grand Traverse St,Flint,Michigan,48503-5620,http://www.tenacitybrewing.com,8103396676,2018-07-24 01:33:36.856717,2018-08-24 00:44:19.759464,United States,-83.6966317916434,43.0152278792724,
frankenmuth-brewing-co,Frankenmuth Brewing Co,micro,425 S Main St,Frankenmuth,Michigan,48734-1615,http://www.frankenmuthbrewery.com,2489309440,2018-07-24 01:33:34.396482,2018-08-24 00:42:58.943364,United States,-83.7392940386682,43.3289333570094,
stormcloud-brewing-company,Stormcloud Brewing Company,brewpub,303 Main St,Frankfort,Michigan,49635-9047,http://www.stormcloudbrewing.com,2316519080,2018-07-24 01:33:36.743377,2018-08-24 00:44:15.561072,United States,-86.2410017455975,44.63290605,
stormcloud-brewing-company-production-facility,Stormcloud Brewing Company Production Facility,micro,366 Parkview Ln,Frankfort,Michigan,49635,,,2018-07-24 01:33:36.755601,2018-08-24 00:44:15.970003,United States,-86.2218117,44.6373933,
brew-works-of-fremont,Brew Works of Fremont,brewpub,5909 S Warner Ave,Fremont,Michigan,49412,http://www.thecommonsoffremont.com,2313355105,2018-07-24 01:33:33.324878,2018-08-24 00:42:26.444514,United States,-85.940033245614,43.4438071578947,
bells-brewery-inc,"Bell's Brewery, Inc",regional,8938 Krum Ave,Galesburg,Michigan,49053-9558,http://www.bellsbeer.com,2693822338,2018-07-24 01:33:32.965715,2018-08-11 21:37:45.823829,United States,,,
snowbelt-brewing-company,Snowbelt Brewing Company,brewpub,132 W Main St Unit 1,Gaylord,Michigan,49735-2304,,9894487077,2018-07-24 01:33:36.591995,2018-08-11 21:37:56.352362,United States,,,
hawkpeak-brewing-company-dba-grand-haven-brew-house,HawkPeak Brewing Company DBA Grand Haven Brew House,brewpub,101 Washington Ave # 2B,Grand Haven,Michigan,49417-1302,http://www.grandhavenbrewhouse.com,6166072060,2018-07-24 01:33:34.749676,2018-08-11 21:37:50.425669,United States,,,
grand-armory-brewing-co,Grand Armory Brewing Co,micro,17 S 2nd St,Grand Haven,Michigan,49417-3328,http://www.grandarmorybrewing.com,6164147822,2018-07-24 01:33:34.460298,2018-08-24 00:43:00.735239,United States,-86.2312557959184,43.0637875918367,
grand-armory-brewing-production-facility,Grand Armory Brewing Production Facility,micro,1734 Airpark Dr,Grand Haven,Michigan,49417-8943,,3106978958,2018-07-24 01:33:34.472467,2018-08-24 00:43:01.1691,United States,-86.197742815284,43.038621467135,
odd-side-ales,Odd Side Ales,micro,41 Washington Ave Ste 160,Grand Haven,Michigan,49417-1392,http://www.oddsideales.com,6169357326,2018-07-24 01:33:35.751572,2018-08-11 21:37:53.448712,United States,,,
odd-side-ales-production-facility,Odd Side Ales Production Facility,micro,1810 Industrial Dr,Grand Haven,Michigan,49417-8930,,,2018-07-24 01:33:35.76399,2018-08-24 00:43:44.317452,United States,-86.1983973013331,43.0312440758437,
brickhaven-brewing-company,BrickHaven Brewing Company,micro,200 E Jefferson St,Grand Ledge,Michigan,48837-1537,,5179251319,2018-07-24 01:33:33.488547,2018-08-24 00:42:29.174955,United States,-84.745273,42.752301,
sanctuary-spirits,Sanctuary Spirits,micro,902 E Saginaw Hwy,Grand Ledge,Michigan,48837-9419,http://www.sanctuaryspirits.com,5179251930,2018-07-24 01:33:36.465058,2018-08-24 00:44:06.312468,United States,-84.7345363820225,42.7407776966292,
lake-superior-brewing-co,Lake Superior Brewing Co,brewpub,N-14283 Lake Avenue,Grand Marais,Michigan,49839,http://www.grandmaraismichigan.com/LSBC,9064942337,2018-07-24 01:33:35.193614,2018-08-11 21:37:51.67907,United States,,,
brewery-vivant,Brewery Vivant,brewpub,925 Cherry St SE,Grand Rapids,Michigan,49506-1403,http://www.breweryvivant.com,6167191604,2018-07-24 01:33:33.476624,2018-08-24 00:42:28.729346,United States,-85.6468380909091,42.9596159090909,
fountain-hill-brewery,Fountain Hill Brewery,brewpub,151 Fountain St NE,Grand Rapids,Michigan,49503-3263,,6162343690,2018-07-24 01:33:34.372302,2018-08-24 00:42:58.010927,United States,-85.664754,42.965489,
the-mitten-brewing-co,The Mitten Brewing Co,brewpub,527 Leonard St NW,Grand Rapids,Michigan,49504-4278,http://www.mittenbrewing.com,6166085612,2018-07-24 01:33:37.017318,2018-08-24 00:44:24.797963,United States,-85.68101,42.9850773333333,
atwater-grand-rapids,Atwater Grand Rapids,brewpub,201 Michigan St NW,Grand Rapids,Michigan,49503-2323,,6166493020,2018-07-24 01:33:32.696386,2018-08-24 00:42:07.327179,United States,-85.672454,42.970463,
bobs-brewery,B.O.B's Brewery,brewpub,20 Monroe Ave NW,Grand Rapids,Michigan,49503-6208,http://thebobsbrewery.thebob.com,6163562000,2018-07-24 01:33:32.758021,2018-08-24 00:42:09.24303,United States,-85.6724844626685,42.9638257,
city-built-brewing-company,City Built Brewing Company,brewpub,820 Monroe Ave NW Ste 155,Grand Rapids,Michigan,49503-1413,http://www.citybuiltbrewing.com,6168055755,2018-07-24 01:33:33.690927,2018-08-11 21:37:47.599318,United States,,,
crankers-restaurant-and-brewery,Cranker's Restaurant & Brewery,brewpub,454 68th St SW,Grand Rapids,Michigan,49548-7115,http://www.crankersbrewery.com,6168271919,2018-07-24 01:33:33.842799,2018-08-11 21:37:47.936886,United States,,,
creston-brewery,Creston Brewery,brewpub,1504 Plainfield Ave NE,Grand Rapids,Michigan,49505-4923,http://www.crestonbrewery.com,6168054523,2018-07-24 01:33:33.867188,2018-08-24 00:42:41.01232,United States,-85.6625266122449,42.9912019183674,
east-west-brewing-co,East West Brewing Co,brewpub,1400 Lake Dr SE,Grand Rapids,Michigan,49506,http://www.eastwestbrewingcompany.com,6162885250,2018-07-24 01:33:34.051538,2018-08-24 00:42:47.337728,United States,-85.634947,42.957318,
elk-brewing-co,Elk Brewing Co,brewpub,700 Wealthy St SE,Grand Rapids,Michigan,49503-5539,http://www.elkbrewing.com,6162385227,2018-07-24 01:33:34.12904,2018-08-24 00:42:49.6573,United States,-85.6515221,42.9554463,
founders-brewing-co,Founders Brewing Co,regional,235 Grandville Ave SW,Grand Rapids,Michigan,49503-4037,http://www.foundersbrewing.com,6167761195,2018-07-24 01:33:34.335177,2018-08-24 00:42:56.692161,United States,-85.6765753,42.9524964,
founders-brewing-production-facility,Founders Brewing Production Facility,regional,900 Hynes Ave SW,Grand Rapids,Michigan,49507-1085,,,2018-07-24 01:33:34.359991,2018-08-24 00:42:57.565599,United States,-85.6752332261306,42.9466223417085,
grand-rapids-brewing-company,Grand Rapids Brewing Company,brewpub,1 Ionia Ave SW Ste 100,Grand Rapids,Michigan,49503-5122,http://www.grbrewingcompany.com,6164587000,2018-07-24 01:33:34.485229,2018-08-11 21:37:49.582249,United States,,,
hideout-brewing-co,Hideout Brewing Co,brewpub,3113 Plaza Dr NE,Grand Rapids,Michigan,49525-2901,http://www.hideoutbrewing.com,6163619658,2018-07-24 01:33:34.799002,2018-08-11 21:37:50.574169,United States,,,
hopcat,Hopcat,brewpub,25 Ionia Ave SW Ste 100,Grand Rapids,Michigan,49503-4179,http://www.hopcat.com,6164514677,2018-07-24 01:33:34.885891,2018-08-11 21:37:50.847941,United States,,,
greyline-brewing,Greyline Brewing,brewpub,1727 Alpine Ave NW,Grand Rapids,Michigan,49504-,,6168213786,2018-07-24 01:33:34.646681,2018-08-24 00:43:06.981508,United States,-85.6884354936709,42.9947437468354,
harmony-brewing-co,Harmony Brewing Co,brewpub,1551 Lake Dr SE,Grand Rapids,Michigan,49506-2705,,6162330063,2018-07-24 01:33:34.701989,2018-08-24 00:43:08.419007,United States,-85.6306684615385,42.9550134615385,
harmony-brewing-company-harmony-hall,Harmony Brewing Company - Harmony Hall,brewpub,401 Stocking Ave NW,Grand Rapids,Michigan,49504-5501,,,2018-07-24 01:33:34.713865,2018-08-24 00:43:08.887929,United States,-85.684118,42.970732,
jaden-james-brewery-the-cascade-winery,Jaden James Brewery @ The Cascade Winery,brewpub,4665 Broadmoor Ave SE Ste 135,Grand Rapids,Michigan,49512-5387,http://jadenjamesbrewery.com,6166564665,2018-07-24 01:33:34.947964,2018-08-24 00:43:16.734355,United States,-85.583194,42.909899,
jolly-pumpkin-pizzeria-and-brewery,Jolly Pumpkin Pizzeria and Brewery,brewpub,428 Bridge St NW,Grand Rapids,Michigan,49504,,6164194676,2018-07-24 01:33:35.05488,2018-08-24 00:43:19.590619,United States,-85.6800865,42.970511,
schmohz-brewery,Schmohz Brewery,micro,2600 Patterson Ave SE Ste 1,Grand Rapids,Michigan,49546-6394,http://www.schmohz.com,6169490860,2018-07-24 01:33:36.502814,2018-08-11 21:37:55.974199,United States,,,
the-knickerbocker/-new-holland-brewing,The Knickerbocker/ New Holland Brewing,brewpub,417 Bridge St NW,Grand Rapids,Michigan,49504-5305,,6163455642,2018-07-24 01:33:36.95944,2018-08-24 00:44:23.432457,United States,-85.680443122449,42.9706821428571,
the-mitten-brewing-company-production-facility,The Mitten Brewing Company Production Facility,micro,540 Leonard St NW,Grand Rapids,Michigan,49504-4260,,,2018-07-24 01:33:37.058119,2018-08-24 00:44:25.732724,United States,-85.6810027631579,42.9849126578947,
thornapple-brewing-company,Thornapple Brewing Company,micro,6262 28th st SE,Grand rapids,Michigan,49546,http://Www.thornapplebrewing.com,6164226209,2018-07-24 01:33:37.132875,2018-08-24 00:44:27.983382,United States,-85.6506666,42.9128114,
vander-mill,Vander Mill,brewpub,505 Ball Ave NE,Grand Rapids,Michigan,49503-2011,http://www.vandermill.com,6162598828,2018-07-24 01:33:37.379397,2018-08-24 00:44:36.386543,United States,-85.6305954,42.9712724,
brass-ring-brewery,Brass Ring Brewery,brewpub,2404 Eastern Ave SE,Grand Rapids,Michigan,49507-3632,http://www.brassringbrewing.com,6164601587,2018-07-24 01:33:33.287448,2018-08-24 00:42:25.097761,United States,-85.647414877551,42.9198742244898,
arvon-brewing-co,Arvon Brewing Co.,micro,3057 Broadway Ave SW,Grandville,Michigan,49418-1528,http://www.arvonbrewingco.com,6162240086,2018-07-24 01:33:32.649386,2018-08-24 00:42:05.792903,United States,-85.7720434,42.909272,
osgood-brewing,Osgood Brewing,brewpub,4051 Chicago Dr SW,Grandville,Michigan,49418-1257,http://www.osgoodbrewing.com,,2018-07-24 01:33:35.928589,2018-08-24 00:43:48.858522,United States,-85.7649303877551,42.9090780408163,
tootsies-brewery-/-lone-oak-vineyard,Tootsie's Brewery / Lone Oak Vineyard,brewpub,8400 Ann Arbor Rd,Grass Lake,Michigan,49240-9586,http://www.tootsiesbrewery.com,5175228167,2018-07-24 01:33:37.181884,2018-08-11 21:37:57.797317,United States,,,
paddle-hard-brewing,Paddle Hard Brewing,micro,118 Michigan Ave,Grayling,Michigan,49738-1741,http://paddlehardbrewing.com,9897456388,2018-07-24 01:33:35.968809,2018-08-24 00:43:50.392472,United States,-84.709584,44.66521,
dead-bear-brewing-co,Dead Bear Brewing Co,brewpub,2552 S I 75 Business Loop,Grayling,Michigan,49738-2010,,9897456289,2018-07-24 01:33:33.892142,2018-08-11 21:37:48.045078,United States,,,
paddle-hard-brewing,Paddle Hard Brewing,brewpub,227 E Michigan Ave,Grayling,Michigan,49738-1742,,9897456388,2018-07-24 01:33:35.980752,2018-08-24 00:43:50.826548,United States,-84.7167516428571,44.6600472959184,
rolling-oak-brewing-co,Rolling Oak Brewing Co,micro,509 Norway St,Grayling,Michigan,49738-1719,http://rollingoakbrewing.com,9897456280,2018-07-24 01:33:36.362191,2018-08-24 00:44:02.532847,United States,-84.716671,44.661765,
castle-brewing-co,Castle Brewing Co,brewpub,1310 W Washington,Greenville,Michigan,48838,http://www.castlebrewingco.com,6167126226,2018-07-24 01:33:33.596919,2018-08-11 21:37:47.372416,United States,,,
atwater-in-the-park-biergarten-and-tap-house,Atwater In the Park Biergarten and Tap House,brewpub,1175 Lakepointe St,Grosse Pointe Park,Michigan,48230-1319,http://www.atwaterbeer.com,3133445104,2018-07-24 01:33:32.710176,2018-08-24 00:42:07.906265,United States,-82.9399103,42.3814617,
tunnel-vision-brewery,Tunnel Vision Brewery,brewpub,5699 S Lake Shore Dr,Harbor Springs,Michigan,49740-9784,http://www.pondhill.com,2315263276,2018-07-24 01:33:37.299408,2018-08-24 00:44:33.669668,United States,-85.065042,45.471828,
big-hart-brewing-company,Big Hart Brewing Company,brewpub,4086 W Polk Rd,Hart,Michigan,49420-8172,http://www.bighartbrewing.com,2313018226,2018-07-24 01:33:33.07509,2018-08-11 21:37:46.069313,United States,,,
walldorff-brewpub-and-bistro,Walldorff Brewpub & Bistro,brewpub,105 E State St,Hastings,Michigan,49058-1808,http://www.walldorffbrewpub.com,2699454400,2018-07-24 01:33:37.428416,2018-08-24 00:44:38.94581,United States,-85.284584,42.6487487,
glass-creek-winery,Glass Creek Winery,micro,450 N Whitmore Rd,Hastings,Michigan,49058-9791,http://www.glasscreekwinery.com,2699482752,2018-07-24 01:33:34.43125,2018-08-11 21:37:49.437757,United States,,,
cellarmens-meadery-microbrewery-and-cidery,"Cellarmen's Meadery, Microbrewery and Cidery",micro,24310 John R Rd,Hazel Park,Michigan,48030-1112,http://www.cellarmens.com,5864134206,2018-07-24 01:33:33.637308,2018-08-11 21:37:47.46955,United States,,,
the-maple-grille-llc,The Maple Grille LLC,brewpub,13105 Gratiot Rd,Hemlock,Michigan,48626-8444,,,2018-07-24 01:33:36.986389,2018-08-24 00:44:24.338844,United States,-84.1741049,43.4157758,
hillsdale-brewing-company,Hillsdale Brewing Company,brewpub,25 Hillsdale St,Hillsdale,Michigan,49242-1208,,5172128182,2018-07-24 01:33:34.810805,2018-08-24 00:43:12.540398,United States,-84.63154725,41.924708875,
bam-entertainment-center,Bam Entertainment Center,brewpub,478 E 16th St,Holland,Michigan,49423-3793,http://www.gobamgo.com,6163927086,2018-07-24 01:33:32.804686,2018-08-24 00:42:10.759389,United States,-86.0855515638507,42.7812873,
brewery-4-two-4,Brewery 4 Two 4,micro,321 Douglas Ave Ste 120,Holland,Michigan,49424-6599,http://brewery424.com,6163777773,2018-07-24 01:33:33.337408,2018-08-11 21:37:46.743468,United States,,,
big-lake-brewing,Big Lake Brewing,micro,13 W 7th St,Holland,Michigan,49423-2821,http://www.biglakebrewing.com,6167968888,2018-07-24 01:33:33.090824,2018-08-24 00:42:18.284229,United States,-86.1079158742726,42.79149405,
big-lake-brewing-production-facility,Big Lake Brewing Production Facility,micro,166 E 19th St,Holland,Michigan,49423-4230,,,2018-07-24 01:33:33.107075,2018-08-24 00:42:18.807938,United States,-86.0998882380952,42.7802947142857,
fireside-brewing-co,Fireside Brewing Co.,micro,430 W 17th St Ste 27,Holland,Michigan,49423-3403,,6162943777,2018-07-24 01:33:34.311611,2018-08-11 21:37:49.086815,United States,,,
great-legs-winery-brewery-and-distillery,"Great Legs Winery, Brewery, and Distillery",micro,332 E Lakewood Blvd,Holland,Michigan,49424-3306,http://www.greatlegswinery.com,6169169729,2018-07-24 01:33:34.595885,2018-08-11 21:37:49.915554,United States,,,
macatawa-ale-company,Macatawa Ale Company,micro,102 S River Ave,Holland,Michigan,49423-2851,http://www.macatawaalecompany.com,6168487677,2018-07-24 01:33:35.413207,2018-08-24 00:43:32.221355,United States,-86.1091165909091,42.7922396818182,
new-holland-brewing-co-production-facility,New Holland Brewing Co - Production Facility,regional,690 Commerce Ct,Holland,Michigan,49424-2913,,6165102259,2018-07-24 01:33:35.637117,2018-08-11 21:37:53.152647,United States,,,
new-holland-brewing-co,New Holland Brewing Co,regional,66 E 8th St,Holland,Michigan,49423-3504,http://www.newhollandbrew.com,6163556422,2018-07-24 01:33:35.623611,2018-08-24 00:43:39.097103,United States,-86.1041187163451,42.79010355,
our-brewing-co,Our Brewing Co,micro,76 E 8th St,Holland,Michigan,49423-3556,http://www.ourbrewingcompany.com,6169948417,2018-07-24 01:33:35.941529,2018-08-24 00:43:49.386991,United States,-86.1037537,42.7901898,
tripelroot-production-facility,Tripelroot Production Facility,micro,2262 112th Ave,Holland,Michigan,49424-9638,,,2018-07-24 01:33:37.274828,2018-08-24 00:44:32.759904,United States,-86.0580859,42.802587,
northern-oak-brewery,Northern Oak Brewery,brewpub,806 N Saginaw St,Holly,Michigan,48442-1347,http://www.northernoakbrewery.com,2486347515,2018-07-24 01:33:35.727173,2018-08-24 00:43:43.023031,United States,-83.6273796449824,42.8002627292793,
keweenaw-brewing-co,Keweenaw Brewing Co,micro,408 Shelden Ave,Houghton,Michigan,49931-2138,http://www.keweenawbrewing.com,9064825596,2018-07-24 01:33:35.091647,2018-08-24 00:43:20.958737,United States,-88.5687729,47.1219857,
keweenaw-brewing-co-production-facility,Keweenaw Brewing Co - Production Facility,micro,408 Shelden Ave,Houghton,Michigan,49931,http://www.keweenawbrewing.com,9064821937,2018-07-24 01:33:35.104418,2018-08-24 00:43:21.392254,United States,-88.5687729,47.1219857,
library-restaurant-bar-and-brewpub,"Library Restaurant, Bar and Brewpub",brewpub,62 Isle Royale St,Houghton,Michigan,49931-1827,http://www.librarybrewpub.com,9064875882,2018-07-24 01:33:35.297233,2018-08-24 00:43:28.389459,United States,-88.567010625,47.122159125,
aberrant-ales,Aberrant Ales,brewpub,219 W Grand River Ave,Howell,Michigan,48843,http://www.aberrantales.com,5175188699,2018-07-24 01:33:32.512378,2018-08-24 00:42:00.172726,United States,-83.9309453877551,42.6077372244898,
brewery-in-planning-brighton-mi,"Brewery In Planning- Brighton, MI.",planning,,Howell,Michigan,48843-9697,http://www.schmucksbrewing.com,,2018-07-24 01:33:33.438096,2018-08-11 21:37:47.000247,United States,,,
block-brewing-company,Block Brewing Company,brewpub,1140 S Michigan Ave,Howell,Michigan,48843-2669,http://www.blockbrewingcompany.com,,2018-07-24 01:33:33.219858,2018-08-24 00:42:22.673824,United States,-83.931806,42.603858,
eternity-brewing-co,Eternity Brewing Co,micro,4060 E Grand River Ave,Howell,Michigan,48843-8583,http://www.eternitybrewing.com,5172954904,2018-07-24 01:33:34.164193,2018-08-24 00:42:51.554204,United States,-83.9948055,42.6327301666667,
howells-mainstreet-winery-brewery-and-pizzeria,"Howell's MainStreet Winery, Brewery & Pizzeria",brewpub,201 W Grand River Ave,Howell,Michigan,48843-2238,http://www.howellsmainstreetwinery.com,5175459463,2018-07-24 01:33:34.909503,2018-08-24 00:43:15.383621,United States,-83.9308010204082,42.6076839591837,
pike-51-brewing,Pike 51 Brewing,brewpub,3768 Chicago Dr,Hudsonville,Michigan,49426-1637,http://www.hudsonvillewinery.com,6166624589,2018-07-24 01:33:36.109645,2018-08-24 00:43:54.60231,United States,-85.8794471822368,42.8606643955474,
white-flame-brewing-co,White Flame Brewing Co,brewpub,5234 36th Ave,Hudsonville,Michigan,49426-1636,http://www.whiteflamebrewing.com,6162095098,2018-07-24 01:33:37.494363,2018-08-11 21:37:58.508172,United States,,,
the-sanford-beverage-company-inc-dba-steele-street-brewing,"The Sanford Beverage Company, Inc. D.B.A. Steele Street Brewing",brewpub,300 S Steele St,Ionia,Michigan,48846-2008,http://www.steelestreetbrewing.com,6165234003,2018-07-24 01:33:37.094769,2018-08-24 00:44:27.074947,United States,-85.0676624305556,42.9813583055556,
cold-iron-brewing,Cold Iron Brewing,micro,104 S Lowell St,Ironwood,Michigan,49938-2044,http://www.coldironbrewing.com,9062857020,2018-07-24 01:33:33.761974,2018-08-24 00:42:37.175915,United States,-90.169849131419,46.4539057533536,
cognition-brewing-company,Cognition Brewing Company,micro,113 E Canda St,Ishpeming,Michigan,49849-1904,http://www.cognitionbrewing.com,9062042724,2018-07-24 01:33:33.733687,2018-08-24 00:42:36.276158,United States,-87.6681955,46.4916806,
jasper-ridge-brewing-co,Jasper Ridge Brewing Co,brewpub,1075 Country Ln Ste 100,Ishpeming,Michigan,49849-3402,http://www.countryvillageresort.com/httpdocs/html/brewery.html,9064856017,2018-07-24 01:33:34.984308,2018-08-24 00:43:18.154378,United States,-87.6791484954959,46.5014824157551,
hometown-cellars-winery-and-brewery,Hometown Cellars Winery & Brewery,micro,108 E Center St Ste D,Ithaca,Michigan,48847-1453,http://www.hometowncellars.com,9898756010,2018-07-24 01:33:34.847734,2018-08-11 21:37:50.748581,United States,,,
grand-river-brewery,Grand River Brewery,brewpub,117 W Louis Glick Hwy,Jackson,Michigan,49201-1327,http://www.grandrivermarketplace.com,5179622427,2018-07-24 01:33:34.497728,2018-08-24 00:43:02.095126,United States,-84.406597,42.249334,
127-brewing,127 Brewing,micro,3090 Shirley Dr,Jackson,Michigan,49201-7010,,5172581346,2018-07-24 01:33:32.45001,2018-08-24 00:41:58.331121,United States,-84.4311679214937,42.2866721186562,
ironbark-brewery,Ironbark Brewery,micro,2610 Kibby Rd,Jackson,Michigan,49203-4908,,5177487988,2018-07-24 01:33:34.933983,2018-08-24 00:43:16.263391,United States,-84.4376297560976,42.218897097561,
poison-frog-brewing-company,Poison Frog Brewing Company,brewpub,1908 Horton Rd,Jackson,Michigan,49203-5520,,5177485997,2018-07-24 01:33:36.150871,2018-08-24 00:43:56.010007,United States,-84.4374521976744,42.2014117790698,
sandhill-crane-vineyards,Sandhill Crane Vineyards,micro,4724 Walz Rd,Jackson,Michigan,49201-9613,http://www.sandhillcranevineyards.com,5177640679,2018-07-24 01:33:36.477555,2018-08-11 21:37:55.862606,United States,,,
arcadia-brewing-co,Arcadia Brewing Co,micro,701 E Michigan Ave,Kalamazoo,Michigan,49007-4946,http://www.arcadiaales.com,2692760458,2018-07-24 01:33:32.625767,2018-08-24 00:42:04.699982,United States,-85.5715368,42.2950789,
bilbos-pizza-and-brewery,Bilbo's Pizza and Brewery,brewpub,3307 Stadium Dr,Kalamazoo,Michigan,49008-1528,http://www.bilbospizza.com,2693825544,2018-07-24 01:33:33.138524,2018-08-24 00:42:19.754416,United States,-85.6312249418605,42.271602248062,
final-gravity-brewing-company,Final Gravity Brewing Company,micro,246 N Burdick St,Kalamazoo,Michigan,49007-3828,http://www.finalgravitybrew.com,,2018-07-24 01:33:34.299791,2018-08-24 00:42:55.326287,United States,-85.5831588823529,42.2932447058824,
gonzos-bigdogg-brewery,Gonzo's BigDogg Brewery,brewpub,140 S Westnedge Ave,Kalamazoo,Michigan,49007-4600,http://www.gonzosbiggdoggbrewing.com,2693822739,2018-07-24 01:33:34.443106,2018-08-24 00:43:00.287111,United States,-85.590082607993,42.2908852,
american-brewers-inc,American Brewers Inc,micro,3408 Miller Rd,Kalamazoo,Michigan,49001-4111,http://www.americanbrewers.us,2692171920,2018-07-24 01:33:32.578944,2018-08-24 00:42:02.849138,United States,-85.5378194022346,42.2667199832402,
bells-eccentric-cafe,Bell's Eccentric Cafe,brewpub,355 E Kalamazoo Ave,Kalamazoo,Michigan,49007-3807,http://www.bellsbeer.com,2693822332,2018-07-24 01:33:32.980149,2018-08-24 00:42:15.434823,United States,-85.5788729220803,42.29491555,
brite-eyes-brewing-co,Brite Eyes Brewing Co,brewpub,1156 S Burdick St,Kalamazoo,Michigan,49001-2741,,2692205001,2018-07-24 01:33:33.515726,2018-08-24 00:42:30.177738,United States,-85.582846,42.2797726833333,
one-well-brewing,One Well Brewing,planning,,Kalamazoo,Michigan,49001-5264,,2694599240,2018-07-24 01:33:35.862021,2018-08-11 21:37:53.713972,United States,,,
olde-peninsula-brewpub-and-restaurant,Olde Peninsula Brewpub and Restaurant,brewpub,200 E Michigan Ave,Kalamazoo,Michigan,49007-3961,http://www.oldepeninsula.com,2693432739,2018-07-24 01:33:35.837572,2018-08-24 00:43:46.163284,United States,-85.581578,42.2916484,
one-well-brewing,One Well Brewing,brewpub,4213 Portage St,Kalamazoo,Michigan,49001-5264,http://www.onewellbrewing.com,2694599240,2018-07-24 01:33:35.84955,2018-08-24 00:43:46.57475,United States,-85.5591755,42.2485915,
ruperts-brew-house,Rupert's Brew House,micro,773 W Michigan Ave,Kalamazoo,Michigan,49007-4518,http://www.rupertsbrewhouse.com,2693379911,2018-07-24 01:33:36.428019,2018-08-24 00:44:04.845366,United States,-85.5941773954181,42.29072325,
texas-corners-brewing-company,Texas Corners Brewing Company,brewpub,6970 Texas Dr,Kalamazoo,Michigan,49009-9795,http://www.texascornersbrewing.com,2698707724,2018-07-24 01:33:36.895175,2018-08-24 00:44:21.113697,United States,-85.6486336,42.2300087,
tibbs-brewing-co,Tibbs Brewing Co,brewpub,402 S Burdick St,Kalamazoo,Michigan,49007-5218,,8777627397,2018-07-24 01:33:37.157531,2018-08-24 00:44:28.922183,United States,-85.5832083061224,42.2885994897959,
boatyard-brewing-co,Boatyard Brewing Co,micro,432 E Paterson St,Kalamazoo,Michigan,49007-2599,http://www.boatyardbrewing.com,2692260300,2018-07-24 01:33:33.273816,2018-08-24 00:42:24.589383,United States,-85.578439,42.303203,
51st-state-brewing-company,51st State Brewing Company,brewpub,115 Harding Ave,Kingsford,Michigan,49802-3815,http://www.51ststatebrewingcompany.com,9068282167,2018-07-24 01:33:32.478662,2018-08-24 00:41:59.192756,United States,-88.08819,45.808408,
lake-ann-brewing-co,Lake Ann Brewing Co,micro,6535 First St,Lake Ann,Michigan,49650-9549,http://www.lakeannbrewing.com,2316402327,2018-07-24 01:33:35.169497,2018-08-11 21:37:51.595377,United States,,,
eaglemonk-pub-and-brewery,EagleMonk Pub and Brewery,brewpub,4906 W Mount Hope Hwy,Lansing,Michigan,48917-9588,,5177087350,2018-07-24 01:33:34.013519,2018-08-24 00:42:45.958888,United States,-84.662048,42.712054,
midtown-brewing-co,Midtown Brewing Co,micro,402 S Washington Sq,Lansing,Michigan,48933-2172,http://www.midtownbrewingco.com,5179771349,2018-07-24 01:33:35.514124,2018-08-11 21:37:52.813455,United States,,,
lansing-brewing-company,Lansing Brewing Company,brewpub,518 E Shiawassee St,Lansing,Michigan,48912-1214,,5175996001,2018-07-24 01:33:35.20849,2018-08-24 00:43:25.001107,United States,-84.5455093002192,42.7368424,
ozones-brewhouse,Ozone's Brewhouse,micro,305 Beaver St,Lansing,Michigan,48906-4411,http://www.ozonesbrewhouse.com,5179992739,2018-07-24 01:33:35.956134,2018-08-24 00:43:49.908157,United States,-84.5486098265306,42.7505921020408,
tilted-axis-brewing-company,Tilted Axis Brewing Company,brewpub,303 W Nepessing St,Lapeer,Michigan,48446-2105,http://www.tiltedaxis.beer,8109694477,2018-07-24 01:33:37.169738,2018-08-24 00:44:29.430028,United States,-83.3124754897959,43.053775755102,
barn-brewers,Barn Brewers,brewpub,114 N Main St,Lawton,Michigan,49065-8634,http://www.barnbrewersbrewery.com,2692990482,2018-07-24 01:33:32.819408,2018-08-24 00:42:11.211442,United States,-85.8496644285714,42.1683481428571,
lexington-brewing-co,Lexington Brewing Co,brewpub,5475 Main St,Lexington,Michigan,48450-,http://www.lexingtonbrewery.com,8103595012,2018-07-24 01:33:35.258994,2018-08-24 00:43:26.971991,United States,-82.530867,43.2678755,
fort-street-brewery,Fort Street Brewery,brewpub,1660 Fort St,Lincoln Park,Michigan,48146-1909,http://www.fortstreetbeer.com,3133899620,2018-07-24 01:33:34.323549,2018-08-24 00:42:56.217894,United States,-83.1761022892232,42.25215845,
american-harvest-brewpub-at-schoolcraft-college,American Harvest Brewpub At Schoolcraft College,brewpub,18600 Haggerty Rd,Livonia,Michigan,48152-3932,http://www.schoolcraft.edu,7344627659,2018-07-24 01:33:32.591147,2018-08-24 00:42:03.321753,United States,-83.4286849720443,42.419317,
liberty-street-brewing-production-facility,Liberty Street Brewing Production Facility,micro,11721 Levan Rd,Livonia,Michigan,48150-1401,,,2018-07-24 01:33:35.285209,2018-08-24 00:43:27.937093,United States,-83.4016984260825,42.3686612310946,
big-boiler-brewing,Big Boiler Brewing,brewpub,318 E Main St,Lowell,Michigan,49331-1714,http://bigboilerbrewing.com,6169873155,2018-07-24 01:33:33.039029,2018-08-24 00:42:17.329408,United States,-85.3365535102041,42.9346293061224,
new-union-brewing,New Union Brewing,micro,400 W Main St,Lowell,Michigan,49331-1617,http://www.newunionbrewery.com,6163197171,2018-07-24 01:33:35.650955,2018-08-24 00:43:40.0161,United States,-85.355545,42.931398,
jamesport-brewing-co,Jamesport Brewing Co,brewpub,410 S James St,Ludington,Michigan,49431-2159,http://www.jamesportbrewingcompany.com,2318452522,2018-07-24 01:33:34.960046,2018-08-24 00:43:17.180508,United States,-86.447873020905,43.9516856656598,
ludington-bay-brewing-co,Ludington Bay Brewing Co,brewpub,515 S James St,Ludington,Michigan,49431-2325,http://ludingtonbaybrewing.com,2312396690,2018-07-24 01:33:35.375061,2018-08-24 00:43:30.822031,United States,-86.4476341529186,43.9507021444157,
starving-artist-brewing,Starving Artist Brewing,micro,634 S Stiles Rd,Ludington,Michigan,49431-9311,http://starvingartist.beer,2317941399,2018-07-24 01:33:36.705354,2018-08-11 21:37:56.62651,United States,,,
biere-de-mac-brew-works,Biere De Mac Brew Works,micro,14277 N Mackinaw Hwy,Mackinaw City,Michigan,49701-8622,http://www.bieredemac.com,2314277007,2018-07-24 01:33:33.021636,2018-08-11 21:37:45.98503,United States,,,
north-channel-brewing-co,North Channel Brewing Co.,brewpub,86 Washington St,Manistee,Michigan,49660-1231,http://www.NorthChannelBrewing.com,2312991020,2018-07-24 01:33:35.689013,2018-08-24 00:43:41.636153,United States,-86.323798875,44.249293875,
mackinaw-trail-brewing-company-/-mackinaw-trail-winery-and-brewery,Mackinaw Trail Brewing Company / Mackinaw Trail Winery and Brewery,micro,103 W Lakeshore Dr,Manistique,Michigan,49854-1579,http://www.mackinawtrailwinery.com,9063412303,2018-07-24 01:33:35.437911,2018-08-24 00:43:33.12334,United States,-86.2503664,45.9535761,
blue-pike-cantina,Blue Pike Cantina,brewpub,152 S Water St,Marine City,Michigan,48039-1687,,8107654200,2018-07-24 01:33:33.248711,2018-08-24 00:42:23.643447,United States,-82.4908566938775,42.718295755102,
barrel-and-beam,Barrel and Beam,micro,260 Northwoods RD,Marquette,Michigan,49855,http://www.barrelandbeam.com,9062732559,2018-07-24 01:33:32.835387,2018-08-24 00:42:11.640724,United States,-87.4722168,46.54578,
blackrocks-brewery,Blackrocks Brewery,micro,424 N 3rd St,Marquette,Michigan,49855-3555,http://www.blackrocksbrewery.com,9062731333,2018-07-24 01:33:33.192361,2018-08-24 00:42:21.704663,United States,-87.3946213265306,46.5464588979592,
blackrocks-brewery-production-facility,Blackrocks Brewery - Production Facility,micro,950 W Washington St,Marquette,Michigan,49855-4019,http://www.blackrocksbrewery.com,9062731333,2018-07-24 01:33:33.206648,2018-08-24 00:42:22.172751,United States,-87.4136879387755,46.545940244898,
ore-dock-brewing-co,Ore Dock Brewing Co,micro,114 W Spring St,Marquette,Michigan,49855-4608,http://www.oredockbrewingcompany.com,9068675309,2018-07-24 01:33:35.902399,2018-08-24 00:43:47.974875,United States,-87.3938859285442,46.54189135,
vierling-restaurant-and-marquette-harbor-brewery,Vierling Restaurant & Marquette Harbor Brewery,brewpub,119 S Front St,Marquette,Michigan,49855-4642,http://www.thevierling.com,9062283533,2018-07-24 01:33:37.403888,2018-08-24 00:44:37.405226,United States,-87.3928955,46.5425586,
dark-horse-brewing-co,Dark Horse Brewing Co,micro,511 S Kalamazoo Ave,Marshall,Michigan,49068-1718,http://www.darkhorsebrewery.com,2697819940,2018-07-24 01:33:33.879798,2018-08-24 00:42:41.488971,United States,-84.9639765227386,42.2663882442096,
grand-river-brewery,Grand River Brewery,planning,,Marshall,Michigan,49068-1521,,,2018-07-24 01:33:34.509919,2018-08-11 21:37:49.649117,United States,,,
harsens-island-beer-co,Harsens Island Beer Co.,brewpub,808 Gratiot Blvd,Marysville,Michigan,48040-1127,,,2018-07-24 01:33:34.737852,2018-08-24 00:43:09.994518,United States,-82.4714930140845,42.9224738873239,
bad-brewing-co,BAD Brewing Co,micro,440 S Jefferson St,Mason,Michigan,48854-1654,http://www.badbrewing.com,5176767664,2018-07-24 01:33:32.773185,2018-08-24 00:42:09.674406,United States,-84.4433383,42.5786176,
spartan-brewpub,Spartan Brewpub,brewpub,3056 Okemos Rd,Mason,Michigan,48854-9300,http://spartanbrewpub.com/,5175075098,2018-07-24 01:33:36.644129,2018-08-24 00:44:12.348856,United States,-84.4327646666667,42.6709575555556,
brewery-in-planning-mattawan,Brewery in Planning - Mattawan,planning,,Mattawan,Michigan,49071-9449,,8105889958,2018-07-24 01:33:33.399433,2018-08-11 21:37:46.899293,United States,,,
brewery-in-planning-gonzales,Brewery In Planning- Gonzales,planning,,Midland,Michigan,48642-8513,,2252574118,2018-07-24 01:33:33.450954,2018-08-11 21:37:47.034539,United States,,,
midland-brewing-co,Midland Brewing Co,brewpub,5011 N Saginaw Road,Midland,Michigan,48642,http://www.midlandbrewing.com,9892597210,2018-07-24 01:33:35.501542,2018-08-24 00:43:35.395953,United States,-84.2910925,43.6408678,
original-gravity-brewing-co,Original Gravity Brewing Co,brewpub,440 County St,Milan,Michigan,48160-1504,http://www.ogbrewing.com,7344397490,2018-07-24 01:33:35.914948,2018-08-24 00:43:48.394954,United States,-83.6752359713981,42.083974,
chillax-brewing-company-llc,CHILLAX Brewing Company LLC,planning,,Milford,Michigan,48381-2243,,2483883458,2018-07-24 01:33:33.677727,2018-08-11 21:37:47.561961,United States,,,
rivers-edge-brewing-co,River's Edge Brewing Co,brewpub,125 S Main St Ste 400,Milford,Michigan,48381-1976,http://www.riversedgebrew.com,2486851625,2018-07-24 01:33:36.294061,2018-08-11 21:37:55.253113,United States,,,
heavenly-vineyards,Heavenly Vineyards,micro,15946 Jefferson Rd,Morley,Michigan,49336-9705,http://heavenlyvineyards.weebly.com,6167102751,2018-07-24 01:33:34.773316,2018-08-24 00:43:11.649692,United States,-85.463503,43.489827,
crankers-restaurant-and-brewery,Cranker's Restaurant & Brewery,brewpub,1207 E Pickard St,Mount Pleasant,Michigan,48858-1901,http://www.crankersbrewery.com,9897791919,2018-07-24 01:33:33.829912,2018-08-24 00:42:39.623071,United States,-84.7607110191083,43.6117691624204,
hunters-ale-house,Hunter's Ale House,brewpub,4855 E Blue Grass Rd,Mount Pleasant,Michigan,48858-7527,,9897792626,2018-07-24 01:33:34.921397,2018-08-11 21:37:51.000568,United States,,,
mountain-town-station-restaurant-and-brew-pub,Mountain Town Station Restaurant & Brew Pub,brewpub,506 W Broadway St,Mt Pleasant,Michigan,48858-2441,http://www.mountaintownbrew.com,9894004666,2018-07-24 01:33:35.598083,2018-08-24 00:43:38.551163,United States,-84.7822205,43.604568,
mountain-town-brewing-co,Mountain Town Brewing Co,micro,614 W Pickard St,Mt Pleasant,Michigan,48858-1504,http://www.mountaintownbrew.com,9894004666,2018-07-24 01:33:35.58491,2018-08-24 00:43:38.10377,United States,-84.7868955164943,43.6118094755558,
east-channel-brewing-company,East Channel Brewing Company,micro,209 Maple St,Munising,Michigan,49862-1084,http://www.eastchannelbrewery.com,9063873007,2018-07-24 01:33:34.039221,2018-08-24 00:42:46.85869,United States,-86.6545251836735,46.4093414081633,
pigeon-hill-brewery-production-facility,Pigeon Hill Brewery Production Facility,planning,,Muskegon,Michigan,49440-1109,,,2018-07-24 01:33:36.084818,2018-08-11 21:37:54.61582,United States,,,
pigeon-hill-brewing-co,Pigeon Hill Brewing Co,micro,500 W Western Ave Ste 100,Muskegon,Michigan,49440-1000,http://www.pigeonhillbrew.com,2313755184,2018-07-24 01:33:36.097165,2018-08-11 21:37:54.65856,United States,,,
unruly-brewing-company,Unruly Brewing Company,micro,360 W Western Ave,Muskegon,Michigan,49440-1273,http://www.unrulybrewing.com,2312881068,2018-07-24 01:33:37.340317,2018-08-24 00:44:35.068768,United States,-86.2538154074074,43.2350436666667,
beer-church-brewing-company,Beer Church Brewing Company,contract,24 S Whittaker St,New Buffalo,Michigan,49117-1820,http://www.beerchurchbrewing.com,2192413876,2018-07-24 01:33:32.915083,2018-08-24 00:42:14.110682,United States,-86.7431184791667,41.7932214791667,
ghost-isle-brewing-company,Ghost Isle Brewing Company,planning,,New Buffalo,Michigan,49117,,2195611219,2018-07-24 01:33:34.419703,2018-08-11 21:37:49.409715,United States,,,
draught-horse-brewery,Draught Horse Brewery,brewpub,57721 Grand River Ave,New Hudson,Michigan,48165-8542,http://www.draughthorsebrewery.com,2486173000,2018-07-24 01:33:33.998224,2018-08-24 00:42:45.501541,United States,-83.61459,42.5113546,
newaygo-brewing-co,Newaygo Brewing Co,brewpub,19 State Rd,Newaygo,Michigan,49337-7951,http://www.newaygobrewing.com,2314526551,2018-07-24 01:33:35.663204,2018-08-24 00:43:40.554103,United States,-85.795858083189,43.4238664248786,
mitten-brewing-co-northport,Mitten Brewing Co - Northport,brewpub,112 W Nagonaba St,Northport,Michigan,49670-5018,,6163182448,2018-07-24 01:33:35.546151,2018-08-24 00:43:36.787022,United States,-85.6180190909091,45.129833,
green-bird-cellars-and-organic-farms,Green Bird Cellars and Organic Farms,micro,9825 E Engles Rd,Northport,Michigan,49670-9408,http://www.greenbirdcellars.com,2313865636,2018-07-24 01:33:34.60813,2018-08-11 21:37:49.944527,United States,,,
granite-city-food-and-brewery-#32,Granite City Food & Brewery (#32),brewpub,39603 Traditions Dr,Northville,Michigan,48168-9496,http://www.gcfb.net,2486623400,2018-07-24 01:33:34.557576,2018-08-11 21:37:49.818249,United States,,,
northville-winery-and-brewery,Northville Winery and Brewery,micro,630 Old Baseline Rd,Northville,Michigan,48167,,2483206507,2018-07-24 01:33:35.739172,2018-08-11 21:37:53.421411,United States,,,
north-center-brewing-co,North Center Brewing Co.,brewpub,410 N Center St,Northville,Michigan,48167-1224,http://www.northcenterbrewing.com,2484447967,2018-07-24 01:33:35.676887,2018-08-24 00:43:41.131104,United States,-83.4831113480679,42.4341210699655,
ascension-brewing-company,Ascension Brewing Company,brewpub,42000 Grand River Ave,Novi,Michigan,48375-1831,http://www.ascension.beer,2483082093,2018-07-24 01:33:32.664968,2018-08-24 00:42:06.270841,United States,-83.4609783,42.4783271,
wiltses-brew-pub-and-family-restaurant,Wiltse's Brew Pub and Family Restaurant,brewpub,5606 F 41,Oscoda,Michigan,48750-8611,http://www.wiltsebrewpub.com,9897392231,2018-07-24 01:33:37.506306,2018-08-11 21:37:58.538655,United States,,,
homegrown-brewing-company,HomeGrown Brewing Company,brewpub,28 N Washington St,Oxford,Michigan,48371-4665,http://www.homegrownbrewco.com,2488918290,2018-07-24 01:33:34.823002,2018-08-24 00:43:13.02516,United States,-83.2665038571429,42.8265607142857,
tahquamenon-falls-brewery-and-pub,Tahquamenon Falls Brewery and Pub,brewpub,M-123 Upper Falls Dr,Paradise,Michigan,49768,http://www.tahquamenonfallsbrewery.com,9064923300,2018-07-24 01:33:36.806781,2018-08-11 21:37:56.996593,United States,,,
lucky-girl-brewing-co-crossroads,Lucky Girl Brewing Co Crossroads,brewpub,34016 M 43,Paw Paw,Michigan,49079-8464,http://luckygirlcrossroads.com,2696280054,2018-07-24 01:33:35.362999,2018-08-11 21:37:52.336594,United States,,,
paw-paw-brewing-company,Paw Paw Brewing Company,brewpub,929 E Michigan Ave,Paw Paw,Michigan,49079-9488,http://pawpawbrewery.com,2694150145,2018-07-24 01:33:36.02061,2018-08-24 00:43:51.798735,United States,-85.8774898400333,42.2192304,
paw-paw-brewing-company-llc,Paw Paw Brewing Company LLC,micro,780 S Gremps street,PAW PAW,Michigan,49079,http://www.pawpawbrewing.com,2695015241,2018-07-24 01:33:36.033163,2018-08-24 00:43:52.239904,United States,-85.8943742260864,42.2131394045789,
paw-paw-brewing-company-production-facility,Paw Paw Brewing Company Production Facility,micro,780 S Gremps St,Paw Paw,Michigan,49079,,,2018-07-24 01:33:36.045764,2018-08-24 00:43:52.683518,United States,-85.8943742260864,42.2131394045789,
beards-brewery,Beards Brewery,brewpub,215 E Lake St,Petoskey,Michigan,49770-2415,http://www.beardsbrewery.com,2317532221,2018-07-24 01:33:32.883636,2018-08-24 00:42:13.192233,United States,-84.9542583804348,45.3753380108696,
petoskey-brewing,Petoskey Brewing,micro,1844 M 119 Harbor-Petoskey Rd,Petoskey,Michigan,49770-9341,http://www.petoskeybrewing.com,2317532057,2018-07-24 01:33:36.070668,2018-08-11 21:37:54.576101,United States,,,
rudbeckia-farm,Rudbeckia Farm,micro,3379 Lake Grove Rd,Petoskey,Michigan,49770-9751,http://www.rudbeckiafarm.com,2316224173,2018-07-24 01:33:36.415171,2018-08-11 21:37:55.649368,United States,,,
old-mill-brewpub-and-grill,Old Mill Brewpub and Grill,brewpub,717 E Bridge St,Plainwell,Michigan,49080-1801,http://www.oldmillbrew.com,2692046601,2018-07-24 01:33:35.801023,2018-08-24 00:43:45.218174,United States,-85.6322453673469,42.442939,
brewery-in-planning-plymouth,Brewery in Planning - Plymouth,planning,,Plymouth,Michigan,48170-5738,,3139090179,2018-07-24 01:33:33.41286,2018-08-11 21:37:46.928372,United States,,,
liberty-street-brewing-co,Liberty Street Brewing Co,micro,149 W Liberty St Ste 1,Plymouth,Michigan,48170-8001,http://www.libertystreetbeer.com,2487054171,2018-07-24 01:33:35.273385,2018-08-11 21:37:52.017389,United States,,,
exferimentation-brewing-company,Exferimentation Brewing Company,micro,7 N Saginaw St,Pontiac,Michigan,48342-2182,http://www.exferimentationbrewing.com,2486481377,2018-07-24 01:33:34.176341,2018-08-24 00:42:51.999577,United States,-83.292346,42.6369922,
fillmore-13-brewery,Fillmore 13 Brewery,brewpub,7 N Saginaw St,Pontiac,Michigan,48342-2182,http://www.fillmore13brewery.com,2489773972,2018-07-24 01:33:34.263489,2018-08-24 00:42:54.420089,United States,-83.292346,42.6369922,
broken-rock-brewery,Broken Rock Brewery,brewpub,282 Grindstone Rd Bird Creek Farms,Port Austin,Michigan,48467-9390,http://birdcreekfarms.com,2487033114,2018-07-24 01:33:33.528534,2018-08-11 21:37:47.229635,United States,,,
bravo-restaurant-and-cafe,Bravo! Restaurant & Cafe,brewpub,5402 Portage Rd,Portage,Michigan,49002-1718,http://www.bravokalamazoo.com,2693447700,2018-07-24 01:33:33.300293,2018-08-24 00:42:25.553522,United States,-85.5602313076769,42.2389291819283,
latitude-42,Latitude 42,brewpub,7842 Portage Rd Attn: Scott Freitas,Portage,Michigan,49002-4472,http://www.latitude42brewingco.com,2694594242,2018-07-24 01:33:35.221356,2018-08-11 21:37:51.776339,United States,,,
presidential-brewing-co,Presidential Brewing Co.,planning,,Portage,Michigan,49024,http://www.presidentialbrewing.com,2694689765,2018-07-24 01:33:36.162902,2018-08-11 21:37:54.899409,United States,,,
confluxcity-brewing-company,ConfluxCity Brewing Company,micro,110 N Water St,Portland,Michigan,48875,http://www.confluxcitybrew.com,5175269091,2018-07-24 01:33:33.776422,2018-08-24 00:42:37.634204,United States,-84.9032148381293,42.8714242896063,
gallery-brewery,Gallery Brewery,brewpub,143 Kent St,Portland,Michigan,48875-1456,http://www.thegallerybrewery.com,5175269060,2018-07-24 01:33:34.40831,2018-08-24 00:42:59.371091,United States,-84.9028427142857,42.8698587142857,
reed-city-brewing-company,Reed City Brewing Company,brewpub,141 W Upton Ave,Reed City,Michigan,49677-1129,,2314654222,2018-07-24 01:33:36.253389,2018-08-24 00:43:58.697296,United States,-85.5107197555876,43.875878999073,
rochester-mills-beer-co,Rochester Mills Beer Co,brewpub,400 Water St Ste 101,Rochester,Michigan,48307-2089,http://www.beercos.com,2486505080,2018-07-24 01:33:36.323092,2018-08-11 21:37:55.349597,United States,,,
mi-brewery-/-kayla-rae-cellars,MI Brewery / Kayla Rae Cellars,micro,31 Courtland St,Rockford,Michigan,49341-1080,http://www.kaylaraecellars.com,6169517001,2018-07-24 01:33:35.476456,2018-08-11 21:37:52.696951,United States,,,
rockford-brewing-company,Rockford Brewing Company,brewpub,12 E Bridge St,Rockford,Michigan,49341-1265,http://www.RockfordBrewing.com,6169514677,2018-07-24 01:33:36.349865,2018-08-11 21:37:55.422931,United States,,,
third-nature-brewing-co,Third Nature Brewing Co.,planning,,Rockford,Michigan,49341,,,2018-07-24 01:33:37.120176,2018-08-11 21:37:57.640163,United States,,,
river-rouge-brewing-company,River Rouge Brewing Company,micro,406 E 4th St,Royal Oak,Michigan,48067-2757,http://www.riverrougebrew.com,2488020555,2018-07-24 01:33:36.279599,2018-08-24 00:43:59.71237,United States,-83.1405958686869,42.4872653131313,
roak-brewing-co,Roak Brewing Co.,micro,330 E Lincoln Ave,Royal Oak,Michigan,48067-2700,http://www.roakbrewing.com,2482688780,2018-07-24 01:33:36.308238,2018-08-24 00:44:00.70542,United States,-83.1420991414141,42.4834209292929,
royal-oak-brewery,Royal Oak Brewery,brewpub,215 E 4th St,Royal Oak,Michigan,48067-2606,http://www.royaloakbrewery.com,2485441141,2018-07-24 01:33:36.402091,2018-08-24 00:44:03.917204,United States,-83.1427122857143,42.4873955714286,
bastone-brewery,Bastone Brewery,brewpub,419 S Main St,Royal Oak,Michigan,48067-2615,http://www.bastone.net/br/bastone-brewery,2485446250,2018-07-24 01:33:32.851345,2018-08-24 00:42:12.202711,United States,-83.1440578,42.4836283,
lilys-seafood-restaurant-and-brewery,Lilys Seafood Restaurant and Brewery,brewpub,410 S Washington Ave,Royal Oak,Michigan,48067-3824,,2485915459,2018-07-24 01:33:35.309101,2018-08-24 00:43:28.895153,United States,-83.146686877551,42.487039,
oracle-brewing-company,Oracle Brewing Company,micro,122 N Michigan Ave,Saginaw,Michigan,48602-4234,http://www.oraclebeer.com,9894017446,2018-07-24 01:33:35.89016,2018-08-24 00:43:47.539876,United States,-83.9640135102041,43.417723,
loggers-brewing-company,Loggers Brewing Company,micro,1215 S River Rd,Saginaw,Michigan,48609-5208,http://www.loggersbrewingcompany.com,9894013085,2018-07-24 01:33:35.335822,2018-08-24 00:43:29.843379,United States,-84.051935416668,43.4051822502285,
shipwreck-brewing-company,Shipwreck Brewing Company,brewpub,24409 Jefferson Ave,Saint Clair Shores,Michigan,48080-1318,http://www.shipwreckbrewingcompany.com,5869442266,2018-07-24 01:33:36.527768,2018-08-24 00:44:08.299789,United States,-82.8887785856805,42.4712223090048,
baffin-brewing-co,Baffin Brewing Co,micro,25113 Jefferson Ave,Saint Clair Shores,Michigan,48081-2303,http://baffinbrewing.com,5862187990,2018-07-24 01:33:32.78924,2018-08-24 00:42:10.282654,United States,-82.888964,42.472227,
jamex-brewing-co,Jamex Brewing Co,micro,21721 Harper Ave,Saint Clair Shores,Michigan,48080-2213,http://www.jamexbrewing.com,5869442030,2018-07-24 01:33:34.972089,2018-08-24 00:43:17.692225,United States,-82.8986171,42.5171113,
bella-casa-di-vino,Bella Casa Di Vino,brewpub,201 N Riverside Ave,Saint Clair,Michigan,48079-5491,http://www.suescoffeehouse.com,8103261212,2018-07-24 01:33:32.951533,2018-08-24 00:42:14.568337,United States,-82.48591,42.823895,
war-water-brewery,WAR WATER BREWERY,brewpub,201 N Riverside Ave Ste C1-11,Saint Clair,Michigan,48079-5498,http://www.warwaterbrewery.com,8102893921,2018-07-24 01:33:37.441131,2018-08-11 21:37:58.396482,United States,,,
silver-harbor-brewing-company,Silver Harbor Brewing Company,brewpub,721 Pleasant St,Saint Joseph,Michigan,49085-1241,http://silverharborbrewing.com,2692817100,2018-07-24 01:33:36.566514,2018-08-24 00:44:09.724877,United States,-86.4802745918367,42.1089303265306,
salt-springs-brewery,Salt Springs Brewery,brewpub,117 S Ann Arbor St,Saline,Michigan,48176-1320,http://wwww.saltpsringsbrewery.com,7342959191,2018-07-24 01:33:36.452945,2018-08-24 00:44:05.84828,United States,-83.781054122449,42.1664659387755,
stony-lake-brewing-company,Stony Lake Brewing Company,micro,447 E Michigan Ave,Saline,Michigan,48176-1547,http://www.stonylakebrewing.com,7343167919,2018-07-24 01:33:36.731213,2018-08-24 00:44:15.108841,United States,-83.7735353987394,42.1704172910733,
elk-street-brewery,Elk Street Brewery,brewpub,3 S Elk St,Sandusky,Michigan,48471-1353,http://www.elkstreetbrewery.com,8103008049,2018-07-24 01:33:34.141171,2018-08-24 00:42:50.10782,United States,-82.829770877551,43.4203640612245,
guardian-brewing-company,Guardian Brewing Company,planning,,Saugatuck,Michigan,49453,http://www.guardianbrewingco.com,8125213611,2018-07-24 01:33:34.689263,2018-08-11 21:37:50.157025,United States,,,
the-mitten-brewing-company-saugatuck,The Mitten Brewing Company - Saugatuck,brewpub,329 Water St,Saugatuck,Michigan,49453,,6166085612,2018-07-24 01:33:37.046061,2018-08-24 00:44:25.266223,United States,-86.2052412857143,42.6568912857143,
superior-coast-brewery-/-karls-cuisine-winery-and-brewery,Superior Coast Brewery / Karls Cuisine Winery and Brewery,brewpub,447 W Portage Ave,Sault Sainte Marie,Michigan,49783-1989,http://www.karlscuisine.com,9062531900,2018-07-24 01:33:36.793576,2018-08-24 00:44:17.309851,United States,-84.3534467145293,46.5017939624522,
lockside-brewery-/-1668-winery,Lockside Brewery / 1668 Winery,brewpub,100 W Portage Ave,Sault Sainte Marie,Michigan,49783-1920,http://1668winery.com/thebeers/,9062595035,2018-07-24 01:33:35.321646,2018-08-24 00:43:29.363672,United States,-84.34705,46.500695,
soo-brewing-company,Soo Brewing Company,micro,223 W Portage Ave,Sault Sainte Marie,Michigan,49783-1921,http://www.soobrew.com,9066324400,2018-07-24 01:33:36.617912,2018-08-24 00:44:11.446664,United States,-84.3482782040816,46.5008979387755,
greenbush-annex,Greenbush Annex,micro,5870 Sawyer Rd,Sawyer,Michigan,49125,,,2018-07-24 01:33:34.62098,2018-08-24 00:43:06.116573,United States,-86.5940472857143,41.8854097142857,
greenbush-brewing-co,Greenbush Brewing Co,micro,5885 Sawyer Rd,Sawyer,Michigan,49125-9380,http://greenbushbrewing.com,2694051076,2018-07-24 01:33:34.634131,2018-08-24 00:43:06.522569,United States,-86.5943131428571,41.8855768571429,
brooks-brewing,Brooks Brewing,micro,52033 Van Dyke,Shelby Charter Township,Michigan,48316,http://www.bbrewing.com,5868844741,2018-07-24 01:33:33.541457,2018-08-11 21:37:47.257706,United States,,,
sherwood-brewing-co,Sherwood Brewing Co,brewpub,45689 Hayes Rd,Shelby Township,Michigan,48315-6214,http://www.sherwoodbrewing.com,5865329669,2018-07-24 01:33:36.515054,2018-08-24 00:44:07.869757,United States,-82.9736141428571,42.6320201428571,
south-haven-brewpub,South Haven Brewpub,brewpub,515 Williams St Ste 23,South Haven,Michigan,49090-1493,http://www.southhavenbrewpub.com,2697677105,2018-07-24 01:33:36.631536,2018-08-11 21:37:56.441896,United States,,,
mcintosh-orchards,McIntosh Orchards,micro,6431 107th Ave,South Haven,Michigan,49090-9369,http://www.mcintoshorchards.com,7078783734,2018-07-24 01:33:35.449837,2018-08-11 21:37:52.598152,United States,,,
three-blondes-brewing,Three Blondes Brewing,brewpub,1875 Phoenix St,South Haven,Michigan,49090-7151,http://www.threeblondesbrewing.com,,2018-07-24 01:33:37.145317,2018-08-24 00:44:28.491545,United States,-86.2642391,42.4033183,
witchs-hat-brewing,Witch's Hat Brewing,micro,601 S Lafayette St,South Lyon,Michigan,48178-1453,http://www.witchshatbrewing.com,2484862595,2018-07-24 01:33:37.518479,2018-08-24 00:44:41.305274,United States,-83.6509930768823,42.4554252170515,
third-monk-brewing-co,Third Monk Brewing Co,micro,228 S Lafayette St,South Lyon,Michigan,48178-1406,http://www.thirdmonkbrewingco.com,2482786366,2018-07-24 01:33:37.107642,2018-08-24 00:44:27.518737,United States,-83.6511664407591,42.4548213823159,
cellar-brewing-co,Cellar Brewing Co,brewpub,133 E Division St,Sparta,Michigan,49345-1329,http://www.cellarbrewingco.com,6168830777,2018-07-24 01:33:33.624665,2018-08-24 00:42:33.375547,United States,-85.7063983877551,43.1608249591837,
old-boys-brewhouse,Old Boys Brewhouse,brewpub,971 W Savidge St,Spring Lake,Michigan,49456-1684,http://www.oldboysbrewhouse.com,6168509950,2018-07-24 01:33:35.776292,2018-08-24 00:43:44.765484,United States,-86.2121519411765,43.0764282941176,
territorial-brewing-company,Territorial Brewing Company,brewpub,256 Helmer Rd N,Springfield,Michigan,49037-7914,http://www.territorialbrewing.com,2692821694,2018-07-24 01:33:36.869032,2018-08-24 00:44:20.20008,United States,-85.2356571236274,42.3151617963475,
territorial-brewing-company-production-facility,Territorial Brewing Company Production Facility,micro,2815 6th Ave,Springfield,Michigan,49037-7986,,2694410030,2018-07-24 01:33:36.881783,2018-08-24 00:44:20.669282,United States,-85.2295431701227,42.3146695620046,
watermark-brewing-company,Watermark Brewing Company,micro,5781 Saint Joseph Ave,Stevensville,Michigan,49127-1238,http://www.watermarkbrewing.com,2692810872,2018-07-24 01:33:37.456296,2018-08-24 00:44:40.161961,United States,-86.51963025,42.0128666818182,
grande-mere-inn-/-cranberry-bog-bar,Grande Mere Inn / Cranberry Bog Bar,brewpub,5800 Red Arrow Hwy,Stevensville,Michigan,49127-1118,http://www.grandemereinn.com,2694293591,2018-07-24 01:33:34.522124,2018-08-24 00:43:02.552536,United States,-86.528785699864,42.0127411057643,
hop-lot-brewing-co,Hop Lot Brewing Co.,brewpub,658 S West Bay Shore Dr,Suttons Bay,Michigan,49682-9587,http://www.hoplotbrewing.com,2318664445,2018-07-24 01:33:34.874048,2018-08-11 21:37:50.811622,United States,,,
the-boathouse-beer-co-and-boozery,The Boathouse Beer Co and Boozery,brewpub,450 W Lake St,Tawas City,Michigan,48763-8320,http://www.boathousebeerco.com,9899845233,2018-07-24 01:33:36.908911,2018-08-24 00:44:21.588023,United States,-83.516902402774,44.268263780187,
tecumseh-brewing-company,Tecumseh Brewing Company,brewpub,128 W Chicago Blvd,Tecumseh,Michigan,49286-1553,http://www.tecumsehbrewingco.com,5178151726,2018-07-24 01:33:36.844381,2018-08-24 00:44:19.24282,United States,-83.946191,42.004052,
black-fire-winery,Black Fire Winery,micro,1261 E Munger Rd,Tecumseh,Michigan,49286-8714,,5174249232,2018-07-24 01:33:33.164856,2018-08-11 21:37:46.255043,United States,,,
kelsey-block-brewing-company,Kelsey Block Brewing Company,brewpub,41 N Main St,Three Rivers,Michigan,49093-1531,http://www.kelseyblock.com,2697183667,2018-07-24 01:33:35.079558,2018-08-24 00:43:20.490514,United States,-85.6333396122449,41.9447466122449,
brewery-ferment,Brewery Ferment,micro,511 S Union St,Traverse City,Michigan,49684-3246,http://www.breweryferment.com,2317358113,2018-07-24 01:33:33.374738,2018-08-24 00:42:27.827846,United States,-85.6235355236285,44.75888715,
brewery-terra-firma,Brewery Terra Firma,micro,2959 Hartman Rd,Traverse City,Michigan,49685-8838,http://www.breweryterrafirma.com,2319291600,2018-07-24 01:33:33.464153,2018-08-24 00:42:28.264729,United States,-85.635105808311,44.71509875,
jolly-pumpkin-restaurant-brewery-and-distillery,"Jolly Pumpkin Restaurant, Brewery & Distillery",micro,13512 Peninsula Dr Old Mission Peninsula,Traverse City,Michigan,49686-9717,http://www.jollypumpkin.com,2312234333,2018-07-24 01:33:35.067541,2018-08-11 21:37:51.331225,United States,,,
mackinaw-brewing-co,Mackinaw Brewing Co,brewpub,161 E Front St,Traverse City,Michigan,49684-5779,http://www.mackinawbrewing.com,2319331100,2018-07-24 01:33:35.425474,2018-08-24 00:43:32.675398,United States,-85.6212445883541,44.76426455,
north-peak-brewing-co,North Peak Brewing Co,brewpub,400 W Front St,Traverse City,Michigan,49684-2800,http://www.northpeak.net,2319417325,2018-07-24 01:33:35.701679,2018-08-24 00:43:42.12881,United States,-85.6285431,44.7643155,
rare-bird-brewpub,Rare Bird Brewpub,brewpub,229 Lake Ave,Traverse City,Michigan,49684-2532,http://rarebirdbrewpub.com,2319432053,2018-07-24 01:33:36.190152,2018-08-24 00:43:56.863903,United States,-85.6193233670957,44.7597803928249,
ubrew-nanobrewery,UBrew Nanobrewery,micro,3054 Cass Rd Unit F,Traverse City,Michigan,49684-8800,http://www.ubrewtc.com,2319432016,2018-07-24 01:33:37.327017,2018-08-11 21:37:58.124041,United States,,,
the-parlor,The Parlor,brewpub,205 Lake Ave,Traverse City,Michigan,49684-2532,http://www.bigtoebrewery.com,2319414422,2018-07-24 01:33:37.070095,2018-08-24 00:44:26.174919,United States,-85.6204308,44.7601402,
workshop-brewing-co,Workshop Brewing Co,brewpub,221 Garland St Ste A,Traverse City,Michigan,49684-2372,http://www.traversecityworkshop.com,12314218966,2018-07-24 01:33:37.558943,2018-08-11 21:37:58.643853,United States,,,
right-brain-brewery,Right Brain Brewery,micro,225 E Sixteenth St Ste A,Traverse City,Michigan,49684-4190,http://www.rightbrainbrewery.com,2319441239,2018-07-24 01:33:36.265979,2018-08-11 21:37:55.175358,United States,,,
earthen-ales,Earthen Ales,micro,1371 Gray Dr Ste 200,Traverse City,Michigan,49684-7805,http://www.earthenales.com,2312524270,2018-07-24 01:33:34.025875,2018-08-24 00:42:46.431598,United States,-85.6454249,44.755294,
the-filling-station-microbrewery,The Filling Station Microbrewery,micro,642 Railroad Pl,Traverse City,Michigan,49686-3633,http://www.thefillingstationmicrobrewery.com,2319468168,2018-07-24 01:33:36.934412,2018-08-24 00:44:22.482415,United States,-85.6094760047576,44.7580963,
granite-city-food-and-brewery-#28,Granite City Food & Brewery (#28),brewpub,699 W Big Beaver Rd,Troy,Michigan,48084-4920,http://www.gcfb.com,2485191040,2018-07-24 01:33:34.545718,2018-08-24 00:43:03.436113,United States,-83.1616137955605,42.5622516926079,
paper-city-development-llc,Paper City Development LLC,planning,,Vicksburg,Michigan,49097,http://papercitymillworks.com,6049961400,2018-07-24 01:33:35.99287,2018-08-11 21:37:54.301232,United States,,,
the-distant-whistle-brewhouse,The Distant Whistle Brewhouse,micro,118 S Main St,Vicksburg,Michigan,49097-1289,http://www.distantwhistle.com,2693707549,2018-07-24 01:33:36.921382,2018-08-24 00:44:22.04328,United States,-85.532487755102,42.1190950204082,
falling-down-beer-co,Falling Down Beer Co.,brewpub,2270 E 10 Mile Rd,Warren,Michigan,48091-3701,,,2018-07-24 01:33:34.18823,2018-08-24 00:42:52.573622,United States,-82.9805361,42.4787048,
dragonmead-microbrewery,Dragonmead Microbrewery,micro,14600 E 11 Mile Rd,Warren,Michigan,48089-1556,,5867769428,2018-07-24 01:33:33.984995,2018-08-24 00:42:44.954344,United States,-83.0278041,42.492142,
kuhnhenn-brewing-co,Kuhnhenn Brewing Co,micro,5919 Chicago Rd,Warren,Michigan,48092-1606,http://www.kuhnhenn.beer,5869798361,2018-07-24 01:33:35.144445,2018-08-24 00:43:22.792187,United States,-83.023691,42.523306,
brown-iron-brewhouse,Brown Iron Brewhouse,brewpub,57695 Van Dyke Rd,Washington,Michigan,48094-2879,http://www.browniron.com,586697330,2018-07-24 01:33:33.557718,2018-08-24 00:42:31.547997,United States,-83.0357852068965,42.7192993103448,
rustic-leaf-brewing-company,Rustic Leaf Brewing Company,micro,7200 Highland Rd,Waterford,Michigan,48327-1506,http://www.rusticleafbrewingcompany.com,2485999933,2018-07-24 01:33:36.440749,2018-08-24 00:44:05.39907,United States,-83.4048664,42.659901,
arclight-brewing-company,Arclight Brewing Company,micro,544 N Main St,Watervliet,Michigan,49098-9797,http://www.arclightbrewing.com,2693320718,2018-07-24 01:33:32.637564,2018-08-24 00:42:05.364848,United States,-86.2593923773585,42.1910483207547,
openroad-brewery,OpenRoad Brewery,brewpub,128 S Main St,Wayland,Michigan,49348-1209,http://www.openroadbrewing.com,6162937855,2018-07-24 01:33:35.876029,2018-08-24 00:43:47.051887,United States,-85.6433177373737,42.673112020202,
the-highway-brewing-co,The Highway Brewing Co.,brewpub,209 W Houghton Ave,West Branch,Michigan,48661-1219,http://www.highwaybrewingco.com,9897090716,2018-07-24 01:33:36.947037,2018-08-24 00:44:22.952162,United States,-84.2375165102041,44.2763520816327,
fetch-brewing-co,Fetch Brewing Co,micro,100 W Colby St,Whitehall,Michigan,49461-1015,http://www.fetchbrewing.com,2312157168,2018-07-24 01:33:34.238774,2018-08-24 00:42:53.982986,United States,-86.3494848,43.4097727,
brewery-in-planning-whitmore-lake,Brewery in Planning - WHITMORE LAKE,planning,,Whitmore Lake,Michigan,48189-9771,,,2018-07-24 01:33:33.425567,2018-08-11 21:37:46.958454,United States,,,
michigan-brewing-works,Michigan Brewing Works,brewpub,3435 Dietz Rd,Williamston,Michigan,48895-9506,,5176557777,2018-07-24 01:33:35.488495,2018-08-11 21:37:52.738389,United States,,,
old-nation-brewing-company,Old Nation Brewing Company,micro,1500 W. Grand River Ave,Williamston,Michigan,48895-97ND,http://www.oldnationbrewing.com,5176551301,2018-07-24 01:33:35.81304,2018-08-24 00:43:45.715787,United States,-84.2899561,42.6878555,
drafting-table-brewing-company,Drafting Table Brewing Company,micro,49438 Pontiac Trl,Wixom,Michigan,48393-2005,http://www.draftingtablebeer.com,2489567279,2018-07-24 01:33:33.960478,2018-08-24 00:42:44.40017,United States,-83.5366379248592,42.5244011667652,
sports-brewpub,Sports Brewpub,brewpub,166 Maple St,Wyandotte,Michigan,48192-5928,,7342855060,2018-07-24 01:33:36.672662,2018-08-24 00:44:13.332493,United States,-83.1513262768499,42.20229805,
twoguys-brewing,TwoGuys Brewing,brewpub,2356 Porter St SW,Wyoming,Michigan,49519,http://www.twoguysbrewing.beer,6165529690,2018-07-24 01:33:37.311492,2018-08-24 00:44:34.101127,United States,-85.723550125,42.92114925,
kitzingen-brewery,Kitzingen Brewery,brewpub,1760 44th St SW Ste 8,Wyoming,Michigan,49519-6422,http://www.Kitzingen-Brewery.com,6168055077,2018-07-24 01:33:35.129039,2018-08-11 21:37:51.495224,United States,,,
734-brewing-company,734 Brewing Company,micro,15 E Cross St,Ypsilanti,Michigan,48198,,7346496453,2018-07-24 01:33:32.495551,2018-08-24 00:41:59.719275,United States,-83.61103475,42.24586784375,
mishigama-craft-brewing-/-ypsi-alehouse,Mishigama Craft Brewing / Ypsi Alehouse,brewpub,124 Pearl St Ste 100,Ypsilanti,Michigan,48197-5374,http://www.ypsialehouse.com,7344871555,2018-07-24 01:33:35.530198,2018-08-11 21:37:52.843486,United States,,,
arbor-brewing-co-microbrewery,Arbor Brewing Co. Microbrewery,micro,720 Norris St,Ypsilanti,Michigan,48198-2825,,7344802739,2018-07-24 01:33:32.614485,2018-08-24 00:42:04.230403,United States,-83.6099915,42.250158,
tripelroot,Tripelroot,brewpub,146 E Main Ave,Zeeland,Michigan,49464-1736,http://www.tripelroot.com,6169530050,2018-07-24 01:33:37.254905,2018-08-24 00:44:32.320925,United States,-86.0146348246228,42.81211765,