id,name,brewery_type,street,city,state,postal_code,website_url,phone,created_at,updated_at,country,longitude,latitude,tags
center-square-brewing-/-altland-house,Center Square Brewing / Altland House,brewpub,1 Center Sq,Abbottstown,Pennsylvania,17301-9502,http://centersquarebrew.com,7172599535,2018-07-24 01:34:09.718938,2018-08-11 21:39:24.661595,United States,,,
stoudts-brewing-co,Stoudts Brewing Co,micro,Â Rt. 272 2800 North Reading Road,Adamstown,Pennsylvania,19501,http://www.stoudtsbeer.com,7174844386,2018-07-24 01:34:12.868066,2018-08-11 21:39:31.858085,United States,,,
allentown-brew-works,Allentown Brew Works,brewpub,812 Hamilton St,Allentown,Pennsylvania,18101-2437,http://www.thebrewworks.com,6104337777,2018-07-24 01:34:08.690116,2018-08-24 16:06:11.185634,United States,-75.4575021,40.6060468,
fegleys-brew-works,Fegley's Brew Works,brewpub,812 Hamilton St,Allentown,Pennsylvania,18101-2437,,,2018-07-24 01:34:10.49153,2018-08-24 16:08:33.057946,United States,-75.4575021,40.6060468,
hijinx-brewing-co,HiJinx Brewing Co,micro,905 Harrison St,Allentown,Pennsylvania,18103-3188,,,2018-07-24 01:34:10.856524,2018-08-24 16:09:06.225608,United States,-75.4745370824742,40.5934361752577,
railroad-city-brewing-company,Railroad City Brewing Company,brewpub,1415 11th Ave Ste 1,Altoona,Pennsylvania,16601-3303,http://www.railroadcitybrewing.com,8142012827,2018-07-24 01:34:12.120792,2018-08-11 21:39:30.141139,United States,,,
forest-and-main-brewery-and-pub,Forest & Main Brewery and Pub,brewpub,61 N Main St,Ambler,Pennsylvania,19002-5728,http://www.forestandmain.com,2155421776,2018-07-24 01:34:10.546176,2018-08-24 16:08:38.982752,United States,-75.2250879,40.1553233,
tannery-run-brew-works,Tannery Run Brew Works,planning,,Ambler,Pennsylvania,19002-4407,http://www.tanneryrun.com,2156131113,2018-07-24 01:34:12.957681,2018-08-11 21:39:32.104007,United States,,,
rotunda-brewing,Rotunda Brewing,brewpub,245 W Main St,Annville,Pennsylvania,17003-1326,http://www.batdorfrestaurant.com/rbc,7178672337,2018-07-24 01:34:12.34875,2018-08-24 16:11:32.547556,United States,-76.520098,40.32856075,
iron-hill-brewery-and-restaurant-ardmore,Iron Hill Brewery & Restaurant (Ardmore),brewpub,60 Greenfield Ave,Ardmore,Pennsylvania,19003-1204,http://www.ironhillbrewery.com,3028882739,2018-07-24 01:34:11.102104,2018-08-24 16:09:32.713815,United States,-75.2975536419238,40.0085409727079,
tired-hands-brewing-co,Tired Hands Brewing Co,brewpub,16 Ardmore Ave,Ardmore,Pennsylvania,19003-1302,http://www.tiredhands.com,6108967621,2018-07-24 01:34:13.16969,2018-08-24 16:12:48.68366,United States,-75.2936914,40.0086029,
tired-hands-brewing-co,Tired Hands Brewing Co,brewpub,35 S Cricket Ter,Ardmore,Pennsylvania,19003-2203,http://www.tiredhands.com,4844132983,2018-07-24 01:34:13.182986,2018-08-24 16:12:50.141441,United States,-75.2907672862714,40.0068333662978,
2sp-brewing-company,2SP Brewing Company,micro,120 Concord Rd,Aston,Pennsylvania,19014-2909,http://www.2spbrewing.com,4844837860,2018-07-24 01:34:08.610194,2018-08-11 21:39:21.594604,United States,,,
aston-abbey-brewing-co,Aston Abbey Brewing Co,micro,340 Turner Industrial Way,Aston,Pennsylvania,19014-3014,http://www.astonabbeybrewing.com,6102452178,2018-07-24 01:34:08.81035,2018-08-11 21:39:22.347925,United States,,,
brewery-in-planning-bala-cynwyd,Brewery in Planning - Bala Cynwyd,planning,,Bala Cynwyd,Pennsylvania,19004-1929,http://www.pabrewreview.com,6103248227,2018-07-24 01:34:09.310295,2018-08-11 21:39:23.711413,United States,,,
bangor-trust-brewing,Bangor Trust Brewing,brewpub,15 Broadway,Bangor,Pennsylvania,18013-2601,http://bangortrustbrewing.com,6104523232,2018-07-24 01:34:08.850409,2018-08-11 21:39:22.504015,United States,,,
super-fun-time-brewing-company,Super Fun Time Brewing Company,planning,,Bangor,Pennsylvania,18013-9244,,6105974402,2018-07-24 01:34:12.920394,2018-08-11 21:39:31.997397,United States,,,
beaver-brewing-co,Beaver Brewing Co,brewpub,1820 7th Ave,Beaver Falls,Pennsylvania,15010-4001,http://www.beaverbrewingcompany.com,,2018-07-24 01:34:08.924424,2018-08-24 16:06:31.601053,United States,-80.3192793,40.7650557,
olde-bedford-brewing-company,Olde Bedford Brewing Company,micro,109 Railroad St,Bedford,Pennsylvania,15522-1014,http://www.oldebbc.com,9072297942,2018-07-24 01:34:11.919862,2018-08-24 16:10:53.425066,United States,-78.5033435,40.021898,
robin-hood-brewing-co,Robin Hood Brewing Co,brewpub,,Bellefonte,Pennsylvania,16823,http://www.robinhoodbrewingco.com,8143578399,2018-07-24 01:34:12.25617,2018-08-11 21:39:30.465612,United States,,,
whitehorse-brewing-llc,Whitehorse Brewing LLC,micro,824 Diamond St,Berlin,Pennsylvania,15530-1539,,8144442436,2018-07-24 01:34:13.506833,2018-08-24 16:13:20.362332,United States,-78.9569570696799,39.9253058551013,
berwick-brewing-co,Berwick Brewing Co,brewpub,328 W Front St,Berwick,Pennsylvania,18603-4757,http://www.berwickbrewing.com,5707524313,2018-07-24 01:34:08.96649,2018-08-24 16:06:37.065244,United States,-76.2381631976586,41.0524332710491,
mckenzie-brew-house-#3,McKenzie Brew House (#3),brewpub,324 W Swedesford Rd,Berwyn,Pennsylvania,19312-1165,,6103619800,2018-07-24 01:34:11.598619,2018-08-11 21:39:28.920439,United States,,,
la-cabra-brewing,La Cabra Brewing,brewpub,642 Lancaster Ave,Berwyn,Pennsylvania,19312-1663,http://www.lacabrabrewing.com,6102407908,2018-07-24 01:34:11.243945,2018-08-11 21:39:28.107647,United States,,,
bonn-place-brewing,Bonn Place Brewing,micro,310 Taylor St,Bethlehem,Pennsylvania,18015,http://www.bonnbrewing.com,6104196660,2018-07-24 01:34:09.131756,2018-08-24 16:06:52.341679,United States,-75.3745048,40.6116536,
cave-brewing-co,Cave Brewing Co,micro,1407 Seidersville Rd,Bethlehem,Pennsylvania,18015-4219,http://www.cavebrewing.com,6107391381,2018-07-24 01:34:09.68935,2018-08-24 16:07:21.175219,United States,-75.3464618,40.5910341,
hop-hill-brewing-company,Hop Hill Brewing Company,micro,1988 Blair Ave,Bethlehem,Pennsylvania,18015-5307,http://www.hophillbeer.com,4848930767,2018-07-24 01:34:10.933837,2018-08-11 21:39:27.413245,United States,,,
seven-sirens-brewing-company,Seven Sirens Brewing Company,planning,,Bethlehem,Pennsylvania,18015,,4842396544,2018-07-24 01:34:12.56181,2018-08-11 21:39:31.134487,United States,,,
thirsty-farmer-brew-works,Thirsty Farmer Brew Works,brewpub,290 Cashtown Road,Biglerville,Pennsylvania,17307,,7176778842,2018-07-24 01:34:13.130332,2018-08-11 21:39:32.490288,United States,,,
rumspringa-brewing-co,Rumspringa Brewing Co,micro,3174 Old Philadelphia Pike,Bird In Hand,Pennsylvania,17505-9727,,7177687194,2018-07-24 01:34:12.426308,2018-08-24 16:11:38.47158,United States,-76.18731,40.038905,
marleys-brewery,Marley's Brewery,brewpub,1323 Columbia Blvd,Bloomsburg,Pennsylvania,17815-8860,http://www.marleysbrewery.com,5707849600,2018-07-24 01:34:11.543001,2018-08-24 16:10:14.415968,United States,-76.4477386,41.0013964,
turkey-hill-brewing-co-pub,Turkey Hill Brewing Co Pub,brewpub,991 Central Rd,Bloomsburg,Pennsylvania,17815-8990,http://www.turkeyhillbrewing.com,5703878422,2018-07-24 01:34:13.276109,2018-08-11 21:39:32.863454,United States,,,
the-other-farm-brewing-company,The Other Farm Brewing Company,brewpub,128 E Philadelphia Ave Ste 1,Boyertown,Pennsylvania,19512-1161,http://www.theotherfarmbrewingcompany.com,4844150741,2018-07-24 01:34:13.090905,2018-08-11 21:39:32.362368,United States,,,
brew-gentlemen,Brew Gentlemen,micro,512 Braddock Ave,Braddock,Pennsylvania,15104-1806,http://www.brewgentlemen.com,4128715075,2018-07-24 01:34:09.258475,2018-08-24 16:07:00.138861,United States,-79.8702107,40.4041599,
pig-island-brewery,Pig Island Brewery,planning,,Bradford,Pennsylvania,16701-1304,,8143667612,2018-07-24 01:34:12.025604,2018-08-11 21:39:29.896705,United States,,,
samuel-adams-pennsylvania-brewing-co,Samuel Adams Pennsylvania Brewing Co,regional,7880 Penn Dr,Breinigsville,Pennsylvania,18031-1508,,6103956811,2018-07-24 01:34:12.492278,2018-08-11 21:39:30.987992,United States,,,
conshohocken-brewing-bridgeport,Conshohocken Brewing - Bridgeport,brewpub,3 DeKalb St,Bridgeport,Pennsylvania,19405-1074,http://www.conshohockenbrewing.com,,2018-07-24 01:34:09.875114,2018-08-24 16:07:41.398668,United States,-75.3467908,40.1057904,
broken-goblet-brewing,Broken Goblet Brewing,brewpub,1500 Grundy Ln Bldg 1,Bristol,Pennsylvania,19007-1521,http://www.brokengoblet.com,2678125653,2018-07-24 01:34:09.572007,2018-08-11 21:39:24.233346,United States,,,
tin-lizard-brewing-co,Tin Lizard Brewing Co,brewpub,1000 W Lancaster Ave,Bryn Mawr,Pennsylvania,19010-2611,http://www.tinlizardbrewingco.com,6105251100,2018-07-24 01:34:13.156493,2018-08-24 16:12:47.205898,United States,-75.322789,40.023568,
mad-princes-brewing,Mad Princes Brewing,micro,2537 Bogarts Tavern Rd,Buckingham,Pennsylvania,18902,,2676146104,2018-07-24 01:34:11.486749,2018-08-24 16:10:08.290708,United States,-75.0613301002464,40.32438895,
coal-tipple-brewery-/-kramer-farms,Coal Tipple Brewery / Kramer Farms,micro,1905 Steubenville Rike,Burgettstown,Pennsylvania,15021,http://www.coaltipplebrewery.com,7248993344,2018-07-24 01:34:09.807266,2018-08-11 21:39:24.938363,United States,,,
butler-brew-works,Butler Brew Works,brewpub,101 S Main St,Butler,Pennsylvania,16001-5907,http://www.butlerbrewworks.com,7242645347,2018-07-24 01:34:09.673308,2018-08-24 16:07:19.649726,United States,-79.895238,40.860914,
reclamation-brewing-company,Reclamation Brewing Company,brewpub,221 S Main St,Butler,Pennsylvania,16001-5908,http://www.reclamationbrewing.com,7242820831,2018-07-24 01:34:12.135006,2018-08-24 16:11:14.674799,United States,-79.8954362682927,40.8587651585366,
recon-brewing,Recon Brewing,brewpub,1747 N Main St Ext,Butler,Pennsylvania,16001-1327,http://www.reconbrewing.com,7242568747,2018-07-24 01:34:12.151743,2018-08-11 21:39:30.197716,United States,,,
ever-grain-brewing-co,Ever Grain Brewing Co,micro,4444 Carlisle Pike Ste C,Camp Hill,Pennsylvania,17011-4102,,7175258222,2018-07-24 01:34:10.461375,2018-08-11 21:39:26.347093,United States,,,
highway-manor-brewing-co,Highway Manor Brewing Co,micro,2238 Gettysburg Rd,Camp Hill,Pennsylvania,17011-7301,http://www.HighwayManorBrewing.com,7177430613,2018-07-24 01:34:10.84396,2018-08-11 21:39:27.188713,United States,,,
rusty-gold-brewing,Rusty Gold Brewing,micro,43 W Pike St,Canonsburg,Pennsylvania,15317,,7244852332,2018-07-24 01:34:12.441603,2018-08-24 16:11:39.987644,United States,-80.1875048571429,40.2585645714286,
iron-hart,Iron Hart,brewpub,49 N Church St,Carbondale,Pennsylvania,18407-1904,http://www.3guysandabeerd.com,5702802739,2018-07-24 01:34:10.996939,2018-08-24 16:09:20.010698,United States,-75.50001,41.573825,
market-cross-pub-and-brewery,Market Cross Pub & Brewery,micro,113 N Hanover St,Carlisle,Pennsylvania,17013-2422,http://www.marketcrosspub.com,7172581234,2018-07-24 01:34:11.528007,2018-08-24 16:10:12.931474,United States,-77.1887288571429,40.2033574285714,
molly-pitcher-brewing-co,Molly Pitcher Brewing Co,micro,10 E South St,Carlisle,Pennsylvania,17013-3426,http://www.mollypitcher.com,7176090969,2018-07-24 01:34:11.696431,2018-08-24 16:10:29.3916,United States,-77.1890465,40.1982144,
desperate-times-brewing-co,Desperate Times Brewing Co,brewpub,1201 Carlisle Springs Rd,Carlisle,Pennsylvania,17013-1554,http://www.desperatetimesbrewery.com,7177063192,2018-07-24 01:34:10.194111,2018-08-24 16:08:09.028482,United States,-77.187054,40.213096,
mindful-brewing-company,Mindful Brewing Company,brewpub,3759 Library Rd,Castle Shannon,Pennsylvania,15234-2232,http://Www.mindfulbrewing.com,4126683857,2018-07-24 01:34:11.657809,2018-08-24 16:10:25.014993,United States,-80.021632980547,40.3644178156281,
taylor-house-brewing-co,Taylor House Brewing Co,micro,76 Lehigh St,Catasauqua,Pennsylvania,18032,http://www.taylorhousebrewing.com,,2018-07-24 01:34:12.981924,2018-08-24 16:12:29.493025,United States,-75.4680534197733,40.6481783182778,
towerhill-brewery,Towerhill Brewery,brewpub,237 W Butler Ave,Chalfont,Pennsylvania,18914-3020,http://www.towerhillbrewery.com,2158228788,2018-07-24 01:34:13.195791,2018-08-24 16:12:51.654416,United States,-75.21378230705,40.2798437775317,
gearhouse-brewing-company,GearHouse Brewing Company,brewpub,253 Grant St,Chambersburg,Pennsylvania,17201-1627,http://www.gearhousebrewingco.com,8034226145,2018-07-24 01:34:10.631279,2018-08-24 16:08:48.102171,United States,-77.6567421470779,39.9412217960911,
brewery-in-planning-chambersburg-pa,"Brewery in Planning - Chambersburg, PA",planning,,Chambersburg,Pennsylvania,17201-1465,,7172630027,2018-07-24 01:34:09.337027,2018-08-11 21:39:23.742956,United States,,,
roy-pitz-brewing-co,Roy Pitz Brewing Co,brewpub,301 Roy Pitz Ave Ste 3,Chambersburg,Pennsylvania,17201-1668,http://www.roypitz.com,7174968753,2018-07-24 01:34:12.410449,2018-08-11 21:39:30.781187,United States,,,
kegg-brewing-company,Kegg Brewing Company,micro,117 Faust Ln,Champion,Pennsylvania,15622-2107,,7249722350,2018-07-24 01:34:11.177354,2018-08-11 21:39:27.95367,United States,,,
clarion-river-brewing-company,Clarion River Brewing Company,brewpub,600 Main St # 604,Clarion,Pennsylvania,16214-1108,http://www.clarionriverbrew.com,8142978399,2018-07-24 01:34:09.776851,2018-08-24 16:07:30.724692,United States,-79.6789282956162,41.1464916218955,
mechanistic-brewing,Mechanistic Brewing,planning,,Clarion,Pennsylvania,16214-2018,,,2018-07-24 01:34:11.611312,2018-08-11 21:39:28.960636,United States,,,
race-street-brew-works,Race Street Brew Works,brewpub,511 Spruce St Ste 2,Clearfield,Pennsylvania,16830-1923,http://www.racestreetbrew.com,8142054052,2018-07-24 01:34:12.106249,2018-08-11 21:39:30.11163,United States,,,
stargazer-brewing-company,Stargazer Brewing Company,planning,,Coatesville,Pennsylvania,19320,,6102096346,2018-07-24 01:34:12.791474,2018-08-11 21:39:31.673857,United States,,,
appalachian-brewing-co-collegeville,Appalachian Brewing Co - Collegeville,brewpub,50 W Third Ave Collegeville Station 2nd Floor,Collegeville,Pennsylvania,19426-3655,http://www.abcbrew.com,4849736064,2018-07-24 01:34:08.728814,2018-08-11 21:39:22.065512,United States,,,
intercourse-brewing-co,Intercourse Brewing Co,contract,4166 Ironbridge Dr,Collegeville,Pennsylvania,19426-1188,http://www.intercoursebrewingco.com,6108129426,2018-07-24 01:34:10.984952,2018-08-11 21:39:27.525768,United States,,,
columbia-kettle-works,Columbia Kettle Works,brewpub,40 N 3rd St,Columbia,Pennsylvania,17512-1104,http://www.columbiakettleworks.com,7173422374,2018-07-24 01:34:09.847971,2018-08-24 16:07:38.441802,United States,-76.5035870468541,40.0326491788151,
home-brewing-co-of-pennsylvania,Home Brewing Co Of Pennsylvania,planning,,Conneaut Lake,Pennsylvania,16316,,4128603015,2018-07-24 01:34:10.908905,2018-08-11 21:39:27.339624,United States,,,
conshohocken-brewing-co,Conshohocken Brewing Co.,brewpub,739 E Elm St Ste B,Conshohocken,Pennsylvania,19428-2301,http://www.conshohockenbrewing.com,6108978962,2018-07-24 01:34:09.888546,2018-08-11 21:39:25.182595,United States,,,
conyngham-brewing-company,Conyngham Brewing Company,micro,309 Main St,Conyngham,Pennsylvania,18219-0910,http://www.conynghambrewing.com,5707105752,2018-07-24 01:34:09.901501,2018-08-24 16:07:45.063795,United States,-76.0585835,40.9922807,
180-and-tapped,180 and Tapped,micro,2010 A State Ave,Coraopolis,Pennsylvania,15108,http://www.180andtapped.com,4127375273,2018-07-24 01:34:08.563267,2018-08-24 16:05:59.261951,United States,-80.1502035633831,40.5098495749574,
cobblehaus-brewing-company,Cobblehaus Brewing Company,micro,1021 5th Ave,Coraopolis,Pennsylvania,15108-1803,http://www.cobblehauspa.com,4122648000,2018-07-24 01:34:09.820578,2018-08-24 16:07:35.220482,United States,-80.1633304788031,40.5174116,
neshaminy-creek-brewing-co,Neshaminy Creek Brewing Co,regional,909 Ray Ave,Croydon,Pennsylvania,19021-7510,http://www.neshaminycreekbrewing.com,2154587081,2018-07-24 01:34:11.804927,2018-08-24 16:10:39.971888,United States,-74.9022245454545,40.0853767272727,
the-north-slope-brewing-company,The North Slope Brewing Company,brewpub,2439 Sr 309 Hwy,Dallas,Pennsylvania,18612-9251,http://www.northslopebrewing.com,5702554012,2018-07-24 01:34:13.073134,2018-08-11 21:39:32.328589,United States,,,
wyndridge-farm-brewing,Wyndridge Farm Brewing,brewpub,885 S Pleasant Ave,Dallastown,Pennsylvania,17313-9650,http://www.wyndridge.com,7172449900,2018-07-24 01:34:13.550272,2018-08-24 16:13:23.426636,United States,-76.644864,39.893878,
old-forge-brewing-co,Old Forge Brewing Co,micro,401 Railroad St Ste 104,Danville,Pennsylvania,17821-1593,http://www.oldforgebrewingcompany.com,5702758151,2018-07-24 01:34:11.893896,2018-08-11 21:39:29.570754,United States,,,
roundback-brewery-llc,Roundback Brewery LLC,planning,,Danville,Pennsylvania,17821-7746,http://roundbackbrewery.com,5708548067,2018-07-24 01:34:12.395012,2018-08-11 21:39:30.752735,United States,,,
rock-god-brewing-company,Rock God Brewing Company,micro,459 Rooney Ave,Danville,Pennsylvania,17821-1897,http://rockgodbeer.com,5702844096,2018-07-24 01:34:12.286151,2018-08-24 16:11:28.127627,United States,-76.618447,40.962031,
old-forge-brewing-co,Old Forge Brewing Co,brewpub,532 Mill St,Danville,Pennsylvania,17821-1015,http://www.oldforgebrewingcompany.com,5702758151,2018-07-24 01:34:11.907368,2018-08-24 16:10:51.843999,United States,-76.6160076294016,40.9654799905837,
yellow-bridge-brewing-co,Yellow Bridge Brewing Co.,micro,2266 Route 66,Delmont,Pennsylvania,15626-1461,http://www.yellowbridgebrewing.com,7243003922,2018-07-24 01:34:13.576874,2018-08-11 21:39:33.547706,United States,,,
big-bottom-brewery,Big Bottom Brewery,micro,6 Tristan Dr,Dillsburg,Pennsylvania,17019-1627,http://www.facebook.com/bigbottombrewery,7175028800,2018-07-24 01:34:08.982369,2018-08-11 21:39:22.869446,United States,,,
hidden-river-brewing-co,Hidden River Brewing Co,brewpub,1808 W Schuylkill Rd,Douglassville,Pennsylvania,19518-9101,http://hiddenriverbrewing.com,4842732266,2018-07-24 01:34:10.817776,2018-08-11 21:39:27.124926,United States,,,
east-branch-brewing-company,East Branch Brewing Company,brewpub,202 E Lancaster Ave,Downingtown,Pennsylvania,19335-2957,http://www.eastbranchbrewing.com,6102831989,2018-07-24 01:34:10.343873,2018-08-24 16:08:21.047183,United States,-75.7007609677465,40.0067258,
victory-brewing-co,Victory Brewing Co,regional,420 Acorn Ln,Downingtown,Pennsylvania,19335-3040,http://www.victorybeer.com,6108730881,2018-07-24 01:34:13.36599,2018-08-11 21:39:33.088799,United States,,,
geronimo-brewing-inc,Geronimo Brewing Inc,planning,,Doylestown,Pennsylvania,18901,http://www.geronimobrewing.com,,2018-07-24 01:34:10.643785,2018-08-11 21:39:26.766772,United States,,,
doylestown-brewing-co,Doylestown Brewing Co,proprietor,52 East State St.,Doylestown,Pennsylvania,18901,,2153401414,2018-07-24 01:34:10.302823,2018-08-24 16:08:16.610791,United States,-75.1291115998055,40.31027305,
doc-gs-brewing-company,Doc G's Brewing Company,brewpub,208 W Long Ave,Du Bois,Pennsylvania,15801-2106,,8142997938,2018-07-24 01:34:10.245268,2018-08-11 21:39:25.868226,United States,,,
lindgren-craft-brewery,Lindgren Craft Brewery,planning,,Duncannon,Pennsylvania,17020,,7175147884,2018-07-24 01:34:11.354299,2018-08-11 21:39:28.385754,United States,,,
loud-brewing-company,Loud Brewing Company,planning,,Duncannon,Pennsylvania,17020-1201,,7173190021,2018-07-24 01:34:11.435201,2018-08-11 21:39:28.578726,United States,,,
marzonis-brick-oven-and-brewery,Marzoni's Brick Oven and Brewery,brewpub,165 Patch Way Rd,Duncansville,Pennsylvania,16635-8431,http://www.marzonis.com,8146951300,2018-07-24 01:34:11.558037,2018-08-11 21:39:28.837672,United States,,,
rogan-brewing-company,Rogan Brewing Company,planning,,Duquesne,Pennsylvania,15110-1525,http://www.roganbrewing.com,4125455400,2018-07-24 01:34:12.300529,2018-08-11 21:39:30.570196,United States,,,
mad-chef-craft-brewing,Mad Chef Craft Brewing,brewpub,2023 Miller Rd,East Petersburg,Pennsylvania,17520-1624,http://www.madchefcraftbrewing.com,7172836469,2018-07-24 01:34:11.474249,2018-08-24 16:10:06.847634,United States,-76.3496026006417,40.0936698487036,
the-brewery-ba¶ser-geist-brewing-co-llc,"The Brewery BÃ¶ser Geist Brewing Co., LLC",micro,1250 Simon Blvd Unit K100,Easton,Pennsylvania,18042-1474,,4842938005,2018-07-24 01:34:13.022444,2018-08-11 21:39:32.246718,United States,,,
weyerbacher-brewing-co,Weyerbacher Brewing Co,regional,905 Line St Ste G,Easton,Pennsylvania,18042-7379,http://www.weyerbacher.com,6105595561,2018-07-24 01:34:13.481854,2018-08-11 21:39:33.342139,United States,,,
two-rivers-brewing-co,Two Rivers Brewing Co,brewpub,542 Northampton St,Easton,Pennsylvania,18042-3517,http://www.tworiversbrewing.com,6108291131,2018-07-24 01:34:13.302011,2018-08-24 16:12:59.115744,United States,-75.214292,40.69072655,
coal-country-brewing,Coal Country Brewing,micro,625 W High St,Ebensburg,Pennsylvania,15931,http://www.coalcountrybrewing.net,8144198648,2018-07-24 01:34:09.793164,2018-08-24 16:07:32.320073,United States,-78.730634,40.485306,
crooked-tongue-brewing,Crooked Tongue Brewing,micro,2516 Benjamin Franklin Hwy,Edinburg,Pennsylvania,16116-4302,http://www.crookedtonguebrewing.com,7248563765,2018-07-24 01:34:10.046331,2018-08-11 21:39:25.463031,United States,,,
moo-duck-brewery,Moo-Duck Brewery,brewpub,79 S Wilson Ave,Elizabethtown,Pennsylvania,17022-2166,http://www.mooduckbrewery.com,,2018-07-24 01:34:11.709768,2018-08-24 16:10:30.872246,United States,-76.6116111712449,40.1473526,
funk-brewing-company,Funk Brewing Company,micro,19 S 6th St,Emmaus,Pennsylvania,18049-3741,http://www.funkbrewing.com,6104218270,2018-07-24 01:34:10.6038,2018-08-24 16:08:45.112679,United States,-75.4950185714286,40.532105,
separatist-beer-project,Separatist Beer Project,proprietor,,Emmaus,Pennsylvania,18049,http://www.soleales.com,6103309114,2018-07-24 01:34:12.548732,2018-08-11 21:39:31.105985,United States,,,
yergey-brewing,Yergey Brewing,micro,518B Bank St,Emmaus,Pennsylvania,18049-2008,http://yergeybrewing.com,6104172804,2018-07-24 01:34:13.591689,2018-08-24 16:13:28.078352,United States,-75.4936659183674,40.5337932244898,
jigsys-brewpub-and-restaurant,Jigsy's Brewpub & Restaurant,brewpub,225 N Enola Rd,Enola,Pennsylvania,17025-2414,http://www.jigsyspizza.com,7177327708,2018-07-24 01:34:11.139207,2018-08-11 21:39:27.862548,United States,,,
pizza-boy-brewing-co,Pizza Boy Brewing Co,micro,2240 Millennium Way,Enola,Pennsylvania,17025-1484,http://www.pizzaboybrewing.com,7177283840,2018-07-24 01:34:12.051538,2018-08-11 21:39:29.94985,United States,,,
black-forest-brewery,Black Forest Brewery,brewpub,301 W Main St,Ephrata,Pennsylvania,17522-1713,http://www.blackforestbrewery.net,7174507217,2018-07-24 01:34:09.015191,2018-08-24 16:06:41.950373,United States,-76.183579,40.181767,
saint-boniface-craft-brewing-co,Saint Boniface Craft Brewing Co,brewpub,1701 W Main St,Ephrata,Pennsylvania,17522-1106,,7177211744,2018-07-24 01:34:12.479593,2018-08-24 16:11:44.516089,United States,-76.205629,40.200294,
brewery-in-planning-erie,Brewery in Planning - Erie,planning,,Erie,Pennsylvania,16505-4202,,,2018-07-24 01:34:09.361175,2018-08-11 21:39:23.779781,United States,,,
brewerie-at-union-station-the,"Brewerie at Union Station, The",brewpub,123 W 14th St,Erie,Pennsylvania,16501-1717,http://www.brewerie.com,8144542200,2018-07-24 01:34:09.277268,2018-08-24 16:07:01.6713,United States,-80.0819415,42.1211965,
daugherty-brewing-company,Daugherty Brewing Company,planning,,Erie,Pennsylvania,16510-3680,http://www.daughertybrewingcompany.com,,2018-07-24 01:34:10.163156,2018-08-11 21:39:25.717528,United States,,,
erie-ale-works,Erie Ale Works,micro,416 W 12th St,Erie,Pennsylvania,16501-1506,http://www.eriealeworks.com,8143149089,2018-07-24 01:34:10.432718,2018-08-24 16:08:27.062663,United States,-80.1219366,42.108963,
lavery-brewing-co,Lavery Brewing Co,micro,128 W 12th St,Erie,Pennsylvania,16501-1750,http://www.laverybrewing.com,8144540405,2018-07-24 01:34:11.281088,2018-08-24 16:09:50.789609,United States,-80.1219366,42.108963,
millcreek-brewing-company,Millcreek Brewing Company,brewpub,4102 W Lake Rd,Erie,Pennsylvania,16505-1561,http://www.millcreekbrew.com,8146162739,2018-07-24 01:34:11.644664,2018-08-24 16:10:23.503394,United States,-80.3312655,42.029976,
erie-brewing-co,Erie Brewing Co,micro,6008 Knowledge Pkwy # A,Erie,Pennsylvania,16510-4676,http://www.eriebrewingco.com,8144597741,2018-07-24 01:34:10.447226,2018-08-11 21:39:26.320136,United States,,,
rivertowne-brewery-production-facility,Rivertowne Brewery - Production Facility,micro,5578 Old William Penn Hwy,Export,Pennsylvania,15632-9303,http://www.myrivertowne.com,7245192145,2018-07-24 01:34:12.228195,2018-08-24 16:11:23.639129,United States,-79.6373887951658,40.4214737342474,
devout-brewing,Devout Brewing,planning,,Export,Pennsylvania,15632,http://www.devoutbrewingco.com,,2018-07-24 01:34:10.215727,2018-08-11 21:39:25.807552,United States,,,
south-county-brewing-co,South County Brewing Co,micro,104 Mill St,Fawn Grove,Pennsylvania,17321-9654,http://www.southcountybrewing.com,7173824016,2018-07-24 01:34:12.677758,2018-08-24 16:12:02.299586,United States,-76.4495832396996,39.7322665965133,
appalachian-brewing-co-gettysburg-gateway,Appalachian Brewing Co - Gettysburg Gateway,brewpub,70 Presidential Cir,Gettysburg,Pennsylvania,17325-8399,http://www.abcbrew.com,7173982419,2018-07-24 01:34:08.741312,2018-08-11 21:39:22.104011,United States,,,
battlefield-brew-works,Battlefield Brew Works,brewpub,248 Hunterstown Rd,Gettysburg,Pennsylvania,17325-7840,http://www.battlefieldbrewworks.com,7173982907,2018-07-24 01:34:08.897813,2018-08-11 21:39:22.648532,United States,,,
brewery-in-planning-gibsonia-pa,"Brewery in Planning - GIBSONIA, PA",planning,,GIBSONIA,Pennsylvania,15044,,7249101619,2018-07-24 01:34:09.385124,2018-08-11 21:39:23.815667,United States,,,
strange-roots-experimental-ales,Strange Roots Experimental Ales,micro,4399 Gibsonia Road,Gibsonia,Pennsylvania,15044-9343,http://www.strangerootsbeer.com,4124072506,2018-07-24 01:34:12.894545,2018-08-24 16:12:22.002084,United States,-79.9709659,40.6301186,
mckenzie-brew-house,McKenzie Brew House,brewpub,451 Wilmington Pike - W Chester Pike,Glen Mills,Pennsylvania,19342-1249,http://www.mckenziebrewhouse.com,6103619800,2018-07-24 01:34:11.571754,2018-08-11 21:39:28.867385,United States,,,
all-saints-brewing-co,All Saints Brewing Co,micro,1602 State Route 119,Greensburg,Pennsylvania,15601-7317,http://www.allsaintscraftbrewing.com,7242891202,2018-07-24 01:34:08.662299,2018-08-11 21:39:21.802387,United States,,,
depot-saloon,Depot Saloon,brewpub,9 S Race St,Greenville,Pennsylvania,16125-2213,http://www.depotsaloon.com,7245884201,2018-07-24 01:34:10.179231,2018-08-24 16:08:07.573814,United States,-80.390239,41.40444,
koehler-brewing-co,Koehler Brewing Co,micro,231 Park St,Grove City,Pennsylvania,16127-2011,http://koehlerbrewingcompany.com,8335634537,2018-07-24 01:34:11.231609,2018-08-24 16:09:44.650548,United States,-80.081300569722,41.1604454510374,
aldus-brewing-company,Aldus Brewing Company,micro,555 Centennial Ave,Hanover,Pennsylvania,17331-3936,http://www.aldusbrewing.com,7176342407,2018-07-24 01:34:08.649482,2018-08-24 16:06:06.638843,United States,-76.9803000897366,39.7942218504207,
miscreation-brewing-company,Miscreation Brewing Company,brewpub,6 Center Sq,Hanover,Pennsylvania,17331-3001,http://www.miscreationbrewing.com,7176983666,2018-07-24 01:34:11.670576,2018-08-11 21:39:29.089583,United States,,,
something-wicked-brewing-company,Something Wicked Brewing Company,brewpub,34 Broadway Ste 200,Hanover,Pennsylvania,17331-3104,http://www.somethingwickedbrewing.com,7173165488,2018-07-24 01:34:12.665253,2018-08-24 16:12:00.827514,United States,-76.9829101725952,39.8004875177856,
warehouse-gourmet-bistro-and-brew-pub,Warehouse Gourmet Bistro & Brew Pub,micro,7 Pennsylvania Ave,Hanover,Pennsylvania,17331-2432,http://www.warehousegourmet.net,7174519898,2018-07-24 01:34:13.443326,2018-08-24 16:13:14.255052,United States,-76.989769769602,39.8023294804768,
blueprint-brewing-co,Blueprint Brewing Co.,micro,1571 Gehman Rd,Harleysville,Pennsylvania,19438-2930,http://www.blueprintbrewco.com,4843197901,2018-07-24 01:34:09.069611,2018-08-11 21:39:23.117098,United States,,,
the-harmony-inn,The Harmony Inn,brewpub,230 Mercer St,Harmony,Pennsylvania,16037-6812,,,2018-07-24 01:34:13.043045,2018-08-24 16:12:35.287614,United States,-80.1265021295465,40.8029435,
zeroday-brewing-company,Zeroday Brewing Company,brewpub,250 Reily St Ste 103,Harrisburg,Pennsylvania,17102-2550,http://www.zerodaybrewing.com,7177456218,2018-07-24 01:34:13.632107,2018-08-24 16:13:31.172053,United States,-76.8915931,40.2717061,
brewery-in-planning-harrisburg,Brewery in Planning - Harrisburg,planning,,Harrisburg,Pennsylvania,17111-2231,,,2018-07-24 01:34:09.409102,2018-08-11 21:39:23.852953,United States,,,
appalachian-brewing-co-harrisburg,Appalachian Brewing Co - Harrisburg,brewpub,50 N Cameron St,Harrisburg,Pennsylvania,17101-2407,http://www.abcbrew.com,7172211080,2018-07-24 01:34:08.754966,2018-08-24 16:06:18.037738,United States,-76.8816961,40.291059,
boneshire-brew-works,Boneshire Brew Works,micro,7462 Derry St,Harrisburg,Pennsylvania,17111-5228,http://www.boneshire.com,7174127814,2018-07-24 01:34:09.116662,2018-08-24 16:06:50.894982,United States,-76.8712077,40.2633825,
spring-gate-brewery,Spring Gate Brewery,micro,5790 Devonshire Rd,Harrisburg,Pennsylvania,17112-3508,http://www.springgatebrewery.com,7174800066,2018-07-24 01:34:12.734456,2018-08-11 21:39:31.560811,United States,,,
the-millworks-brewery,The Millworks Brewery,brewpub,340 Verbeke St,Harrisburg,Pennsylvania,17102-2052,http://www.millworksharrisburg.com,7176954888,2018-07-24 01:34:13.057738,2018-08-24 16:12:36.758265,United States,-76.8874206,40.270538,
the-vegetable-hunter,The Vegetable Hunter,brewpub,614 N 2nd St,Harrisburg,Pennsylvania,17101-1001,http://www.TheVegetableHunter.com,7176956229,2018-07-24 01:34:13.116259,2018-08-24 16:12:42.745093,United States,-76.8881545,40.2638045,
wolf-brewing-company,Wolf Brewing Company,planning,,Harrisburg,Pennsylvania,17112-1550,http://www.wolfbrewingco.com,7176452752,2018-07-24 01:34:13.536106,2018-08-11 21:39:33.466397,United States,,,
crooked-eye-brewery,Crooked Eye Brewery,micro,13 E Montgomery Ave Ste 2,Hatboro,Pennsylvania,19040-2618,http://crookedeyebrewery.com,2152859253,2018-07-24 01:34:09.998347,2018-08-11 21:39:25.437096,United States,,,
imprint-beer-company,Imprint Beer Company,micro,1500 Industry Rd Ste O,Hatfield,Pennsylvania,19440-3271,http://www.imprintbeer.com,2676403004,2018-07-24 01:34:10.959639,2018-08-11 21:39:27.472392,United States,,,
wallenpaupack-brewing-company,Wallenpaupack Brewing Company,brewpub,73 Welwood Ave,Hawley,Pennsylvania,18428-1500,http://www.wallenpaupackbrewingco.com,5703907933,2018-07-24 01:34:13.430673,2018-08-24 16:13:12.696905,United States,-75.1761918249664,41.4687395616053,
insurrection-aleworks,Insurrection Aleworks,micro,1635 E Railroad St,Heidelberg,Pennsylvania,15106-4026,http://insurrectionaleworks.com,4122762030,2018-07-24 01:34:10.972502,2018-08-24 16:09:16.906911,United States,-80.0875544081633,40.3926401428571,
lost-tavern-brewing,Lost Tavern Brewing,micro,782 Main St,Hellertown,Pennsylvania,18055-1540,http://www.losttavernbrewing.com,4848513980,2018-07-24 01:34:11.422161,2018-08-24 16:10:02.419344,United States,-75.3411606,40.5809687,
stone-church-pizza-and-brewpub,Stone Church Pizza & Brewpub,brewpub,600 S Hermitage Rd,Hermitage,Pennsylvania,16148-3629,http://www.stonechurchbrewpub.com,7243087770,2018-07-24 01:34:12.855264,2018-08-24 16:12:15.846304,United States,-80.451969,41.225649,
troegs-brewing-co,Troegs Brewing Co,regional,200 E Hershey Park Dr,Hershey,Pennsylvania,17033-2719,http://www.troegs.com,7175341297,2018-07-24 01:34:13.236917,2018-08-11 21:39:32.760892,United States,,,
imperium-brewing,Imperium Brewing,planning,,Hickory,Pennsylvania,15340-1135,http://imperiumbrewing.com,4129991077,2018-07-24 01:34:10.947274,2018-08-11 21:39:27.443953,United States,,,
rock-bottom-brewery-pittsburgh,Rock Bottom Brewery - Pittsburgh,brewpub,171 E Bridge St,Homestead,Pennsylvania,15120,http://www.rockbottom.com,4124622739,2018-07-24 01:34:12.270216,2018-08-24 16:11:26.686713,United States,-79.9149542,40.4093329,
irving-cliff-brewery,Irving Cliff Brewery,brewpub,2 Chapel St,Honesdale,Pennsylvania,18431-2094,http://www.irvingcliffbrewery.com,5706470644,2018-07-24 01:34:11.114506,2018-08-24 16:09:34.201658,United States,-75.257181,41.574806,
here-and-now-brewing-co,Here and Now Brewing Co,brewpub,645 Main St,Honesdale,Pennsylvania,18431-1842,http://hereandnowbrewing.com,5702530700,2018-07-24 01:34:10.802213,2018-08-24 16:09:01.79614,United States,-75.2548230052216,41.5713476,
mad-k-brewery,Mad-K Brewery,micro,298 Mountain Top Rd,Howard,Pennsylvania,16841-2627,http://www.mad-kbrews.com,5702951842,2018-07-24 01:34:11.500029,2018-08-11 21:39:28.727843,United States,,,
iron-hill-brewery-and-restaurant-huntingdon-valley,Iron Hill Brewery & Restaurant - Huntingdon Valley,brewpub,785 Huntingdon Pike,Huntingdon Valley,Pennsylvania,19006-8362,http://www.ironhillbrewery.com,,2018-07-24 01:34:11.022821,2018-08-24 16:09:23.248769,United States,-75.0674691,40.1192109,
moss-mill-brewing,Moss Mill Brewing,micro,109 Pike Cir Ste D,Huntingdon Valley,Pennsylvania,19006-1630,http://www.mossmillbrewing.com,2679822297,2018-07-24 01:34:11.73968,2018-08-11 21:39:29.222507,United States,,,
naked-brewing-co,Naked Brewing Co,micro,51 Buck Rd,Huntingdon Valley,Pennsylvania,19006-1501,http://www.nakedbrewingcompany.com,2673559561,2018-07-24 01:34:11.778909,2018-08-11 21:39:29.305439,United States,,,
levity-brewing-co,Levity Brewing Co,brewpub,1380 Wayne Ave Ste A,Indiana,Pennsylvania,15701-3544,,,2018-07-24 01:34:11.330222,2018-08-11 21:39:28.297977,United States,,,
noble-stein-brewing-co,Noble Stein Brewing Co.,micro,1170-G Wayne Avenue,Indiana,Pennsylvania,15701,http://www.noblesteinbeer.com,7248018087,2018-07-24 01:34:11.843047,2018-08-11 21:39:29.455333,United States,,,
fury-brewing-company,Fury Brewing Company,micro,13380 US-30,Irwin,Pennsylvania,15642,http://www.furybrewingcompany.com,7248265162,2018-07-24 01:34:10.616947,2018-08-24 16:08:46.654914,United States,-79.7029626,40.3248479,
quinn-brewing-company,Quinn Brewing Company,micro,3000 Commerce Loop Ste 3200,Irwin,Pennsylvania,15642-8112,http://www.quinnbrewing.com,7245905916,2018-07-24 01:34:12.09256,2018-08-11 21:39:30.070977,United States,,,
mortals-key-brewing-company,Mortals Key Brewing Company,brewpub,4224 E Lake Rd,Jamestown,Pennsylvania,16134-4524,http://www.mortalskey.com,7249321080,2018-07-24 01:34:11.725509,2018-08-24 16:10:32.366484,United States,-80.4597990466254,41.5124318475412,
braeloch-brewing-company,Braeloch Brewing Company,planning,,Kennett Square,Pennsylvania,19348-3605,,3026056473,2018-07-24 01:34:09.180893,2018-08-11 21:39:23.433595,United States,,,
kennett-brewing-company,Kennett Brewing Company,brewpub,109 S Broad St Ste 2,Kennett Square,Pennsylvania,19348-3101,http://www.kennettbrewingcompany.com,6104440440,2018-07-24 01:34:11.189672,2018-08-11 21:39:27.990101,United States,,,
victory-brewing-co,Victory Brewing Co,brewpub,650 W Cypress St Ste 1,Kennett Square,Pennsylvania,19348-3059,http://www.victorybeer.com,4847301870,2018-07-24 01:34:13.378675,2018-08-11 21:39:33.115131,United States,,,
golden-avalanche-brewing-co,Golden Avalanche Brewing Co,brewpub,272 W Main St,Kutztown,Pennsylvania,19530-1604,http://www.kutztowntavern.com/GoldenAvalancheBrewery,6106839600,2018-07-24 01:34:10.656356,2018-08-24 16:08:49.709313,United States,-75.7780207,40.5164127,
saucony-creek-brewing-company,Saucony Creek Brewing Company,micro,15032 Kutztown Rd,Kutztown,Pennsylvania,19530-9275,http://www.sauconycreekbrewing.com,6106833128,2018-07-24 01:34:12.505241,2018-08-24 16:11:47.456496,United States,-75.7970035263681,40.5014999328271,
spring-house-brewery,Spring House Brewery,micro,209 Hazel St,Lancaster,Pennsylvania,17603-5629,http://www.springhousebeer.com,7178720925,2018-07-24 01:34:12.749971,2018-08-24 15:49:13.355408,United States,-76.3071090416667,40.029367375,
wacker-brewing-co,Wacker Brewing Co,micro,417 W Grant St,Lancaster,Pennsylvania,17603,http://www.wackerbrewing.com,7176172711,2018-07-24 01:34:13.418162,2018-08-24 16:13:11.214864,United States,-76.3136543877551,40.0379942653061,
lancaster-brewing-co,Lancaster Brewing Co,micro,302 N Plum St # 304,Lancaster,Pennsylvania,17602-2402,http://www.lancasterbrewing.com,7173916258,2018-07-24 01:34:11.25645,2018-08-24 16:09:47.600221,United States,-76.2985330081352,40.0438635,
fetish-brewing-co,Fetish Brewing Co,micro,325 Ice Ave,Lancaster,Pennsylvania,17602-1930,http://fetishbrewing.tumblr.com,,2018-07-24 01:34:10.518343,2018-08-24 16:08:35.958967,United States,-76.3011427142857,40.052413,
iron-hill-brewery-and-restaurant-lancaster,Iron Hill Brewery & Restaurant - Lancaster,brewpub,781 Harrisburg Pike,Lancaster,Pennsylvania,17603-2655,http://www.ironhillbrewery.com,7172919800,2018-07-24 01:34:11.036367,2018-08-24 16:09:24.907942,United States,-76.3188136,40.0506816,
white-clay-brewing-company,White Clay Brewing Company,planning,,Landenberg,Pennsylvania,19350-1540,,,2018-07-24 01:34:13.494175,2018-08-11 21:39:33.371316,United States,,,
bent-run-brewing-co,Bent Run Brewing Co,brewpub,5607 SR 957,Lander,Pennsylvania,16345,http://www.bentrunbrewing.com,8147578269,2018-07-24 01:34:08.951547,2018-08-11 21:39:22.78909,United States,,,
round-guys-brewing-co,Round Guys Brewing Co,brewpub,324 W Main St,Lansdale,Pennsylvania,19446-2006,http://www.roundguysbrewery.com,6107151512,2018-07-24 01:34:12.364973,2018-08-24 16:11:34.076289,United States,-75.2863088163265,40.2433784285714,
four-seasons-brewing-co,Four Seasons Brewing Co,brewpub,745 Lloyd Ave Ext,Latrobe,Pennsylvania,15650,http://www.fsbrewing.com,7245204111,2018-07-24 01:34:10.560513,2018-08-11 21:39:26.568737,United States,,,
western-pennsylvania-brewing-co,Western Pennsylvania Brewing Co,regional,119 Jefferson St,Latrobe,Pennsylvania,15650,http://www.citybreiwng.com,,2018-07-24 01:34:13.469369,2018-08-24 16:13:17.424271,United States,-79.3898964545455,40.3190301818182,
snitz-creek-brewery,Snitz Creek Brewery,brewpub,7 N 9th St,Lebanon,Pennsylvania,17046-4902,http://www.snitzcreekbrewery.com,7174504467,2018-07-24 01:34:12.639535,2018-08-24 16:11:59.275414,United States,-76.4263773185968,40.3393772758069,
lebanon-valley-craft-brewery,Lebanon Valley Craft Brewery,planning,,Lebanon,Pennsylvania,17046,,5134048600,2018-07-24 01:34:11.306094,2018-08-11 21:39:28.244661,United States,,,
brewery-in-planning-levittown-pa,Brewery In Planning - Levittown PA,planning,,Levittown,Pennsylvania,19054-3704,,,2018-07-24 01:34:09.433204,2018-08-11 21:39:23.888951,United States,,,
shy-bear-brewing,Shy Bear Brewing,brewpub,35 Meadowbrook Ln,Lewistown,Pennsylvania,17044-2802,http://www.shybearbrewing.com,7174471701,2018-07-24 01:34:12.602048,2018-08-11 21:39:31.243698,United States,,,
appalachian-brewing-co-lititz,Appalachian Brewing Co - Lititz,brewpub,55 N Water St,Lititz,Pennsylvania,17543-1612,http://www.abcbrew.com,7172211080,2018-07-24 01:34:08.768167,2018-08-24 16:06:19.554939,United States,-76.3010098601829,40.1582737511844,
joboys-brew-pub,JoBoy's Brew Pub,brewpub,27 E Main St,Lititz,Pennsylvania,17543-1926,http://www.joboysbrewpub.com,7175688330,2018-07-24 01:34:11.152428,2018-08-24 16:09:38.69572,United States,-76.3061545,40.1571224,
locust-lane-craft-brewery,Locust Lane Craft Brewery,micro,50 Three Tun Rd Ste 4,Malvern,Pennsylvania,19355-3988,http://www.locustlanecraftbrewery.com,4843244141,2018-07-24 01:34:11.404425,2018-08-11 21:39:28.516048,United States,,,
mckenzie-brew-house-#2,McKenzie Brew House (#2),brewpub,240 Lancaster Ave,Malvern,Pennsylvania,19355-1802,http://www.mckenziebrewhouse.com,6102962222,2018-07-24 01:34:11.584536,2018-08-11 21:39:28.894208,United States,,,
divine-swine-bbq,Divine Swine BBQ,brewpub,2684 Lebanon Rd,Manheim,Pennsylvania,17545-9524,http://www.divine-swine-bbq.com,7178799494,2018-07-24 01:34:10.229947,2018-08-11 21:39:25.834268,United States,,,
swashbuckler-brewing-co,Swashbuckler Brewing Co,micro,2775 Lebanon Rd,Manheim,Pennsylvania,17545-8711,http://www.parenfaire.com,7176657021,2018-07-24 01:34:12.945705,2018-08-11 21:39:32.071969,United States,,,
yorkholo-brewing-co,Yorkholo Brewing Co,brewpub,19 N Main St,Mansfield,Pennsylvania,16933-1403,http://www.yorkholobrewing.com,5704045805,2018-07-24 01:34:13.605008,2018-08-24 16:13:29.644436,United States,-77.0783870740995,41.8075850858057,
pig-iron-brewing-co,Pig Iron Brewing Co,brewpub,40 E Front St,Marietta,Pennsylvania,17547-1538,http://www.pigironbrewingco.com,7176041161,2018-07-24 01:34:12.012577,2018-08-24 16:11:02.731951,United States,-76.5531728320746,40.0556937167496,
stick-city-brewing-company,Stick City Brewing Company,micro,109 Irvine ST,Mars,Pennsylvania,16046-0372,http://www.stickcitybeer.com,7247897849,2018-07-24 01:34:12.819067,2018-08-24 16:12:12.782604,United States,-80.0095235,40.69553485,
412-brews,412 Brews,brewpub,706 Island Ave,Mc Kees Rocks,Pennsylvania,15136-3287,http://www.412brews.com,,2018-07-24 01:34:08.622854,2018-08-11 21:39:21.650596,United States,,,
abjuration-brewing,Abjuration Brewing,micro,644 Broadway Ave,Mc Kees Rocks,Pennsylvania,15136-3008,http://www.abjurationbrewing.com,4127661668,2018-07-24 01:34:08.636218,2018-08-11 21:39:21.697205,United States,,,
voodoo-brewing-co,Voodoo Brewing Co,brewpub,215 1/2 Arch St,Meadville,Pennsylvania,16335-3432,http://www.voodoobrewery.com,8143373676,2018-07-24 01:34:13.392081,2018-08-24 16:13:08.235898,United States,-80.154209,41.637124,
timber-creek-tap-and-table,Timber Creek Tap & Table,brewpub,11191 Highline Dr,Meadville,Pennsylvania,16335-6589,http://www.timbercreektapandtable.com,8148071005,2018-07-24 01:34:13.143131,2018-08-11 21:39:32.518045,United States,,,
voodoo-brewing-production-facility,Voodoo Brewing Production Facility,brewpub,834 Bessemer St,Meadville,Pennsylvania,16335,,8143339123,2018-07-24 01:34:13.405619,2018-08-24 16:13:09.73322,United States,-80.1561021666667,41.6461046666667,
appalachian-brewing-co-mechanicsburg,Appalachian Brewing Co - Mechanicsburg,brewpub,6462 Carlisle Pike,Mechanicsburg,Pennsylvania,17050-2384,http://www.abcbrew.com,7177954660,2018-07-24 01:34:08.782784,2018-08-11 21:39:22.26694,United States,,,
brewery-in-planning-marysville,Brewery In Planning - Marysville,planning,,Mechanicsburg,Pennsylvania,17050,http://www.mellowmink.com,7176937687,2018-07-24 01:34:09.446809,2018-08-11 21:39:23.918114,United States,,,
harty-brewing-company,Harty Brewing Company,brewpub,146 Walden Way,Mechanicsburg,Pennsylvania,17050-4105,http://www.hartybrewco.com,,2018-07-24 01:34:10.756308,2018-08-11 21:39:26.998155,United States,,,
iron-hill-brewery-and-restaurant-media,Iron Hill Brewery & Restaurant - Media,brewpub,30 E State Street,Media,Pennsylvania,19063-2904,http://www.ironhillbrewery.com,6106279000,2018-07-24 01:34:11.049021,2018-08-24 16:09:26.636421,United States,-75.3883184729763,39.9174642,
sterling-pig-brewery,Sterling Pig Brewery,brewpub,609 W State St,Media,Pennsylvania,19063-2641,http://www.sterlingpigbrewery.com,4844442526,2018-07-24 01:34:12.804692,2018-08-24 16:12:11.272984,United States,-75.3949477,39.918688,
the-barley-house-brewing-company-llc,The Barley House Brewing Company LLC,brewpub,8399 Sharon Mercer Rd,Mercer,Pennsylvania,16137,http://www.barleyhousebrewing.com,7242697837,2018-07-24 01:34:12.994316,2018-08-24 16:12:30.939261,United States,-80.265315,41.225933,
the-brewery-at-hershey,The Brewery At Hershey,micro,598 Schoolhouse Rd,Middletown,Pennsylvania,17057-4029,http://www.vineyardathershey.com,7179441569,2018-07-24 01:34:13.008526,2018-08-11 21:39:32.218546,United States,,,
tattered-flag-brewery,Tattered Flag Brewery,brewpub,1 S Union St,Middletown,Pennsylvania,17057-1446,http://www.tatteredflagbsw.com,7176168799,2018-07-24 01:34:12.969654,2018-08-24 16:12:28.018949,United States,-76.731309,40.194934,
rusty-rail-brewing,Rusty Rail Brewing,brewpub,5 N 8th St Ste 1,Mifflinburg,Pennsylvania,17844-1003,http://www.rustyrailbrewing.com,5709667878,2018-07-24 01:34:12.454874,2018-08-11 21:39:30.894408,United States,,,
hidden-stories-brewing-company,Hidden Stories Brewing Company,planning,,Millerstown,Pennsylvania,17062-8474,,6465524847,2018-07-24 01:34:10.831113,2018-08-11 21:39:27.160064,United States,,,
elk-creek-cafe-aleworks,Elk Creek Cafe + Aleworks,brewpub,100 W Main St,Millheim,Pennsylvania,16854,http://www.elkcreekcafe.net,8143498850,2018-07-24 01:34:10.403228,2018-08-24 16:08:25.488762,United States,-77.4769462270841,40.8911574,
rivertowne-pour-house,Rivertowne Pour House,micro,312 Center Rd,Monroeville,Pennsylvania,15146-1322,http://www.myrivertowne.com,4123728199,2018-07-24 01:34:12.241684,2018-08-24 16:11:25.204103,United States,-79.7638979257406,40.4474573147353,
2-dogz-and-a-guy-brewing,2 Dogz and A Guy Brewing,micro,228 Church St,Montrose,Pennsylvania,18801-1271,http://2dogzandaguybrewing.com,5704320069,2018-07-24 01:34:08.577115,2018-08-24 16:06:00.754311,United States,-75.8800318,41.8336364,
endless-brewing,Endless Brewing,micro,20610 Pa-29,Montrose,Pennsylvania,18801,http://www.endlessbrewing.com,5709670985,2018-07-24 01:34:10.418912,2018-08-11 21:39:26.261889,United States,,,
vault-brewing-co,Vault Brewing Co,brewpub,10 S Main St,Morrisville,Pennsylvania,19067-1511,http://www.vaultbrewing.com,2675734291,2018-07-24 01:34:13.340536,2018-08-11 21:39:33.02191,United States,,,
curran-brewing-co,Curran Brewing Co,micro,6230 Bloomington Rd,Moscow,Pennsylvania,18444-6634,http://www.curranbrewing.com,5707959490,2018-07-24 01:34:10.100803,2018-08-11 21:39:25.57116,United States,,,
bubes-brewery,Bubes Brewery,brewpub,102 N Market St,Mount Joy,Pennsylvania,17552-1306,http://www.bubesbrewery.com,7176532056,2018-07-24 01:34:09.585303,2018-08-24 16:07:11.606527,United States,-76.5029015230525,40.111807623211,
twisted-bine-beer-co,Twisted Bine Beer Co.,planning,,Mount Joy,Pennsylvania,17552-1424,,7179178577,2018-07-24 01:34:13.289663,2018-08-11 21:39:32.898335,United States,,,
helltown-brewing,Helltown Brewing,micro,13 Henry C Frick St,Mount Pleasant,Pennsylvania,15666-1343,http://www.helltownbrewing.com,7245424339,2018-07-24 01:34:10.787902,2018-08-11 21:39:27.065498,United States,,,
birthright-brewing-co,Birthright Brewing Co.,brewpub,57 S Main St,Nazareth,Pennsylvania,18064-2037,http://www.birthrightbrewingco.com,6103652225,2018-07-24 01:34:08.99923,2018-08-24 16:06:40.068754,United States,-75.3122457910135,40.7421136538505,
petrucci-brothers-brewing-co,Petrucci Brothers Brewing Co,micro,911 5th Ave,New Brighton,Pennsylvania,15066-1923,http://www.petruccibrothers.com,7249872579,2018-07-24 01:34:11.983464,2018-08-24 16:10:59.680831,United States,-80.3119013356857,40.7347750382959,
cr-brewing-company,CR Brewing Company,brewpub,3009 Wilmington Rd,New Castle,Pennsylvania,16105,http://www.crbrewingcompany.com,4122987053,2018-07-24 01:34:09.971481,2018-08-24 16:07:52.584246,United States,-80.3493196,41.0103937,
gunpowder-falls-brewing-co,Gunpowder Falls Brewing Co,micro,15556 Elm Dr,New Freedom,Pennsylvania,17349-9344,http://www.gunpowderfallsbrewing.com,7177590330,2018-07-24 01:34:10.727768,2018-08-11 21:39:26.945504,United States,,,
great-barn-brewery,Great Barn Brewery,micro,12 W Mechanic St,New Hope,Pennsylvania,18938,http://www.greatbarnbrewery.com,,2018-07-24 01:34:10.693311,2018-08-24 16:08:52.985289,United States,-74.9507767455011,40.3619958505527,
triumph-brewing-co-of-new-hope,Triumph Brewing Co of New Hope,brewpub,400 Union Square Dr,New Hope,Pennsylvania,18938-1367,http://www.triumphbrew.com,2158628300,2018-07-24 01:34:13.223458,2018-08-11 21:39:32.710949,United States,,,
conny-creek-brewing-co,Conny Creek Brewing Co,micro,4323 Shearsburg Rd,New Kensington,Pennsylvania,15068-6845,http://www.facebook.com/ConnyCreekBrewing/,,2018-07-24 01:34:09.86128,2018-08-11 21:39:25.111734,United States,,,
sobels-obscure-brewery-llc,"Sobel's Obscure Brewery, LLC",contract,954 Arona Rd,New Stanton,Pennsylvania,15672-1109,http://www.Sobbrews.com,4125251553,2018-07-24 01:34:12.652249,2018-08-11 21:39:31.35548,United States,,,
jam-room-brewing-co,Jam Room Brewing Co,micro,875 Main St,Newfoundland,Pennsylvania,18445-5210,http://www.jamroombrewing.net,5702526122,2018-07-24 01:34:11.126554,2018-08-24 16:09:35.755638,United States,-75.324159716456,41.3014372011081,
river-bend-hop-farm-and-brewery,River Bend Hop Farm And Brewery,micro,1800 Lower Bailey Rd,Newport,Pennsylvania,17074-7622,http://www.riverbendhopfarmandbrewery.com,7173156764,2018-07-24 01:34:12.212496,2018-08-11 21:39:30.326156,United States,,,
arundel-cellars-and-brewing-co,Arundel Cellars & Brewing Co,brewpub,11727 E Main Rd,North East,Pennsylvania,16428-3635,http://www.arundelcellars.com,8147251079,2018-07-24 01:34:08.796725,2018-08-24 16:06:22.583635,United States,-79.8216539,42.2195527,
full-pint-brewing-company,Full Pint Brewing Company,micro,1963 Lincoln Hwy,North Versailles,Pennsylvania,15137-2749,http://fullpintbrewing.com,4124676414,2018-07-24 01:34:10.588992,2018-08-24 16:08:43.615289,United States,-79.8261204,40.385971,
iron-hill-brewery-and-restaurant-north-wales,Iron Hill Brewery & Restaurant - North Wales,brewpub,1460 Bethlehem Pike,North Wales,Pennsylvania,19454-2159,http://www.ironhillbrewery.com,2677082000,2018-07-24 01:34:11.063606,2018-08-11 21:39:27.685113,United States,,,
helicon-brewing,Helicon Brewing,micro,102 Union Ave,Oakdale,Pennsylvania,15071-1328,http://heliconbrewing.com,7246934204,2018-07-24 01:34:10.771633,2018-08-24 16:08:58.845043,United States,-80.184716700234,40.3962869475081,
knurd-brewing-co,KNURD Brewing Co,planning,,Oakmont,Pennsylvania,15139-2171,http://www.knurdbrewing.com,3045509439,2018-07-24 01:34:11.216154,2018-08-11 21:39:28.050194,United States,,,
hollow-earth-brewing-co,Hollow Earth Brewing Co,brewpub,19 N 3rd St,Oxford,Pennsylvania,19363-1423,http://www.HollowEarthBrewing.com,6107323959,2018-07-24 01:34:10.895647,2018-08-24 16:09:10.879947,United States,-75.9785765609616,39.785861818585,
bog-turtle-brewery-llc,"Bog Turtle Brewery, LLC",micro,14 S 3rd St Ste 1,Oxford,Pennsylvania,19363-1601,http://www.bogturtlebrewery.com,4847580416,2018-07-24 01:34:09.100838,2018-08-11 21:39:23.194451,United States,,,
mount-gretna-craft-brewery,Mount Gretna Craft Brewery,micro,2701 Horseshoe Pike,Palmyra,Pennsylvania,17078-8949,http://www.gretnabrewery.com,7178383545,2018-07-24 01:34:11.752633,2018-08-11 21:39:29.252814,United States,,,
victory-brewing-co,Victory Brewing Co,regional,3127 Lower Valley Rd,Parkesburg,Pennsylvania,19365-9617,http://www.victorybeer.com,6108730881,2018-07-24 01:34:13.353213,2018-08-11 21:39:33.053014,United States,,,
ritter-brewing-company-llc,Ritter Brewing Company LLC,micro,449 Gino Merli Dr,Peckville,Pennsylvania,18452-1631,http://www.Ritterbrewing.com,,2018-07-24 01:34:12.179867,2018-08-11 21:39:30.270268,United States,,,
free-will-brewing-company,Free Will Brewing Company,micro,410 E Walnut St Ste 10,Perkasie,Pennsylvania,18944-1683,http://www.freewillbrewing.com,2673540813,2018-07-24 01:34:10.573935,2018-08-11 21:39:26.601804,United States,,,
earth-bread-brewery,Earth Bread + Brewery,brewpub,7136 Germantown Ave,Philadelphia,Pennsylvania,19119-1843,http://www.earthbreadbrewery.com,2152426666,2018-07-24 01:34:10.329774,2018-08-24 16:08:19.58089,United States,-75.1903546,40.0591996,
2nd-story-brewing-company,2nd Story Brewing Company,brewpub,117 Chestnut St Frnt,Philadelphia,Pennsylvania,19106-4700,http://www.2ndstorybrewing.com/,2673145770,2018-07-24 01:34:08.595952,2018-08-11 21:39:21.556457,United States,,,
attic-brewing,Attic Brewing,planning,,Philadelphia,Pennsylvania,19144-3603,,7082047376,2018-07-24 01:34:08.823678,2018-08-11 21:39:22.381296,United States,,,
brewery-ars,Brewery ARS,micro,1927-29 W Passyunk Ave,Philadelphia,Pennsylvania,19145-3620,http://breweryars.com,2159605173,2018-07-24 01:34:09.29472,2018-08-11 21:39:23.663594,United States,,,
bar-hygge-/-brewery-techne,Bar Hygge / Brewery Techne,brewpub,1720 Fairmount Ave,Philadelphia,Pennsylvania,19130-2858,,,2018-07-24 01:34:08.867339,2018-08-24 16:06:27.154702,United States,-75.1656730204082,39.9670728571429,
brewery-in-planning-philadelphia,Brewery in Planning - Philadelphia,planning,,Philadelphia,Pennsylvania,19148-,http://www.cartesianbrewing.com,,2018-07-24 01:34:09.460128,2018-08-11 21:39:23.956877,United States,,,
brewery-in-planning-philadelphia,Brewery In Planning - Philadelphia,planning,,Philadelphia,Pennsylvania,19125-2822,,2155146630,2018-07-24 01:34:09.474065,2018-08-11 21:39:23.987683,United States,,,
crime-and-punishment-brewing-company,Crime & Punishment Brewing Company,brewpub,2711 W Girard Ave,Philadelphia,Pennsylvania,19130-1212,http://www.crimeandpunishmentbrewery.com,2152352739,2018-07-24 01:34:09.984414,2018-08-24 16:07:54.031935,United States,-75.1808422,39.9743646,
dock-street-brewery,Dock Street Brewery,brewpub,701 S 50th St Fl 1,Philadelphia,Pennsylvania,19143-1689,http://www.dockstreetbeer.com,2157262337,2018-07-24 01:34:10.261469,2018-08-11 21:39:25.91203,United States,,,
dock-street-brewing-co,Dock Street Brewing Co,planning,,Philadelphia,Pennsylvania,19146,,,2018-07-24 01:34:10.274476,2018-08-11 21:39:25.949932,United States,,,
evil-genius-beer-co,Evil Genius Beer Co,micro,1727 N Front St,Philadelphia,Pennsylvania,19122-3203,http://www.evilgeniusbeer.com,2154256820,2018-07-24 01:34:10.477394,2018-08-24 16:08:31.51711,United States,-75.134015609062,39.9757801778721,
fermentery-form,Fermentery Form,micro,161 Cecil B Moore Ave,Philadelphia,Pennsylvania,19122-3234,http://www.fermenteryform.com,2675183676,2018-07-24 01:34:10.504907,2018-08-24 16:08:34.529783,United States,-75.136886,39.976092,
fishtown-brewing-co,Fishtown Brewing Co,brewpub,1101 Frankford Ave,Philadelphia,Pennsylvania,19125-4153,http://fishtownbrewpub.com,2159901396,2018-07-24 01:34:10.532465,2018-08-24 16:08:37.520637,United States,-75.0159588,40.0460129,
goose-island-philadelphia,Goose Island Philadelphia,brewpub,1002 Canal St,Philadelphia,Pennsylvania,19123,,,2018-07-24 01:34:10.669091,2018-08-24 16:08:51.149085,United States,-75.1350634081633,39.9648491020408,
kensington-barrel-project,Kensington Barrel Project,planning,,Philadelphia,Pennsylvania,19134,http://www.kensingtonbarrelproject.com,16199488705,2018-07-24 01:34:11.20172,2018-08-11 21:39:28.021349,United States,,,
iron-hill-brewery-and-restaurant-chestnut-hill,Iron Hill Brewery & Restaurant - Chestnut Hill,brewpub,8400 Germantown Ave,Philadelphia,Pennsylvania,19118-3328,http://www.ironhillbrewery.com,2159485600,2018-07-24 01:34:11.010667,2018-08-24 16:09:21.614027,United States,-75.205095,40.075132,
love-city-brewing-company,Love City Brewing Company,micro,1016 Buttonwood St,Philadelphia,Pennsylvania,19123-3703,http://www.lovecitybrewing.com,,2018-07-24 01:34:11.447652,2018-08-24 16:10:03.88351,United States,-75.1550941428571,39.9606778163265,
manayunk-brewing-co-and-restaurant,Manayunk Brewing Co & Restaurant,brewpub,4120 Main St,Philadelphia,Pennsylvania,19127-1618,http://www.manayunkbrewery.com,2154828220,2018-07-24 01:34:11.51311,2018-08-24 16:10:11.413564,United States,-75.2189308,40.0223235,
philadelphia-brewing-co,Philadelphia Brewing Co,micro,2423 Amber St,Philadelphia,Pennsylvania,19125-1606,http://www.philadelphiabrewing.com,2154272739,2018-07-24 01:34:11.997028,2018-08-24 16:11:01.196987,United States,-75.1276999090909,39.9828273636364,
point-breeze-brewing,Point Breeze Brewing,micro,1225 S 28th St,Philadelphia,Pennsylvania,19146-,http://www.pointbreezebrewing.com,,2018-07-24 01:34:12.078362,2018-08-24 16:11:08.596429,United States,-75.1900898,39.9382866,
saint-benjamin-brewing-co,Saint Benjamin Brewing Co,micro,1710 N 5th St,Philadelphia,Pennsylvania,19122-2909,,,2018-07-24 01:34:12.467207,2018-08-24 16:11:43.054198,United States,-75.1475016,39.9562965,
second-district-brewing-co,Second District Brewing Co.,brewpub,1939 S. Bancroft St.,Philadelphia,Pennsylvania,19145,http://seconddistrictbrewing.com,2155755900,2018-07-24 01:34:12.521917,2018-08-24 16:11:48.899961,United States,-75.172973244898,39.9267958367347,
urban-village-brewing-company,Urban Village Brewing Company,brewpub,1001 N 2nd St,Philadelphia,Pennsylvania,19123-1612,http://www.urbanvillagebrewing.com,2676871961,2018-07-24 01:34:13.327544,2018-08-24 16:13:02.089866,United States,-75.1400237,39.9662701,
wissahickon-brewing-company,Wissahickon Brewing Company,micro,3705 W School House Ln,Philadelphia,Pennsylvania,19129-1738,http://www.wissahickonbrew.com,2154838833,2018-07-24 01:34:13.522791,2018-08-24 16:13:21.883682,United States,-75.2004703333333,40.013655,
yards-brewing-co,Yards Brewing Co,regional,901 N Delaware Ave,Philadelphia,Pennsylvania,19123-3110,http://www.yardsbrewing.com,2156342600,2018-07-24 01:34:13.563853,2018-08-24 16:13:25.088257,United States,-75.1324016,39.9655175,
crowded-castle-brewing-co-inc,Crowded Castle Brewing Co. Inc.,brewpub,242 Bridge St,Phoenixville,Pennsylvania,19460-3450,http://www.crowdedcastle.com,4842520077,2018-07-24 01:34:10.06467,2018-08-24 16:07:58.623503,United States,-75.5176281428571,40.1337041428571,
iron-hill-brewery-and-restaurant-phoenixville,Iron Hill Brewery & Restaurant - Phoenixville,brewpub,130 Bridge St,Phoenixville,Pennsylvania,19460-3448,http://www.ironhillbrewery.com,6109839333,2018-07-24 01:34:11.076993,2018-08-24 16:09:29.651022,United States,-75.51335,40.13418,
sly-fox-brewhouse-and-eatery,Sly Fox Brewhouse and Eatery,micro,520 Kimberton Rd Pikeland Village Square,Phoenixville,Pennsylvania,19460-4737,http://www.slyfoxbeer.com,6109354540,2018-07-24 01:34:12.61482,2018-08-11 21:39:31.269494,United States,,,
root-down-brewing-company,Root Down Brewing Company,brewpub,1 N Main St,Phoenixville,Pennsylvania,19460-3419,http://www.rootdownbrewing.com,4843932337,2018-07-24 01:34:12.333538,2018-08-24 16:11:31.087525,United States,-75.515616,40.137147,
stable-12-brewing-company,Stable 12 Brewing Company,brewpub,368 Bridge St,Phoenixville,Pennsylvania,19460-3358,http://www.stable12.com,,2018-07-24 01:34:12.779021,2018-08-24 16:12:09.771505,United States,-75.5195231,40.1335808,
bucks-county-brewery,Bucks County Brewery,micro,31 Appletree Ln,Pipersville,Pennsylvania,18947-1083,http://www.buckscountybrewery.com,6094392468,2018-07-24 01:34:09.599398,2018-08-11 21:39:24.330017,United States,,,
allegheny-city-brewing,Allegheny City Brewing,micro,507 Foreland St,Pittsburgh,Pennsylvania,15212-4910,http://www.alleghenycitybrewing.com,4129043732,2018-07-24 01:34:08.67521,2018-08-24 16:06:09.640176,United States,-80.0006107346519,40.454249330209,
couch-brewery,Couch Brewery,micro,1351 Washington Blvd,Pittsburgh,Pennsylvania,15206-1801,http://www.couchbrewery.com,4124411724,2018-07-24 01:34:09.941572,2018-08-24 16:07:49.623262,United States,-79.9090141,40.4695304,
hofbrauhaus-pittsburgh,Hofbrauhaus Pittsburgh,brewpub,2705 S Water St,Pittsburgh,Pennsylvania,15203,http://www.hofbrauhauspittsburgh.com,4122242328,2018-07-24 01:34:10.882479,2018-08-24 16:09:09.168298,United States,-79.9639442,40.4279919,
pennsylvania-brewing-co,Pennsylvania Brewing Co,micro,800 Vinial St,Pittsburgh,Pennsylvania,15212-5151,http://www.pennbrew.com,4122379402,2018-07-24 01:34:11.958862,2018-08-24 16:10:58.189349,United States,-79.9916372219515,40.457132,
copper-kettle-brewing-co,Copper Kettle Brewing Co,micro,557 Greenfield Ave,Pittsburgh,Pennsylvania,15207-1093,,,2018-07-24 01:34:09.914643,2018-08-24 16:07:46.643113,United States,-79.9404082589853,40.426118665802,
bayonet-cider-company,Bayonet Cider Company,planning,,Pittsburgh,Pennsylvania,15206-5111,,5134841943,2018-07-24 01:34:08.910952,2018-08-11 21:39:22.688364,United States,,,
aurochs-brewing-company,Aurochs Brewing Company,micro,8321 Ohio River Blvd,Pittsburgh,Pennsylvania,15202-1451,,7242608737,2018-07-24 01:34:08.836782,2018-08-24 16:06:25.638197,United States,-80.0221567,40.4488158,
church-brew-works/lawrenceville-brewery-inc,Church Brew Works/Lawrenceville Brewery Inc.,brewpub,3525 Liberty Ave,Pittsburgh,Pennsylvania,15201-1324,http://www.churchbrew.com,4126888200,2018-07-24 01:34:09.749027,2018-08-24 16:07:27.27617,United States,-79.9643613,40.4620769,
cinderlands-beer-co,Cinderlands Beer Co.,brewpub,3705 Butler St,Pittsburgh,Pennsylvania,15201-1819,http://www.cinderlands.com,4122510656,2018-07-24 01:34:09.763356,2018-08-24 16:07:29.113559,United States,-79.9224894,40.4884044,
costar-brewing-inc,CoStar Brewing Inc.,micro,919 N Saint Clair St,Pittsburgh,Pennsylvania,15206-2133,,,2018-07-24 01:34:09.928602,2018-08-24 16:07:48.130124,United States,-79.9232026,40.4726062,
dancing-gnome-beer,Dancing Gnome Beer,micro,925 Main St,Pittsburgh,Pennsylvania,15215-2301,http://www.dancinggnomebeer.com,4124082083,2018-07-24 01:34:10.147225,2018-08-24 16:08:06.065415,United States,-79.8411685918367,40.3986205102041,
grist-house-craft-brewery,Grist House Craft Brewery,micro,10 Sherman St,Pittsburgh,Pennsylvania,15209-2728,http://www.gristhouse.com,4124471442,2018-07-24 01:34:10.706591,2018-08-11 21:39:26.90763,United States,,,
duquesne-brewing-of-pittsburgh,Duquesne Brewing of Pittsburgh,contract,932 W North Ave,Pittsburgh,Pennsylvania,15233-1606,,4128312779,2018-07-24 01:34:10.316395,2018-08-24 16:08:18.131648,United States,-80.0179069090485,40.453467547885,
east-end-brewing-co,East End Brewing Co,micro,147 Julius St,Pittsburgh,Pennsylvania,15206,http://www.eastendbrewing.com,4125372337,2018-07-24 01:34:10.358507,2018-08-24 16:08:22.529482,United States,-79.9116269587993,40.4589113721929,
eleventh-hour-brewing-co,Eleventh Hour Brewing Co,micro,3711 Charlotte St,Pittsburgh,Pennsylvania,15201-3201,http://www.11thhourbrews.com,4127165107,2018-07-24 01:34:10.387993,2018-08-24 16:08:23.989367,United States,-79.965533165784,40.4668040264767,
hitchhiker-brewing-co,Hitchhiker Brewing Co.,brewpub,190 Castle Shannon Blvd,Pittsburgh,Pennsylvania,15228-2267,http://www.hitchhikerbrewing.com,4123431950,2018-07-24 01:34:10.869666,2018-08-11 21:39:27.249916,United States,,,
lincoln-avenue-brewery,Lincoln Avenue Brewery,planning,,Pittsburgh,Pennsylvania,15202,,4124274078,2018-07-24 01:34:11.342101,2018-08-11 21:39:28.349308,United States,,,
links-brewing-company,Links Brewing Company,planning,,Pittsburgh,Pennsylvania,15212,,4123239774,2018-07-24 01:34:11.366381,2018-08-11 21:39:28.415947,United States,,,
hop-farm-brewing-co,Hop Farm Brewing Co,micro,5601 Butler St,Pittsburgh,Pennsylvania,15201-2326,,,2018-07-24 01:34:10.921467,2018-08-24 16:09:12.419217,United States,-79.9224894,40.4884044,
pittsburgh-brewing-co,Pittsburgh Brewing Co,contract,3340 Liberty Ave,Pittsburgh,Pennsylvania,15201-1394,http://www.pittsburghbrewing.com,4126827400,2018-07-24 01:34:12.039393,2018-08-24 16:11:04.274998,United States,-79.9657026122449,40.461612877551,
spoonwood-brewing-company,Spoonwood Brewing Company,brewpub,5981 Baptist Rd,Pittsburgh,Pennsylvania,15236-3303,http://www.spoonwoodbrewing.com,4128330333,2018-07-24 01:34:12.703527,2018-08-11 21:39:31.488248,United States,,,
roundabout-brewery,Roundabout Brewery,micro,4901 Butler St,Pittsburgh,Pennsylvania,15201-2718,http://roundaboutbeer.com,4126210540,2018-07-24 01:34:12.380932,2018-08-24 16:11:35.532799,United States,-79.956943,40.477161,
southern-tier-brewing-co,Southern Tier Brewing Co,brewpub,316 N Shore Dr,Pittsburgh,Pennsylvania,15212-5870,http://www.stbcbeer.com,4123012337,2018-07-24 01:34:12.690218,2018-08-24 16:12:03.789764,United States,-80.008595,40.4464115,
strange-roots-experimental-ales,Strange Roots Experimental Ales,micro,501 E Ohio St,Pittsburgh,Pennsylvania,15209-2671,http://www.strangerootsbeer.com,4124072506,2018-07-24 01:34:12.880465,2018-08-24 16:12:18.934725,United States,-79.9951469,40.4546063,
national-beer-museum-development-group,National Beer Museum Development Group,planning,,Pittsburgh,Pennsylvania,15212,http://www.BrewMuseum.com,4123983236,2018-07-24 01:34:11.791502,2018-08-11 21:39:29.333329,United States,,,
rooneys-beer-company,Rooney's Beer Company,micro,800 Vinial St Ste B204,Pittsburgh,Pennsylvania,15212-5151,http://rooneysbeer.com,4122515995,2018-07-24 01:34:12.316677,2018-08-11 21:39:30.618359,United States,,,
susquehanna-brewing-co,Susquehanna Brewing Co,micro,635 S Main St,Pittston,Pennsylvania,18640-3215,http://www.sbcbeer.com,5706543557,2018-07-24 01:34:12.933045,2018-08-24 16:12:25.031998,United States,-75.7912216,41.321577,
black-wolf-brewing-llc,Black Wolf Brewing LLC,planning,,Pocono Pines,Pennsylvania,18350,,,2018-07-24 01:34:09.02816,2018-08-11 21:39:22.979437,United States,,,
sly-fox-brewing-co,Sly Fox Brewing Co,regional,331 Circle of Progress Dr,Pottstown,Pennsylvania,19464-3811,http://www.slyfoxbeer.com,4845248210,2018-07-24 01:34:12.627102,2018-08-24 16:11:57.763562,United States,-75.6663231408364,40.2633892683431,
d-g-yuengling-and-son-inc,D. G. Yuengling and Son Inc,regional,500 Mahantongo St,Pottsville,Pennsylvania,17901,http://www.yuengling.com,5706224141,2018-07-24 01:34:10.114535,2018-08-24 16:08:03.070965,United States,-76.198585,40.682674,
d-g-yuengling-and-son-inc,D. G. Yuengling and Son Inc,regional,310 Mill Creek Ave,Pottsville,Pennsylvania,17901-8692,http://www.yuengling.com,2156319461,2018-07-24 01:34:10.131113,2018-08-24 16:08:04.547903,United States,-76.1832368,40.6982044,
brew-32,Brew 32,brewpub,1474 State Route 208,Pulaski,Pennsylvania,16143-4308,http://Www.brew32craft.com,7242528464,2018-07-24 01:34:09.241206,2018-08-11 21:39:23.521644,United States,,,
trolley-barn-brewery,Trolley Barn Brewery,planning,,Quakertown,Pennsylvania,18951,http://www.trolleybarnpublicmarket.com,2154998959,2018-07-24 01:34:13.250022,2018-08-11 21:39:32.796313,United States,,,
the-proper-brewing-company,The Proper Brewing Company,brewpub,117 W Broad St,Quakertown,Pennsylvania,18951-1200,http://www.theproperbrewing.com,2674905168,2018-07-24 01:34:13.103743,2018-08-24 16:12:41.263679,United States,-75.3413743667511,40.4417752286715,
oakbrook-brewing-company,Oakbrook Brewing Company,brewpub,628 Park Ave,Reading,Pennsylvania,19611-1926,http://www.oakbrookbrew.com,4847555289,2018-07-24 01:34:11.881361,2018-08-24 16:10:48.831696,United States,-75.9347891875,40.3168494375,
missing-links-brewery,Missing Links Brewery,brewpub,891 Evans City Rd,Renfrew,Pennsylvania,16053-9209,http://www.missinglinksbrewery.com,7249962948,2018-07-24 01:34:11.682898,2018-08-11 21:39:29.118324,United States,,,
brixton-brewing,Brixton Brewing,brewpub,165 Brighton Ave,Rochester,Pennsylvania,15074-2203,http://www.brixtonbrewing.com,7247282227,2018-07-24 01:34:09.544303,2018-08-24 16:07:06.979303,United States,-80.2828549,40.70091875,
stickman-brews,Stickman Brews,micro,326 N Lewis Rd # 240,Royersford,Pennsylvania,19468-1509,http://www.stickmanbrews.com,4849385900,2018-07-24 01:34:12.831464,2018-08-24 16:12:14.338846,United States,-75.5375546362096,40.2000605952624,
straub-brewery,Straub Brewery,regional,303 Sorg St,Saint Marys,Pennsylvania,15857-1592,http://www.straubbeer.com,8143356518,2018-07-24 01:34:12.907556,2018-08-24 16:12:23.486971,United States,-78.5535282090677,41.4258662236782,
cellar-works-brewing-co,Cellar Works Brewing Co.,micro,110 S Pike Rd Ste 205,Sarver,Pennsylvania,16055-9682,http://www.cellarworksbrewing.com,7245242120,2018-07-24 01:34:09.70418,2018-08-11 21:39:24.622741,United States,,,
bluestone-brewing-company,Bluestone Brewing Company,brewpub,18 Pitney St,Sayre,Pennsylvania,18840-2720,http://www.bluestonebrewingcompany.com,5707310222,2018-07-24 01:34:09.085886,2018-08-24 16:06:47.891051,United States,-76.5450877647059,41.9922292941176,
spring-mountain-brewing-company,Spring Mountain Brewing Company,planning,,Schwenksville,Pennsylvania,19473-1811,,,2018-07-24 01:34:12.765494,2018-08-11 21:39:31.617541,United States,,,
selins-grove-brewing-co,Selins Grove Brewing Co,brewpub,119 N Market St,Selinsgrove,Pennsylvania,17870-1905,http://www.selinsgrovebrewing.com,5703747308,2018-07-24 01:34:12.535924,2018-08-24 16:11:50.364952,United States,-76.8615297931946,40.8005695222946,
covered-bridge-brewhaus-taproom,Covered Bridge Brewhaus Taproom,micro,506 N 8th St,Shamokin,Pennsylvania,17872-5302,http://squareup.com/store/covered-bridge-brewhaus,5702054867,2018-07-24 01:34:09.957654,2018-08-24 16:07:51.088563,United States,-76.5568208393969,40.7907603702511,
brewtus-brewing-co,Brewtus Brewing Co,micro,23 Chestnut Ave,Sharon,Pennsylvania,16146-,http://www.brewtusbrewing.com,7243086293,2018-07-24 01:34:09.528705,2018-08-24 16:07:05.49025,United States,-80.5074993646832,41.2326788756257,
shawnee-craft-brewery,Shawnee Craft Brewery,brewpub,1 River Rd,Shawnee on Delaware,Pennsylvania,18356,,5704244000,2018-07-24 01:34:12.57391,2018-08-24 16:11:51.850307,United States,-75.1107249,41.0118539,
north-country-canning-co,North Country Canning Co,micro,111 Arrowhead Dr Ste B,Slippery Rock,Pennsylvania,16057-2667,,7247942337,2018-07-24 01:34:11.86879,2018-08-11 21:39:29.514152,United States,,,
north-country-brewing-co-llc,North Country Brewing Co. LLC,micro,141 S Main St,Slippery Rock,Pennsylvania,16057-1246,http://www.northcountrybrewing.com,7247942337,2018-07-24 01:34:11.85646,2018-08-24 16:10:45.848206,United States,-80.0556628698963,41.0634559915871,
jones-brewing-co,Jones Brewing Co,contract,254 Second Street,Smithton,Pennsylvania,15479-0746,http://www.stoneysbeer.com,,2018-07-24 01:34:11.164931,2018-08-11 21:39:27.921806,United States,,,
tuned-up-brewing-company,Tuned Up Brewing Company,micro,135 N Main St,Spring City,Pennsylvania,19475-1874,,6103063182,2018-07-24 01:34:13.263149,2018-08-24 16:12:56.152519,United States,-75.5475216265687,40.1799027858692,
buon-appetito-ristorante,Buon Appetito Ristorante,brewpub,6147 York Rd,Spring Grove,Pennsylvania,17362-9120,http://www.buon-appetito-ristorante.com,7172250666,2018-07-24 01:34:09.641537,2018-08-11 21:39:24.474046,United States,,,
leaning-cask-brewing-co,Leaning Cask Brewing Co,micro,850 Pittsburgh St,Springdale,Pennsylvania,15144-1623,http://www.leaningcaskbrewing.com,7247157539,2018-07-24 01:34:11.293786,2018-08-24 16:09:52.349514,United States,-79.7784404441805,40.541266550239,
happy-valley-brewing-company,Happy Valley Brewing Company,brewpub,137 Elmwood St,State College,Pennsylvania,16801-6851,,,2018-07-24 01:34:10.741161,2018-08-11 21:39:26.972755,United States,,,
ottos-pub-and-brewery,Ottos Pub & Brewery,brewpub,2235 N Atherton St,State College,Pennsylvania,16803-1529,http://www.ottospubandbrewery.com,8144701394,2018-07-24 01:34:11.945922,2018-08-24 16:10:56.623792,United States,-77.8742944,40.7977695,
union-barrel-works,Union Barrel Works,brewpub,6 N Reamstown Rd,Stevens,Pennsylvania,17578,,7173357837,2018-07-24 01:34:13.314692,2018-08-11 21:39:32.957865,United States,,,
eclipse-craft-brewing,Eclipse Craft Brewing,planning,,Sunbury,Pennsylvania,17801-5337,http://curtisbenner@hotmail.com,,2018-07-24 01:34:10.37402,2018-08-11 21:39:26.165301,United States,,,
gravity-ales-llc,Gravity Ales LLC,planning,,Swarthmore,Pennsylvania,19081-1421,http://gravityales.com,6105472235,2018-07-24 01:34:10.68105,2018-08-11 21:39:26.851649,United States,,,
pocono-brewery-company,Pocono Brewery Company,brewpub,2092 Route 611,Swiftwater,Pennsylvania,18370-7773,,5708391500,2018-07-24 01:34:12.064419,2018-08-11 21:39:29.97724,United States,,,
stokers-brewing-company,Stoker's Brewing Company,planning,,Tamaqua,Pennsylvania,18252-1405,,,2018-07-24 01:34:12.843144,2018-08-11 21:39:31.785204,United States,,,
barley-creek-brewing-co,Barley Creek Brewing Co,brewpub,1774 Sullivan Trl,Tannersville,Pennsylvania,18372-7893,http://www.barleycreek.com,5706299399,2018-07-24 01:34:08.882813,2018-08-24 16:06:28.598652,United States,-75.3289057481617,41.05236395,
perkiomen-valley-brewery,Perkiomen Valley Brewery,planning,,Telford,Pennsylvania,18969-1615,http://www.perkiomenvalleybrewery.com,2158726424,2018-07-24 01:34:11.971037,2018-08-11 21:39:29.773201,United States,,,
blue-canoe-brewery,Blue Canoe Brewery,brewpub,113 S Franklin St,Titusville,Pennsylvania,16354-1737,,8147750077,2018-07-24 01:34:09.056174,2018-08-24 16:06:44.959981,United States,-79.6733234,41.6230211,
orrs-brewing-company,Orr's Brewing Company,brewpub,109 S Franklin St,Titusville,Pennsylvania,16354,,8148270000,2018-07-24 01:34:11.932377,2018-08-24 16:10:55.045259,United States,-79.6733234,41.6230211,
nimble-hill-brewing-co,Nimble Hill Brewing Co,micro,3971 SR 6,Tunkhannock,Pennsylvania,18657,http://www.nimblehillbrewingcompany.com,5708369463,2018-07-24 01:34:11.830761,2018-08-11 21:39:29.423078,United States,,,
laurel-highlands-brewing,Laurel Highlands Brewing,micro,21 Enamel St,Uniontown,Pennsylvania,15401-,http://www.laurelhighlandsbrewing.com,7248805497,2018-07-24 01:34:11.268743,2018-08-24 16:09:49.096597,United States,-79.71813225,39.910080625,
double-d-brewing-/-dommys-pizza,Double D Brewing / Dommy's Pizza,brewpub,1100 Hancock Ave,Vandergrift,Pennsylvania,15690-2061,http://dommyspizza.com,7245676789,2018-07-24 01:34:10.288647,2018-08-24 16:08:15.099424,United States,-79.57625,40.588461,
sprague-farm-and-brew-works,Sprague Farm and Brew Works,brewpub,22043 US Highway 6 and 19,Venango,Pennsylvania,16440-2507,http://www.sleepingchainsaw.com,8143982885,2018-07-24 01:34:12.719367,2018-08-11 21:39:31.532454,United States,,,
washington-brewing-co,Washington Brewing Co,brewpub,28 E Maiden St,Washington,Pennsylvania,15301-4912,http://thewashingtonbrewingcompany.com,7242225050,2018-07-24 01:34:13.455851,2018-08-24 16:13:15.885459,United States,-80.0207678125,40.0730843125,
boxcar-brewing-co-llc,Boxcar Brewing Co LLC,micro,306 Westtown Rd Ste C,West Chester,Pennsylvania,19382-4983,http://www.boxcarbrewingcompany.com,4849472503,2018-07-24 01:34:09.165576,2018-08-11 21:39:23.379226,United States,,,
levante-brewing-company,Levante Brewing Company,micro,208 Carter Dr Ste 2,West Chester,Pennsylvania,19382-4500,http://levantebrewing.com,4849998761,2018-07-24 01:34:11.318479,2018-08-11 21:39:28.272108,United States,,,
iron-hill-brewery-and-restaurant-west-chester,Iron Hill Brewery & Restaurant - West Chester,brewpub,3 West Gay St,West Chester,Pennsylvania,19380-3010,http://www.ironhillbrewery.com,6107389600,2018-07-24 01:34:11.089411,2018-08-24 16:09:31.235389,United States,-75.6056410069981,39.96059635,
bloom-brew,Bloom Brew,micro,100 Riverside Dr,West Newton,Pennsylvania,15089-1542,http://www.bloombrew.com,7243224494,2018-07-24 01:34:09.042193,2018-08-24 16:06:43.445798,United States,-79.768066,40.210228,
broken-chair-brewery,Broken Chair Brewery,micro,424 East Penn Ave,West Reading,Pennsylvania,19611-1130,http://www.brokenchairbrewery.com,4848663948,2018-07-24 01:34:09.558551,2018-08-11 21:39:24.180982,United States,,,
chatty-monks-brewing-company,Chatty Monks Brewing Company,brewpub,610 Penn Ave,West Reading,Pennsylvania,19611-1004,http://www.chattymonks.com,4848180176,2018-07-24 01:34:09.734268,2018-08-24 16:07:25.827481,United States,-75.9500006326531,40.3357192040816,
brewery-in-planning-wexford,Brewery in Planning - WEXFORD,planning,,Wexford,Pennsylvania,15090-7549,,4127264889,2018-07-24 01:34:09.501289,2018-08-11 21:39:24.019802,United States,,,
youngs-brewing,Young's Brewing,planning,,Wexford,Pennsylvania,15090,,,2018-07-24 01:34:13.619155,2018-08-11 21:39:33.654611,United States,,,
lion-brewery-inc-the,"Lion Brewery Inc, The",regional,700 N Pennsylvania Ave,Wilkes Barre,Pennsylvania,18705-2451,http://www.lionbrewery.com,5708238801,2018-07-24 01:34:11.37894,2018-08-24 16:09:56.820557,United States,-75.859363,41.254896,
benny-brewing-co,Benny Brewing Co.,micro,1429 Sans Souci Pkwy,Wilkes Barre,Pennsylvania,18706-6025,http://www.martysblueroom.com,5702356995,2018-07-24 01:34:08.937018,2018-08-11 21:39:22.75046,United States,,,
american-honor-beer-co,American Honor Beer Co,contract,700 N Pennsylvania Ave,Wilkes Barre,Pennsylvania,18705-2451,http://www.BoondoggleBeer.com,,2018-07-24 01:34:08.715065,2018-08-24 16:06:13.170045,United States,-75.859363,41.254896,
breaker-brewing-company,Breaker Brewing Company,brewpub,787 E Northampton St,Wilkes Barre,Pennsylvania,18702-7521,,,2018-07-24 01:34:09.220927,2018-08-24 16:06:57.234186,United States,-75.8739352,41.2338879,
boom-city-brewing,Boom City Brewing,brewpub,317 Pine St,Williamsport,Pennsylvania,17701-6509,http://www.boomcitybrewing.com,2722022956,2018-07-24 01:34:09.147265,2018-08-24 16:06:53.820607,United States,-77.0033123203125,41.2410856405481,
bullfrog-brewery,Bullfrog Brewery,brewpub,229 W 4th St,Williamsport,Pennsylvania,17701-6112,http://www.bullfrogbrewery.com,5703264700,2018-07-24 01:34:09.612845,2018-08-24 16:07:14.62147,United States,-77.051529,41.2399548,
bullfrog-brewery-production-only,Bullfrog Brewery - Production Only,micro,229 W 4th St,Williamsport,Pennsylvania,17701-6112,,5703264700,2018-07-24 01:34:09.626615,2018-08-24 16:07:16.609864,United States,-77.051529,41.2399548,
new-trail-brewing-company,New Trail Brewing Company,micro,240 Arch St Bldg 18,Williamsport,Pennsylvania,17701-7810,http://www.newtrailbrewing.com,,2018-07-24 01:34:11.818151,2018-08-11 21:39:29.393323,United States,,,
riepstines-pub,Riepstines Pub,brewpub,913 Arch St,Williamsport,Pennsylvania,17701-5630,http://www.riepstinespub.com,5703292739,2018-07-24 01:34:12.16647,2018-08-24 16:11:17.613758,United States,-77.0529960328378,41.2399728450491,
river-barge-brewing,River Barge Brewing,brewpub,71 Grovedale Ln,Wyalusing,Pennsylvania,18853-7854,http://www.riverbargebrewing.com,5707461400,2018-07-24 01:34:12.197091,2018-08-11 21:39:30.300052,United States,,,
brewery-in-planning-yardley,Brewery in Planning - Yardley,planning,,Yardley,Pennsylvania,19067-5760,,,2018-07-24 01:34:09.514798,2018-08-11 21:39:24.056987,United States,,,
lydian-stone-brewery,Lydian Stone Brewery,micro,685 York Haven Rd,York Haven,Pennsylvania,17370-9006,http://www.lydianstonebrewing.com,7173846055,2018-07-24 01:34:11.461703,2018-08-24 16:10:05.36343,United States,-76.7157289,40.0944263,
collusion-tap-works,Collusion Tap Works,brewpub,105 S Howard St,York,Pennsylvania,17401-2001,http://www.collusiontapworks.com,7178488400,2018-07-24 01:34:09.834191,2018-08-24 16:07:36.762293,United States,-76.723937348533,39.9618356970659,
crystal-ball-brewing,Crystal Ball Brewing,micro,1612 W King St,York,Pennsylvania,17404-5618,http://www.crystalballbrewing.com,,2018-07-24 01:34:10.085595,2018-08-24 16:08:00.170146,United States,-76.7627365219678,39.9489198414443,
liquid-hero-brewery,Liquid Hero Brewery,micro,50 E North St,York,Pennsylvania,17401-2421,http://www.liquidhero.com,7178149250,2018-07-24 01:34:11.391569,2018-08-24 16:09:59.167571,United States,-76.7437525425244,39.9585420306257,
mexitaly-brick-oven-brewhouse,Mexitaly Brick Oven Brewhouse,brewpub,2440 E Market St,York,Pennsylvania,17402-2409,http://www.mexitaly.com,7176008226,2018-07-24 01:34:11.624807,2018-08-24 16:10:21.941794,United States,-76.6781639,39.9735865,
mudhook-brewing-co,Mudhook Brewing Co,brewpub,34 N Cherry Ln,York,Pennsylvania,17401-5306,http://www.mudhookbrewing.com,7177473605,2018-07-24 01:34:11.765718,2018-08-24 16:10:36.908262,United States,-76.7293529661274,39.9631106852444,
burghaers-brewing,Burghâers Brewing,micro,22410 Perry Hwy Ste 410E,Zelienople,Pennsylvania,16063-2935,http://Burgherspgh.com,4129739628,2018-07-24 01:34:09.655839,2018-08-11 21:39:24.515127,United States,,,
shubrew-llc,"ShuBrew, LLC",brewpub,210 S Main St,Zelienople,Pennsylvania,16063-1150,,7247664426,2018-07-24 01:34:12.586276,2018-08-24 16:11:53.370991,United States,-80.136358917809,40.7928506347067,