id,name,brewery_type,street,city,state,postal_code,website_url,phone,created_at,updated_at,country,longitude,latitude,tags
3-sheets-brewery,3 Sheets Brewery,micro,136 W 1st Ave,Albany,Oregon,97321,http://www.3sheetsbrewery.com,5416190183,2018-07-24 01:34:04.502392,2018-08-11 21:39:09.559114,United States,,,
deluxe-brewing-co,Deluxe Brewing Co,micro,PO Box 3358,Albany,Oregon,97321-0713,http://www.deluxebrewing.com,5419287699,2018-07-24 01:34:05.706231,2018-08-11 21:39:12.893535,United States,,,
calapooia-brewing-co-/-siletz-ales,Calapooia Brewing Co / Siletz Ales,micro,140 NE Hill St,Albany,Oregon,97321-3002,http://www.calapooiabrewing.com,5419281931,2018-07-24 01:34:05.311216,2018-08-11 21:39:11.818716,United States,,,
siuslaw-brewing,Siuslaw Brewing,micro,16558 Alsea Hwy,Alsea,Oregon,97324-9624,,5417401606,2018-07-24 01:34:07.832095,2018-08-24 16:04:56.528694,United States,-123.690664523597,44.3533590022341,
caldera-brewing-co,Caldera Brewing Co,micro,590 Clover Ln,Ashland,Oregon,97520-3709,http://www.calderabrewing.com,5414824677,2018-07-24 01:34:05.325705,2018-08-24 15:46:07.515668,United States,-122.663374407476,42.1837384599099,
standing-stone-brewing-co,Standing Stone Brewing Co,micro,101 Oak St,Ashland,Oregon,97520-1802,http://www.standingstonebrewing.com,5414822448,2018-07-24 01:34:07.908628,2018-08-24 16:05:04.021907,United States,-122.714579315999,42.1976451,
hondos-brew-and-cork-pub,Hondo's Brew and Cork Pub,micro,2703 Marine Dr,Astoria,Oregon,97103-2900,http://www.hondosbrew.net,5033252234,2018-07-24 01:34:06.246037,2018-08-24 16:02:11.91167,United States,-123.814042588465,46.1888581655929,
reach-break-brewing,Reach Break Brewing,micro,1343 Duane St,Astoria,Oregon,97103-3917,,5034680743,2018-07-24 01:34:07.490247,2018-08-24 16:04:23.323863,United States,-123.828993084975,46.1883674134406,
astoria-brewing-company,Astoria Brewing Company,micro,1196 Marine Dr,Astoria,Oregon,97103-4112,,5037413040,2018-07-24 01:34:04.67981,2018-08-24 15:45:50.938261,United States,-123.831516,46.1898025918367,
buoy-beer-company,Buoy Beer Company,micro,1 8th St,Astoria,Oregon,97103-4506,http://www.buoybeer.com,5033254540,2018-07-24 01:34:05.280426,2018-08-24 15:46:06.146198,United States,-123.835151010323,46.1913235,
fort-george-brewery,Fort George Brewery,regional,1483 Duane St,Astoria,Oregon,97103-3819,http://www.fortgeorgebrewery.com,5033257468,2018-07-24 01:34:05.954731,2018-08-24 16:01:41.124187,United States,-123.8274681,46.1883837,
wet-dog-cafe-and-brewery,Wet Dog Cafe & Brewery,brewpub,990 Astor St,Astoria,Oregon,97103-4201,http://www.wetdogcafe.com,5033256975,2018-07-24 01:34:08.341727,2018-08-24 16:05:43.05236,United States,-123.835821,46.190557,
barley-browns-brewpub,Barley Browns Brewpub,micro,2190 Main St,Baker City,Oregon,97814-2655,http://www.barleybrowns.com,5415234266,2018-07-24 01:34:04.753166,2018-08-24 15:45:53.74343,United States,-117.8294962,44.7787802,
baker-city-brewing-co,Baker City Brewing Co,micro,2200 Main Street,Baker City,Oregon,97814,http://www.barleybrowns.com,5415232337,2018-07-24 01:34:04.728386,2018-08-24 15:45:52.79384,United States,-117.829347099531,44.77928865,
bandon-brewing-company,Bandon Brewing Company,brewpub,395 2nd St SE,Bandon,Oregon,97411-9605,http://www.bandonbrewingco.com,5413473911,2018-07-24 01:34:04.740289,2018-08-24 15:45:53.265854,United States,-124.412249423341,43.1191571987033,
hop-cycle-brewing-company,Hop Cycle Brewing Company,planning,,Banks,Oregon,97106-9213,http://www.hopcyclebrewing.com,5032770997,2018-07-24 01:34:06.258564,2018-08-11 21:39:14.442482,United States,,,
cascade-brewing-blending-house,Cascade Brewing Blending House,micro,6770 SW 111th Ave,Beaverton,Oregon,97008-5336,http://www.cascadebrewing.com,5033660730,2018-07-24 01:34:05.367462,2018-08-24 15:46:08.977424,United States,-122.7900557,45.4709556,
cooper-mountain-ale-works,Cooper Mountain Ale Works,micro,15855 SW Kestrel Ct,Beaverton,Oregon,97007-9200,http://www.coopermountainaleworks.com,5035807175,2018-07-24 01:34:05.556109,2018-08-24 15:46:15.449805,United States,-122.840033324208,45.4314259,
little-beast-brewing,Little Beast Brewing,micro,3800 SW Cedar Hills Blvd Ste 300E,Beaverton,Oregon,97005-2037,http://www.littlebeastbrewing.com/,5033295107,2018-07-24 01:34:06.46323,2018-08-11 21:39:14.936412,United States,,,
mcmenamins-cedar-hills,McMenamins - Cedar Hills,brewpub,2885 SW Cedar Hills Blvd,Beaverton,Oregon,97005-1343,,5036410151,2018-07-24 01:34:06.630888,2018-08-24 16:02:53.223691,United States,-122.8058983,45.5013601,
mcmenamins-murray-and-allen,McMenamins Murray & Allen,brewpub,6179 SW Murray Blvd,Beaverton,Oregon,97008-4421,http://www.mcmenamins.com,5035269618,2018-07-24 01:34:06.793784,2018-08-24 16:03:11.078694,United States,-122.826453698962,45.4750792,
mcmenamins-old-st-francis-school,McMenamins Old St. Francis School,brewpub,700 NW Bond St,Bend,Oregon,97703-2702,http://www.mcmenamins.com,5413825174,2018-07-24 01:34:06.834507,2018-08-24 16:03:15.596194,United States,-121.314499,44.0566885,
10-barrel-brewing-co,10 Barrel Brewing Co,large,62970 18th St,Bend,Oregon,97701-9847,http://www.10barrel.com,5415851007,2018-07-24 01:34:04.42852,2018-08-11 21:39:09.349531,United States,,,
10-barrel-brewing-co,10 Barrel Brewing Co,large,1135 NW Galveston Ave Ste B,Bend,Oregon,97703-2465,,5415851007,2018-07-24 01:34:04.452702,2018-08-11 21:39:09.426424,United States,,,
10-barrel-brewing-co-bend-pub,10 Barrel Brewing Co - Bend Pub,large,62950 NE 18th St,Bend,Oregon,97701,,5415851007,2018-07-24 01:34:04.464784,2018-08-24 15:45:44.243119,United States,-121.2809536,44.0912109,
bend-brewing-high-desert,Bend Brewing High Desert,micro,20650 NE High Desert Lane,Bend,Oregon,97701,,5413831599,2018-07-24 01:34:04.827511,2018-08-11 21:39:10.775989,United States,,,
bevel-craft-brewing,Bevel Craft Brewing,planning,,Bend,Oregon,97701-4924,http://www.bevelbeer.com,8313451922,2018-07-24 01:34:04.852782,2018-08-11 21:39:10.846135,United States,,,
boneyard-beer-co,Boneyard Beer Co,micro,37 NW Lake Pl Ste B,Bend,Oregon,97703-2971,,5413232325,2018-07-24 01:34:04.951189,2018-08-11 21:39:11.120348,United States,,,
boneyard-beer-co,Boneyard Beer Co,regional,63097 Plateau Dr,Bend,Oregon,97701,http://www.boneyardbeer.com,5413232325,2018-07-24 01:34:04.964884,2018-08-11 21:39:11.155673,United States,,,
brewery-in-planning-bend,Brewery In Planning - Bend,planning,,Bend,Oregon,97702-2783,,,2018-07-24 01:34:05.158097,2018-08-11 21:39:11.462656,United States,,,
bridge-99-brewery,Bridge 99 Brewery,micro,63063 Layton Ave,Bend,Oregon,97701-7087,,5412801690,2018-07-24 01:34:05.239875,2018-08-11 21:39:11.66397,United States,,,
bend-brewing-co,Bend Brewing Co,brewpub,1019 NW Brooks St,Bend,Oregon,97703-2018,http://www.bendbrewingco.com,5413831599,2018-07-24 01:34:04.815155,2018-08-24 15:45:56.077254,United States,-121.31393115,44.06051115,
craft-kitchen-and-brewery,Craft Kitchen and Brewery,brewpub,62988 Layton Ave Ste 103,Bend,Oregon,97701-6692,http://www.craftkitchenandbrewery.com,5416681766,2018-07-24 01:34:05.568584,2018-08-11 21:39:12.565956,United States,,,
crux-fermentation-project,Crux Fermentation Project,regional,50 SW Division St,Bend,Oregon,97702-1600,http://www.cruxfermentation.com,5413887558,2018-07-24 01:34:05.597469,2018-08-11 21:39:12.620598,United States,,,
crux-fermentation-project-crux2,Crux Fermentation Project - Crux2,micro,63065 18th St,Bend,Oregon,97701-9981,,,2018-07-24 01:34:05.611307,2018-08-11 21:39:12.649906,United States,,,
deschutes-brewery,Deschutes Brewery,regional,901 SW Simpson Ave,Bend,Oregon,97702-3118,http://www.deschutesbrewery.com,5413858606,2018-07-24 01:34:05.719305,2018-08-24 16:01:18.807957,United States,-121.324618420089,44.0478063800099,
deschutes-brewery-and-public-house,Deschutes Brewery & Public House,brewpub,1044 NW Bond St,Bend,Oregon,97703-2002,http://www.deschutesbrewery.com,5413829242,2018-07-24 01:34:05.731949,2018-08-24 16:01:20.256551,United States,-121.311384469532,44.05941415,
immersion-brewing,Immersion Brewing,brewpub,550 SW Industrial Way,Bend,Oregon,97702-1084,http://www.imbrewing.com,5416337821,2018-07-24 01:34:06.310604,2018-08-24 16:02:17.900055,United States,-121.31552305,44.05100445,
monkless-belgian-ales,Monkless Belgian Ales,micro,20750 High Desert Ln Suite 107,Bend,Oregon,97701,http://www.monkless.com,5416105492,2018-07-24 01:34:06.962645,2018-08-11 21:39:16.33655,United States,,,
oblivion-brewing-co,Oblivion Brewing Co,micro,63027 Plateau Dr Ste 4,Bend,Oregon,97701-3855,http://www.oblivionbrewingco.com,5417283509,2018-07-24 01:34:07.113215,2018-08-11 21:39:16.864229,United States,,,
riverbend-brewing-pub,RiverBend Brewing Pub,brewpub,2650 NE Division St,Bend,Oregon,97703-3569,http://www.riverbendbrewing.com,5415507550,2018-07-24 01:34:07.518,2018-08-11 21:39:18.098358,United States,,,
shade-tree-brewing,Shade Tree Brewing,micro,,Bend,Oregon,97702,http://www.shadetreebrewing.com,5413833730,2018-07-24 01:34:07.777015,2018-08-11 21:39:18.975596,United States,,,
silver-moon-brewing,Silver Moon Brewing,micro,24 NW Greenwood Ave,Bend,Oregon,97703-2027,,5413888331,2018-07-24 01:34:07.802516,2018-08-24 16:04:53.530219,United States,-121.307915134821,44.0603904,
the-ale-apothecary,The Ale Apothecary,micro,30 SW Century Drive Suite 140,Bend,Oregon,97702,http://www.thealeapothecary.com,5414081525,2018-07-24 01:34:08.045393,2018-08-11 21:39:19.743038,United States,,,
worthy-brewing-company,Worthy Brewing Company,micro,495 NE Bellevue Dr,Bend,Oregon,97701-7412,http://www.worthybrewing.com,5416394772,2018-07-24 01:34:08.468653,2018-08-24 16:05:54.789904,United States,-121.26039154918,44.0553542,
goodlife-brewing-company,GoodLife Brewing Company,regional,70 SW Century Ave 100-464,Bend,Oregon,97701,http://www.goodlifebrewing.com,5417280749,2018-07-24 01:34:06.1197,2018-08-11 21:39:14.019643,United States,,,
ordnance-brewing,Ordnance Brewing,micro,405 NE Olson Rd,Boardman,Oregon,97818-,http://www.ordnancebrewing.com,5413148568,2018-07-24 01:34:07.212681,2018-08-11 21:39:17.163427,United States,,,
boring-brewing-co-llc,"Boring Brewing Co., LLC",micro,29300 SE Haley Road Ste B,Boring,Oregon,97009,http://www.boringbrewing.com,5034278619,2018-07-24 01:34:04.978419,2018-08-11 21:39:11.190244,United States,,,
chetco-brewing-company,Chetco Brewing Company,micro,830 Railroad St,Brookings,Oregon,97415,http://www.chetcobrew.com,5416615347,2018-07-24 01:34:05.424649,2018-08-24 15:46:10.891006,United States,-124.2875954,42.0521588,
steens-mountain-brewing-company,Steens Mountain Brewing Company,micro,673 B W Monroe St,Burns,Oregon,97720,,5415891159,2018-07-24 01:34:07.922916,2018-08-24 16:05:05.550138,United States,-119.060813,43.585639,
pelican-brewing-company-cannon-beach,Pelican Brewing Company - Cannon Beach,brewpub,1371 S Hemlock St,Cannon Beach,Oregon,97110-3055,,5039083377,2018-07-24 01:34:07.275749,2018-08-24 16:04:00.19126,United States,-123.962023571429,45.8885054285714,
public-coast-brewing,Public Coast Brewing,brewpub,264 E 3rd Ave,Cannon Beach,Oregon,97110-2008,http://www.publiccoastbrewing.com,5034360285,2018-07-24 01:34:07.409163,2018-08-11 21:39:17.781269,United States,,,
bills-tavern-and-brewhouse,Bill's Tavern and Brewhouse,brewpub,188 N Hemlock St,Cannon Beach,Oregon,97110-3037,http://www.billstavernandbrewhouse.com,5034362202,2018-07-24 01:34:04.901902,2018-08-24 15:45:58.904192,United States,-123.961094327262,45.89803615,
crowing-hen,Crowing Hen,planning,,Carlton,Oregon,97111-9668,,5038520037,2018-07-24 01:34:05.581296,2018-08-11 21:39:12.591448,United States,,,
thunder-island-brewing,Thunder Island Brewing,micro,515 NW Portage Rd,Cascade Locks,Oregon,97014-6699,http://www.thunderislandbrewing.com,9712314599,2018-07-24 01:34:08.131116,2018-08-11 21:39:19.933442,United States,,,
wild-river-brewing-and-pizza-co,Wild River Brewing and Pizza Co,brewpub,249 N Redwood Hwy,Cave Junction,Oregon,97523-9023,http://www.wildriverbrewing.com,5414717487,2018-07-24 01:34:08.382415,2018-08-24 16:05:47.485985,United States,-123.6469844,42.1622503,
drinking-horse-brewing-company,Drinking Horse Brewing Company,micro,11517 SE Highway 212,Clackamas,Oregon,97015-9053,http://www.drinkinghorsebeer.com,5035648165,2018-07-24 01:34:05.810211,2018-08-24 16:01:27.718838,United States,-122.378124,45.4288733,
ram-restaurant-and-brewery-clackamas,RAM Restaurant and Brewery - Clackamas,brewpub,9073 SE Sunnyside Rd,Clackamas,Oregon,97015-9759,,5036591282,2018-07-24 01:34:07.421824,2018-08-24 16:04:17.275272,United States,-122.57159941524,45.43365785,
7-devils-brewing-co,7 Devils Brewing Co,brewpub,247 S 2nd St,Coos Bay,Oregon,97420-1642,http://www.7devilsbrewery.com,5418083738,2018-07-24 01:34:04.514749,2018-08-24 15:45:46.147603,United States,-124.214750788464,43.3665475140649,
block-15-brewery-and-tap-room,Block 15 Brewery & Tap Room,brewpub,3415 SW Deschutes St,Corvallis,Oregon,97333-9283,http://www.block15.com,5417522337,2018-07-24 01:34:04.938179,2018-08-24 15:46:00.338546,United States,-123.26904899802,44.5305284,
mcmenamins-on-monroe,McMenamins on Monroe,brewpub,2001 NW Monroe Ave Ste 106,Corvallis,Oregon,97330-5567,,5417580880,2018-07-24 01:34:06.847678,2018-08-11 21:39:15.994981,United States,,,
block-15,Block 15,brewpub,300 SW Jefferson Ave,Corvallis,Oregon,97333-4607,,5417582077,2018-07-24 01:34:04.925859,2018-08-24 15:45:59.894281,United States,-123.262222,44.5622701,
dirt-road-brewing,Dirt Road Brewing,planning,,Corvallis,Oregon,97330-3005,http://dirtroadbrewing.com,5415984221,2018-07-24 01:34:05.757467,2018-08-11 21:39:13.052993,United States,,,
flat-tail-brewing-co,Flat Tail Brewing Co,brewpub,202 SW 1st St,Corvallis,Oregon,97333-4727,http://www.flattailcorvallis.com,5417582229,2018-07-24 01:34:05.926798,2018-08-24 16:01:38.155722,United States,-123.259877505224,44.5619623733513,
mazama-brewing-co,Mazama Brewing Co,micro,33930 SE Eastgate Cir Unit A,Corvallis,Oregon,97333-2272,http://www.mazamabrewing.com,15412301810,2018-07-24 01:34:06.605423,2018-08-11 21:39:15.290312,United States,,,
oregon-trail-brewery,Oregon Trail Brewery,micro,341 SW 2nd St,Corvallis,Oregon,97333-4640,http://www.oregontrailbrewery.com,5417583527,2018-07-24 01:34:07.238328,2018-08-24 16:03:55.712734,United States,-123.2608445,44.5612822,
splintercat-brewing,Splintercat Brewing,planning,,Corvallis,Oregon,97330-1348,,,2018-07-24 01:34:07.895396,2018-08-11 21:39:19.37054,United States,,,
sky-high-brewing,Sky High Brewing,brewpub,160 NW Jackson Ave,Corvallis,Oregon,97330-4827,http://www.skyhighbrewing.com,5412073277,2018-07-24 01:34:07.845551,2018-08-24 16:04:57.991777,United States,-123.2590342,44.5648291,
deception-brewing-company,Deception Brewing Company,micro,1174 SW Highway 99W,Dundee,Oregon,97115,http://www.deceptionbrewingco.com,9718328054,2018-07-24 01:34:05.667412,2018-08-11 21:39:12.763109,United States,,,
terminal-gravity-brewing-co,Terminal Gravity Brewing Co,micro,803 SE School St,Enterprise,Oregon,97828-1674,http://www.terminalgravitybrewing.com,5414260158,2018-07-24 01:34:08.032435,2018-08-24 16:05:16.096374,United States,-117.2713718,45.4187654,
fearless-brewing-co,Fearless Brewing Co,brewpub,326 S Broadway St,Estacada,Oregon,97023-7000,http://www.fearless.beer,5036302337,2018-07-24 01:34:05.886782,2018-08-24 16:01:33.639872,United States,-122.335075897959,45.2870467959184,
coldfire-brewing,Coldfire Brewing,micro,263 Mill St,Eugene,Oregon,97401-2410,http://www.coldfirebrewing.com,5415569374,2018-07-24 01:34:05.490556,2018-08-24 15:46:13.160298,United States,-123.086497632653,44.0567465714286,
mckenzie-brewing-company,McKenzie Brewing Company,brewpub,199 E 5th Ave,Eugene,Oregon,97401-8715,http://www.steelheadbrewery.com,5416862739,2018-07-24 01:34:06.617987,2018-08-24 16:02:51.699246,United States,-123.089843,44.054404,
agrarian-ales-llc,"Agrarian Ales, LLC",micro,31115 W Crossroads Ln,Eugene,Oregon,97408-9220,http://www.agales.com,5416323803,2018-07-24 01:34:04.527205,2018-08-11 21:39:09.620345,United States,,,
alesong-brewing-and-blending,Alesong Brewing and Blending,micro,1000 Conger St Ste C,Eugene,Oregon,97402-2950,http://www.alesongbrewing.com,5419723303,2018-07-24 01:34:04.565757,2018-08-11 21:39:09.70256,United States,,,
alesong-brewing-and-tasting-room,Alesong Brewing and Tasting Room,micro,1000 Conger Unit C,Eugene,Oregon,97402,http://www.alesongbrewing.com,5419723303,2018-07-24 01:34:04.580253,2018-08-11 21:39:09.731523,United States,,,
brewery-in-planning-eugene,Brewery In Planning - Eugene,planning,,Eugene,Oregon,97401-7004,,,2018-07-24 01:34:05.171997,2018-08-11 21:39:11.494108,United States,,,
brewery-in-planning-eugene,Brewery in Planning - Eugene,planning,,Eugene,Oregon,97401-5318,,,2018-07-24 01:34:05.186262,2018-08-11 21:39:11.522154,United States,,,
claim-52-brewing,Claim 52 Brewing,micro,1030 Tyinn St Ste 1,Eugene,Oregon,97402-6933,,5415546786,2018-07-24 01:34:05.436616,2018-08-11 21:39:12.102351,United States,,,
elk-horn-brewery,Elk Horn Brewery,brewpub,686 E Broadway,Eugene,Oregon,97401-3340,http://www.elkhornbrewery.com,5415058356,2018-07-24 01:34:05.835331,2018-08-11 21:39:13.252752,United States,,,
falling-sky-brewing,Falling Sky Brewing,brewpub,1334 Oak Aly,Eugene,Oregon,97401-3190,http://www.fallingskybrewing.com,5415057096,2018-07-24 01:34:05.87367,2018-08-11 21:39:13.358146,United States,,,
hop-valley-brewing-co,Hop Valley Brewing Co,large,990 W 1st Ave,Eugene,Oregon,97402-4904,,,2018-07-24 01:34:06.270972,2018-08-24 16:02:13.389466,United States,-123.107450623016,44.05820645,
manifest-beer-company,Manifest Beer Company,micro,740 Willamette St,Eugene,Oregon,97401-2934,http://www.manifestbeer.com,5412067232,2018-07-24 01:34:06.577377,2018-08-24 16:02:46.571121,United States,-123.092850664492,44.0517483327816,
mcmenamins-high-street-brewery,McMenamins High Street Brewery,brewpub,1243 High St,Eugene,Oregon,97401-3207,http://www.mcmenamins.com,5413454913,2018-07-24 01:34:06.722013,2018-08-24 16:03:03.502759,United States,-123.087913357788,44.0461346,
oakshire-brewing,Oakshire Brewing,micro,1055 Madera St,Eugene,Oregon,97402-2019,http://www.oakbrew.com,5416884555,2018-07-24 01:34:07.100145,2018-08-24 16:03:42.32408,United States,-123.141024138695,44.0729935509725,
sam-bonds-brewing-co,Sam Bond's Brewing Co,brewpub,540 E 8th Ave,Eugene,Oregon,97401-3344,http://www.sambondsbrewing.com,5412468162,2018-07-24 01:34:07.667503,2018-08-24 16:04:41.595074,United States,-123.084330714218,44.0509361107309,
the-viking-braggot-company,The Viking Braggot Company,micro,520 Commercial St Unit F,Eugene,Oregon,97402-5347,http://www.drinkviking.com,5416538371,2018-07-24 01:34:08.073781,2018-08-11 21:39:19.803615,United States,,,
ninkasi-brewing-co,Ninkasi Brewing Co,regional,155 Blair Blvd,Eugene,Oregon,97402-4146,http://www.ninkasibrewing.com,5413442739,2018-07-24 01:34:07.059805,2018-08-24 16:03:40.853347,United States,-123.110889136509,44.0573432630607,
brewery-in-planning-florence-or,"Brewery in Planning - Florence, OR",planning,,Florence,Oregon,97439-8708,,5419993109,2018-07-24 01:34:05.199907,2018-08-11 21:39:11.560361,United States,,,
kaiser-brewing-company-llc,"Kaiser Brewing Company, LLC",micro,1607 Hawthorne St,Forest Grove,Oregon,97116-2537,http://www.kaiserbrewingco.com,5034129628,2018-07-24 01:34:06.335348,2018-08-24 16:02:20.879791,United States,-123.099025351556,45.51421585,
waltz-brewing,Waltz Brewing,micro,1900 A St,Forest Grove,Oregon,97116-2303,http://www.waltzbrewing.com,5038966057,2018-07-24 01:34:08.300271,2018-08-24 16:05:38.592617,United States,-123.1142562,45.5185238,
ridgewalker-brewing,Ridgewalker Brewing,brewpub,1921 21st Ave,Forest Grove,Oregon,97116-1637,,5038671634,2018-07-24 01:34:07.504006,2018-08-24 16:04:24.817459,United States,-123.112996575014,45.52115845,
arch-rock-brewing-co,Arch Rock Brewing Co,micro,28779 Hunter Creek Loop,Gold Beach,Oregon,97444-9626,http://www.archrockbrewingcompany.com,5412470555,2018-07-24 01:34:04.64095,2018-08-24 15:45:49.997045,United States,-124.4155402,42.3898306,
mount-hood-brewing-co,Mount Hood Brewing Co,brewpub,87304 E Government Camp Loop,Government Camp,Oregon,97028,http://www.mthoodbrewing.com,5032723272,2018-07-24 01:34:07.005032,2018-08-24 16:03:34.970466,United States,-121.766206480897,45.30311485,
climate-city-brewing-co,Climate City Brewing Co.,brewpub,509 SW G St,Grants Pass,Oregon,97526-2472,http://www.climatecitybrewing.com,5414793725,2018-07-24 01:34:05.449068,2018-08-24 15:46:11.781232,United States,-123.3313287,42.4401171,
conner-fields-brewing,Conner Fields Brewing,brewpub,121 SW H St,Grants Pass,Oregon,97526-2505,http://www.connerfields.com,5415082337,2018-07-24 01:34:05.530648,2018-08-24 15:46:14.527616,United States,-123.328492120766,42.438424006117,
jds-sports-pub-and-brewery,JD's Sports Pub and Brewery,brewpub,690 Redwood Hwy,Grants Pass,Oregon,97527-5582,http://www.jdssportsbarandbrewery.com,5414710383,2018-07-24 01:34:06.323213,2018-08-24 16:02:19.410847,United States,-123.342051549296,42.4231906197183,
wild-river-brewing-and-pizza-co-grants-pass,Wild River Brewing and Pizza Co - Grants Pass,brewpub,595 NE E St,Grants Pass,Oregon,97526-2356,http://www.wildriverbrewing.com,5414717487,2018-07-24 01:34:08.396716,2018-08-24 16:05:48.955204,United States,-123.319000015728,42.4392751152982,
mountain-view-brewing,Mountain View Brewing,micro,161 Mountain View Pl,Grants Pass,Oregon,97527-4607,,5414410314,2018-07-24 01:34:07.017949,2018-08-11 21:39:16.538415,United States,,,
mcmenamins-highland-pub-and-brewery,McMenamins Highland Pub and Brewery,brewpub,4225 SE 182nd Ave,Gresham,Oregon,97030-5082,http://www.mcmenamins.com,5036653015,2018-07-24 01:34:06.734969,2018-08-24 16:03:04.947869,United States,-122.475814964173,45.4915603,
barley-sprouts-brewery,Barley Sprouts Brewery,brewpub,639 SE 223rd Ave,Gresham,Oregon,97030-2509,http://www.capturedbyporches.com,5037586464,2018-07-24 01:34:04.765255,2018-08-24 15:45:54.226673,United States,-122.433903852349,45.5180508657718,
krauskis-brewskis-/-the-hoppy-brewer,Krauski's Brewskis / The Hoppy Brewer,micro,328 N Main Ave,Gresham,Oregon,97030-7210,http://www.oregonshoppyplace.com,5033288474,2018-07-24 01:34:06.387422,2018-08-24 16:02:26.967559,United States,-122.430839,45.4999224285714,
the-hop-haus,The Hop Haus,micro,2568 SW Orchard Ct,Gresham,Oregon,97080-9532,,5033108113,2018-07-24 01:34:08.058328,2018-08-24 16:05:19.092399,United States,-122.449773554501,45.4787523,
misty-mountain-brewery,Misty Mountain Brewery,brewpub,15440 Museum Rd Unit B,Harbor,Oregon,97415-9519,,5418132599,2018-07-24 01:34:06.938011,2018-08-11 21:39:16.253005,United States,,,
hermiston-brewing-co,Hermiston Brewing Co,brewpub,125 N 1st St,Hermiston,Oregon,97838-1850,,5412897415,2018-07-24 01:34:06.231569,2018-08-24 16:02:09.995621,United States,-119.290593462667,45.8409084,
ambacht-brewing,Ambacht Brewing,micro,1060 NE 25th Ave Ste B,Hillsboro,Oregon,97124-4903,http://www.ambacht.us,5038281400,2018-07-24 01:34:04.606291,2018-08-11 21:39:09.78623,United States,,,
deep-space-brewing-/-out-of-this-world-pizza,Deep Space Brewing / Out of This World Pizza,brewpub,6255 NE Century Blvd,Hillsboro,Oregon,97124-8621,,5036298700,2018-07-24 01:34:05.680111,2018-08-24 16:01:15.743353,United States,-122.912049,45.564963,
mcmenamins-cornelius-pass-roadhouse,McMenamins Cornelius Pass Roadhouse,brewpub,4045 NE Cornelius Pass Rd,Hillsboro,Oregon,97124-9367,http://www.mcmenamins.com,5036406174,2018-07-24 01:34:06.669798,2018-08-24 16:02:57.633656,United States,-122.9009845,45.5490862,
vertigo-brewing,Vertigo Brewing,micro,21420 NW Nicholas Ct Ste D-7,Hillsboro,Oregon,97124-6633,http://www.vertigobrew.com,5036456644,2018-07-24 01:34:08.242583,2018-08-11 21:39:20.617699,United States,,,
three-mugs-brewing-company,Three Mugs Brewing Company,micro,2020 NE Aloclek Dr Ste 108,Hillsboro,Oregon,97124-8053,http://threemugsbrewing.com,9713220232,2018-07-24 01:34:08.118334,2018-08-24 16:05:23.5931,United States,-122.8989637571,45.5346924222001,
big-horse-brewpub,Big Horse Brewpub,brewpub,115 State St,Hood River,Oregon,97031-2315,http://www.bighorsebrewpub.com,5413864411,2018-07-24 01:34:04.890045,2018-08-24 15:45:58.471254,United States,-121.5120956,45.7079528,
double-mountain-brewery,Double Mountain Brewery,micro,8 4th St Ste 204,Hood River,Oregon,97031-2123,http://www.doublemountainbrewery.com,5413870042,2018-07-24 01:34:05.771488,2018-08-11 21:39:13.100866,United States,,,
full-sail-brewing-co,Full Sail Brewing Co,regional,506 Columbia St,Hood River,Oregon,97031-2000,http://www.fullsailbrewing.com,5413862281,2018-07-24 01:34:05.996669,2018-08-24 16:01:45.633892,United States,-121.516530136046,45.7103609080879,
logsdon-farmhouse-ales,Logsdon Farmhouse Ales,micro,4785 Booth Hill Rd,Hood River,Oregon,97031-7411,http://www.farmhousebeer.com,5414909161,2018-07-24 01:34:06.47599,2018-08-24 16:02:35.957199,United States,-121.537583702572,45.5876398471728,
pfriem-family-brewers,PFriem Family Brewers,regional,707 Portway Ave Ste 101,Hood River,Oregon,97031-1218,http://www.pfriembeer.com,5413210490,2018-07-24 01:34:07.302494,2018-08-24 16:04:03.219137,United States,-121.51797,45.714751,
chatoe-rogue-farmstead-brewery,Chatoe Rogue Farmstead Brewery,micro,3590 Wigrich Rd,Independence,Oregon,97351-9708,http://www.rogue.com,5038389813,2018-07-24 01:34:05.398156,2018-08-11 21:39:12.005742,United States,,,
1188-brewing-co,1188 Brewing Co,brewpub,141 E Main St,John Day,Oregon,97845-1210,http://www.1188brewing.com,5415751188,2018-07-24 01:34:04.477151,2018-08-24 15:45:44.723192,United States,-118.9218754,44.4146563,
klamath-basin-brewing-co,Klamath Basin Brewing Co,brewpub,1320 Main St,Klamath Falls,Oregon,97601-5914,http://www.kbbrewing.com,5412735222,2018-07-24 01:34:06.3599,2018-08-24 16:02:23.880091,United States,-121.7763705,42.2280361,
mia-and-pias-pizzeria/brewhouse,Mia and Pias Pizzeria/Brewhouse,brewpub,3545 Summers Ln,Klamath Falls,Oregon,97603-7411,,5418844880,2018-07-24 01:34:06.900343,2018-08-24 16:03:23.025617,United States,-121.737571924922,42.1932497819248,
flyboy-brewing,FlyBoy Brewing,micro,15630 Boones Ferry Rd Ste 1A,Lake Oswego,Oregon,97035-3455,http://www.flyboybeer.com,5039081281,2018-07-24 01:34:05.940452,2018-08-11 21:39:13.519363,United States,,,
stickmen-brewery,Stickmen Brewery,brewpub,40 N State St,Lake Oswego,Oregon,97034-3926,,,2018-07-24 01:34:07.935261,2018-08-24 16:05:07.065958,United States,-122.6638277,45.4161533,
barsideous-brewing-co,Barsideous Brewing Co,brewpub,644 S Main St,Lebanon,Oregon,97355-3337,http://www.barsideousbrewing.com,5415701789,2018-07-24 01:34:04.777766,2018-08-24 15:45:54.742581,United States,-122.9070824,44.5247777,
conversion-brewing,Conversion Brewing,brewpub,833 S Main St,Lebanon,Oregon,97355-3211,http://www.conversionbrewingcompany.com,5412592337,2018-07-24 01:34:05.54327,2018-08-24 15:46:14.986145,United States,-122.9070824,44.5247777,
rusty-truck-brewing-company,Rusty Truck Brewing Company,brewpub,4649 SW Highway 101,Lincoln City,Oregon,97367-1557,http://www.rustytruckbrewing.com,5419947729,2018-07-24 01:34:07.637586,2018-08-24 16:04:38.553914,United States,-124.020991309017,44.9327331894951,
mcmenamins-lighthouse-brewery,McMenamins Lighthouse Brewery,brewpub,4157 NW Highway 101 Ste 117,Lincoln City,Oregon,97367-5050,http://www.mcmenamins.com,5419949628,2018-07-24 01:34:06.780948,2018-08-24 16:03:09.623794,United States,-124.005069392293,44.99673605,
allegory-brewing,Allegory Brewing,micro,777 NE 4th St,McMinnville,Oregon,97128-4502,http://www.allegorybrewing.com,9713731253,2018-07-24 01:34:04.592793,2018-08-24 15:45:48.550524,United States,-123.191780632618,45.2108191743635,
evasion-brewing-production-facility,Evasion Brewing - Production Facility,micro,4230 NE Riverside Dr,McMinnville,Oregon,97128-8403,http://www.evasionbrewing.com,5038355322,2018-07-24 01:34:05.847764,2018-08-24 16:01:30.658577,United States,-123.151961860307,45.2289999485343,
grain-station-brew-works,Grain Station Brew Works,brewpub,755 NE Alpine Ave Ste 200,McMinnville,Oregon,97128-4102,http://www.grainstation.com,5036872739,2018-07-24 01:34:06.133651,2018-08-11 21:39:14.056307,United States,,,
golden-valley-brewery-and-pub,Golden Valley Brewery and Pub,brewpub,980 NE 4th St,McMinnville,Oregon,97128-4308,,,2018-07-24 01:34:06.092746,2018-08-24 16:01:56.192011,United States,-123.189492489758,45.2106571311035,
heater-allen-brewery,Heater Allen Brewery,micro,907 NE 10th Ave,McMinnville,Oregon,97128-4003,http://www.heaterallen.com,5034724898,2018-07-24 01:34:06.214729,2018-08-24 16:02:08.539421,United States,-123.187972797883,45.2140723442996,
portal-brewing-co,Portal Brewing Co,brewpub,100 E 6th St,Medford,Oregon,97501-5902,http://www.portalbrewingco.com,5419410240,2018-07-24 01:34:07.354379,2018-08-24 16:04:09.68055,United States,-122.873661,42.326944,
table-rock-brewing-llc,Table Rock Brewing LLC,micro,825 Dakota Ave,Medford,Oregon,97501-3443,,5419440829,2018-07-24 01:34:08.003545,2018-08-24 16:05:13.070755,United States,-122.880767947368,42.316445631579,
common-block-brewing-company,Common Block Brewing Company,contract,315 E 5th Street,Medford,Oregon,97501,http://www.commonblockbrewing.com,5413262277,2018-07-24 01:34:05.517393,2018-08-24 15:46:14.085351,United States,-122.872489,42.3289615454545,
bricktowne-brewing-co,Bricktowne Brewing Co,brewpub,111 E 8th St,Medford,Oregon,97501-7201,http://www.bricktownebeer.com,5419732377,2018-07-24 01:34:05.226228,2018-08-24 15:46:04.746173,United States,-122.872152530612,42.3254454081633,
opposition-brewing-company,Opposition Brewing Company,micro,545 Rossanley Dr Ste 106,Medford,Oregon,97501-1771,http://www.oppositionbrewing.com,5412108550,2018-07-24 01:34:07.197171,2018-08-24 16:03:52.772103,United States,-122.895928035714,42.3406442857143,
osmos-alehouse,Osmo's Alehouse,micro,522 S Central Ave,Medford,Oregon,97501-7246,,5418420557,2018-07-24 01:34:07.250698,2018-08-24 16:03:57.19732,United States,-122.868327674699,42.32230437751,
ram-restaurant-and-brewery-medford,RAM Restaurant and Brewery - Medford,brewpub,165 Rossanley Dr,Medford,Oregon,97501-1777,,4582259816,2018-07-24 01:34:07.435024,2018-08-24 16:04:18.722594,United States,-122.8832971,42.343116,
walkabout-brewing-co,Walkabout Brewing Co,micro,921 Mason Way,Medford,Oregon,97501,,5417344677,2018-07-24 01:34:08.286033,2018-08-11 21:39:20.77817,United States,,,
dragons-gate-brewery,Dragon's Gate Brewery,micro,52288 Sunquist Rd,Milton Freewater,Oregon,97862-6856,http://www.dragonsgatebrewery.com,5412152622,2018-07-24 01:34:05.785059,2018-08-11 21:39:13.129508,United States,,,
breakside-brewery-and-taproom,Breakside Brewery & Taproom,regional,5821 SE International Way,Milwaukie,Oregon,97222-4633,http://www.breakside.com,5037196475,2018-07-24 01:34:05.03263,2018-08-24 15:46:02.776438,United States,-122.6032529,45.4317535,
oakenbrau,Oakenbrau,planning,,Milwaukie,Oregon,97267-3838,http://www.oakenbrau.com,9715063126,2018-07-24 01:34:07.085902,2018-08-11 21:39:16.764251,United States,,,
solera-brewery,Solera Brewery,micro,4945 Baseline Dr,Mount Hood Parkdale,Oregon,97041-,http://www.solerabrewery.com,5413525500,2018-07-24 01:34:07.882298,2018-08-11 21:39:19.319266,United States,,,
chehalem-valley-brewery,Chehalem Valley Brewery,brewpub,2515 Portland Rd Ste B,Newberg,Oregon,97132-1940,http://www.chehalemvalleybrewery.com,9718328131,2018-07-24 01:34:05.410581,2018-08-11 21:39:12.03907,United States,,,
long-brewing-llc,Long Brewing LLC,micro,,Newberg,Oregon,97132-7217,http://www.longbrewing.com,5033498341,2018-07-24 01:34:06.502337,2018-08-11 21:39:15.033566,United States,,,
wolves-and-people-farmhouse-brewery,Wolves & People Farmhouse Brewery,micro,30203 NE Benjamin Rd,Newberg,Oregon,97132-6910,http://www.wolvesandpeople.com,5034876873,2018-07-24 01:34:08.454256,2018-08-24 16:05:53.344759,United States,-122.928840922089,45.3148594577626,
rogue-ales-brewery,Rogue Ales Brewery,regional,2320 SE Osu Dr,Newport,Oregon,97365-5261,http://rogue.com,5032413800,2018-07-24 01:34:07.545884,2018-08-11 21:39:18.198654,United States,,,
bier-one-brewing,Bier One Brewing,brewpub,424 SW Coast Hwy,Newport,Oregon,97365-4930,http://www.bier-one.com,5412654630,2018-07-24 01:34:04.865169,2018-08-24 15:45:57.44333,United States,-124.0572864,44.6330765,
brewers-union-local-180,Brewers Union Local 180,brewpub,48329 E 1st St,Oakridge,Oregon,97463-9700,http://www.brewersunion.com,5417822024,2018-07-24 01:34:05.110229,2018-08-24 15:46:04.260908,United States,-122.45687865,43.7478831,
tandem-brewing-co,Tandem Brewing Co,brewpub,17 SE 3rd Ave,Ontario,Oregon,97914-2803,http://www.tandembrewing.com,2087416774,2018-07-24 01:34:08.019225,2018-08-24 16:05:14.576014,United States,-116.962771930002,44.0239107528541,
beer-valley-brewing-co,Beer Valley Brewing Co,micro,937 SE 12th Ave,Ontario,Oregon,97914-4473,http://www.beervalleybrewing.com,5418819088,2018-07-24 01:34:04.802511,2018-08-24 15:45:55.649033,United States,-116.953980599592,44.0150430706896,
bent-shovel-brewing,Bent Shovel Brewing,micro,21678 S Latourette Rd,Oregon City,Oregon,97045-9453,http://www.bentshovelbrewing.com,5038980220,2018-07-24 01:34:04.840087,2018-08-11 21:39:10.81334,United States,,,
coin-toss-brewing-co,Coin Toss Brewing Co,micro,14214 Fir St Ste H,Oregon City,Oregon,97045-6837,http://www.cointossbrewing.com,5033056220,2018-07-24 01:34:05.475837,2018-08-11 21:39:12.256357,United States,,,
feckin-brewery,Feckin Brewery,micro,415 S McLoughlin Blvd,Oregon City,Oregon,97045-3101,http://www.fecknbrew.com,5038805608,2018-07-24 01:34:05.900847,2018-08-24 16:01:35.180242,United States,-122.621790935111,45.3474038,
oregon-city-brewing-company,Oregon City Brewing Company,brewpub,1401 Washington St,Oregon City,Oregon,97045-1650,http://www.ocbeerco.com,5039081948,2018-07-24 01:34:07.225526,2018-08-24 16:03:54.244751,United States,-122.600148250406,45.3617756,
pelican-brewing-company,Pelican Brewing Company,regional,33180 Cape Kiwanda Dr,Pacific City,Oregon,97135-8012,http://www.pelicanbrewery.com,5039657007,2018-07-24 01:34:07.26304,2018-08-24 16:03:58.68788,United States,-123.969572369891,45.2155083180469,
prodigal-son-brewery-and-pub-the,"Prodigal Son Brewery and Pub, The",brewpub,230 SE Court Ave,Pendleton,Oregon,97801-2349,http://www.prodigalsonbrewery.com,5412766090,2018-07-24 01:34:07.395738,2018-08-24 16:04:14.263746,United States,-118.7848215,45.6733148,
wm-roesch-brewing-company,Wm Roesch Brewing Company,micro,250 SE 3rd St,Pendleton,Oregon,97801-2503,,5413773511,2018-07-24 01:34:08.42566,2018-08-24 16:05:50.451753,United States,-118.78425055102,45.6730681020408,
bierly-brewing-eats-and-treats,Bierly Brewing @ Eats and Treats,brewpub,1644 Main St,Philomath,Oregon,97370-9237,,5412575126,2018-07-24 01:34:04.877254,2018-08-24 15:45:58.029181,United States,-123.362541592213,44.5399359971412,
arlington-club,Arlington Club,micro,811 SW Salmon St,Portland,Oregon,97205-3094,http://www.thearlingtonclub.com,5032234141,2018-07-24 01:34:04.653457,2018-08-24 15:45:50.469081,United States,-122.681859641942,45.51786855,
cascade-brewing-barrel-house,Cascade Brewing Barrel House,micro,939 SE Belmont St,Portland,Oregon,97214-2519,http://www.cascadebrewing.com,5032658603,2018-07-24 01:34:05.354019,2018-08-24 15:46:08.535167,United States,-122.656005749976,45.5167536,
scout-beer,Scout Beer,micro,1516 SE 10th Ave,Portland,Oregon,97214-3585,http://www.scoutpdx.com,5032064735,2018-07-24 01:34:07.722783,2018-08-24 15:47:12.443175,United States,-122.655590489796,45.5120189183673,
full-sail-brewery-riverplace,Full Sail Brewery - Riverplace,micro,0307 SW Montgomery St,Portland,Oregon,97201-5125,http://www.fullsailbrewing.com,5032225343,2018-07-24 01:34:05.982286,2018-08-24 16:01:44.12711,United States,-122.673521447995,45.50957205,
laurelwood-public-house-and-brewery-se-portland,Laurelwood Public House & Brewery - SE Portland,brewpub,6716 SE Milwaukie Ave,Portland,Oregon,97202-5618,,5039436157,2018-07-24 01:34:06.412167,2018-08-24 16:02:29.973656,United States,-122.64849505,45.47415655,
mcmenamins-oak-hills-brewery,McMenamins Oak Hills Brewery,micro,14740 NW Cornell Rd Ste 80,Portland,Oregon,97229-5400,http://www.mcmenamins.com,5036450117,2018-07-24 01:34:06.806241,2018-08-24 16:03:12.648219,United States,-122.7105079,45.5330425,
vanport-brewing-company,Vanport Brewing Company,planning,,Portland,Oregon,97211-2907,,5032670219,2018-07-24 01:34:08.227791,2018-08-11 21:39:20.562474,United States,,,
great-notion-brewing-nw,Great Notion Brewing NW,micro,2444 NW 28th Ave,Portland,Oregon,97210,,5035484491,2018-07-24 01:34:06.16101,2018-08-24 16:02:02.284407,United States,-122.708959927223,45.5400197466401,
stormbreaker-brewing,StormBreaker Brewing,brewpub,832 N Beech St,Portland,Oregon,97227-1215,,,2018-07-24 01:34:07.947593,2018-08-24 16:05:08.555748,United States,-122.675157299793,45.54943475,
10-barrel-brewing-co,10 Barrel Brewing Co,large,1411 NW Flanders St,Portland,Oregon,97209-2620,http://www.10barrel.com,5032241700,2018-07-24 01:34:04.440704,2018-08-24 15:45:43.287265,United States,-122.685505575334,45.5259786,
13-virtues-brewing-co,13 Virtues Brewing Co,brewpub,6410 SE Milwaukie Ave,Portland,Oregon,97202-5518,http://www.13virtuesbrewing.com,5032393831,2018-07-24 01:34:04.489482,2018-08-24 15:45:45.17839,United States,-122.648753114062,45.4762536,
alameda-brewing-co,Alameda Brewing Co,micro,4736 SE 24th Ave,Portland,Oregon,97202-4787,,5034609025,2018-07-24 01:34:04.553007,2018-08-24 15:45:47.141344,United States,-122.641249469587,45.48882655,
assembly-brewing,Assembly brewing,planning,,Portland,Oregon,97206-3739,http://www.assemblybrewingco.com,5037299080,2018-07-24 01:34:04.666937,2018-08-11 21:39:09.967653,United States,,,
brewery-26,Brewery 26,micro,,Portland,Oregon,97218-2175,http://www.brewery26.com,5037542250,2018-07-24 01:34:05.144447,2018-08-11 21:39:11.435969,United States,,,
brewery-in-planning-portland,Brewery In Planning - Portland,planning,,Portland,Oregon,97213,,,2018-07-24 01:34:05.212945,2018-08-11 21:39:11.596121,United States,,,
back-pedal-brewing-company,Back Pedal Brewing Company,micro,1425 NW Flanders St,Portland,Oregon,97209-2620,http://backpedalbrewing.com,9714005950,2018-07-24 01:34:04.692587,2018-08-24 15:45:51.400026,United States,-122.68565615,45.52597595,
baerlic-brewing-co,Baerlic Brewing Co,micro,2235 SE 11th Ave,Portland,Oregon,97214-5303,http://www.baerlicbrewing.com,5034779418,2018-07-24 01:34:04.716489,2018-08-24 15:45:52.324012,United States,-122.655082764836,45.50680595,
base-camp-brewing-co,Base Camp Brewing Co,micro,930 SE Oak St,Portland,Oregon,97214-1307,http://www.basecampbrewingco.com,5034777479,2018-07-24 01:34:04.790102,2018-08-24 15:45:55.193558,United States,-122.65611084313,45.5198818,
breakside-brewery,Breakside Brewery,brewpub,820 NE Dekum St,Portland,Oregon,97211-3630,http://www.breakside.com,5037196475,2018-07-24 01:34:04.992341,2018-08-24 15:46:02.35129,United States,-122.657116959184,45.5716937959184,
breakside-brewery-slabtown,Breakside Brewery Slabtown,brewpub,1570 NW 22nd Ave,Portland,Oregon,97210-2369,http://breakside.com,5034447597,2018-07-24 01:34:05.046316,2018-08-24 15:46:03.333198,United States,-122.696613142857,45.5338498571429,
brewed-by-gnomes,Brewed By Gnomes,contract,1735 SE 33rd Ave,Portland,Oregon,97214-5024,,,2018-07-24 01:34:05.059004,2018-08-24 15:46:03.800823,United States,-122.63085305,45.51021595,
bridgeport-brewing-co,BridgePort Brewing Co,regional,1318 NW Northrup St,Portland,Oregon,97209-2808,http://www.bridgeportbrew.com,5032417179,2018-07-24 01:34:05.253268,2018-08-24 15:46:05.7152,United States,-122.684860125652,45.53133335,
burnside-brewing-co,Burnside Brewing Co,micro,701 E Burnside St,Portland,Oregon,97214-1218,http://www.burnsidebrewco.com,5032083476,2018-07-24 01:34:05.296048,2018-08-24 15:46:06.642482,United States,-122.6584695,45.5233261,
cascade-brewing,Cascade Brewing,brewpub,7424 SW Beaverton Hillsdale Hwy,Portland,Oregon,97225-2149,http://www.cascadebrewing.com,5032960110,2018-07-24 01:34:05.339715,2018-08-24 15:46:08.053402,United States,-122.699417,45.478513,
coalition-brewing-co,Coalition Brewing Co,micro,2705 SE Ankeny St Ste C,Portland,Oregon,97214-1817,http://www.coalitionbrewing.com,5038948080,2018-07-24 01:34:05.462827,2018-08-11 21:39:12.222229,United States,,,
culmination-brewing-co,Culmination Brewing Co,micro,2117 NE Oregon St Ste 600,Portland,Oregon,97232-2796,http://www.culminationbrewing.com,9712549114,2018-07-24 01:34:05.624501,2018-08-11 21:39:12.676886,United States,,,
ecliptic-brewing,Ecliptic Brewing,micro,825 N Cook St,Portland,Oregon,97227-1503,http://www.eclipticbrewing.com,5032658002,2018-07-24 01:34:05.822865,2018-08-24 16:01:29.190077,United States,-122.675118549414,45.54737005,
ex-novo-brewing-co,Ex Novo Brewing Co,micro,2326 N Flint Ave,Portland,Oregon,97227-1905,http://www.exnovobrew.com,5038948251,2018-07-24 01:34:05.860353,2018-08-24 16:01:32.154642,United States,-122.66841465,45.54002045,
fire-on-the-mountain-brewing-co,Fire On the Mountain Brewing Co,brewpub,3443 NE 57th Ave,Portland,Oregon,97213-3351,http://www.portlandwings.com,5038948973,2018-07-24 01:34:05.914173,2018-08-24 16:01:36.686471,United States,-122.6049402,45.5480432,
funhouse-brews,Funhouse Brews,micro,7717 N Emerald Ave Unit A,Portland,Oregon,97217-6111,http://www.funhousebrews.com,3147532669,2018-07-24 01:34:06.013044,2018-08-11 21:39:13.73048,United States,,,
great-notion-brewing,Great Notion Brewing,brewpub,2204 NE Alberta St Ste 101,Portland,Oregon,97211-5885,http://www.greatnotionpdx.com,5035484491,2018-07-24 01:34:06.14744,2018-08-11 21:39:14.103958,United States,,,
gateway-brewing-inc,"Gateway Brewing, Inc",micro,114 NE 133rd Ave,Portland,Oregon,97230-2528,http://gatewaybrewingpdx.com,5039759103,2018-07-24 01:34:06.038992,2018-08-24 16:01:50.054876,United States,-122.5257352,45.5239106,
gigantic-brewing-co,Gigantic Brewing Co,micro,5224 SE 26th Ave,Portland,Oregon,97202-4627,http://www.giganticbrewing.com,5032083416,2018-07-24 01:34:06.065747,2018-08-24 16:01:53.132208,United States,-122.639209160382,45.48500105,
ground-breaker-brewing,Ground Breaker Brewing,brewpub,715 SE Lincoln St,Portland,Oregon,97214-4600,http://www.harvesterbrewing.com,5039284195,2018-07-24 01:34:06.186239,2018-08-24 16:02:05.391645,United States,-122.658369725108,45.50809545,
hair-of-the-dog-brewing-co,Hair of the Dog Brewing Co,brewpub,61 SE Yamhill St,Portland,Oregon,97214-2134,http://www.hairofthedog.com,5032326585,2018-07-24 01:34:06.199028,2018-08-24 16:02:07.044583,United States,-122.6655236,45.5160413,
hopworks-urban-brewery,Hopworks Urban Brewery,micro,2944 SE Powell Blvd,Portland,Oregon,97202-2054,http://www.hopworksbeer.com,5032324677,2018-07-24 01:34:06.297115,2018-08-24 16:02:16.406927,United States,-122.634827,45.4968753,
kells-brew-pub,Kells Brew Pub,brewpub,210 NW 21st Ave,Portland,Oregon,97209-1004,http://Kellsbrewpub.com,5037197175,2018-07-24 01:34:06.347331,2018-08-24 16:02:22.379835,United States,-122.6941546,45.52447285,
labrewatory,LABrewatory,micro,670 N Russell St,Portland,Oregon,97227-1728,http://www.thelabrewatory.com,9712718151,2018-07-24 01:34:06.399417,2018-08-24 16:02:28.515904,United States,-122.673082571429,45.5409227142857,
laurelwood-public-house-and-brewery-ne,Laurelwood Public House and Brewery - NE,micro,5115 NE Sandy Blvd,Portland,Oregon,97213-2525,http://laurelwoodbrewingco.com,5032820622,2018-07-24 01:34:06.425524,2018-08-24 16:02:31.517946,United States,-122.61067265665,45.54014675,
level-beer,Level Beer,micro,5211 NE 148th Ave,Portland,Oregon,97230-3434,http://www.levelbeer.com,5037141222,2018-07-24 01:34:06.450791,2018-08-24 16:02:32.997867,United States,-122.511027517544,45.560506,
look-long-brewing-company,Look Long Brewing Company,micro,6550 N Interstate Ave,Portland,Oregon,97217-4836,http://www.looklongbrewingcompany.com,5032860343,2018-07-24 01:34:06.514893,2018-08-24 16:02:39.003187,United States,-122.6818062,45.57066185,
lucky-labrador-beer-hall,Lucky Labrador Beer Hall,brewpub,1945 NW Quimby St,Portland,Oregon,97209-1712,http://www.luckylab.com,5035174352,2018-07-24 01:34:06.539486,2018-08-24 16:02:41.92179,United States,-122.691736156892,45.53370375,
lucky-labrador-brewpub,Lucky Labrador Brewpub,micro,915 SE Hawthorne Blvd,Portland,Oregon,97214-3545,http://www.luckylab.com,5032363555,2018-07-24 01:34:06.551782,2018-08-24 16:02:43.430419,United States,-122.656414863274,45.51247125,
madcow-brewing-co,Madcow Brewing Co.,micro,206 SE 166th Ave,Portland,Oregon,97233-4202,http://www.madcowbrewing.com,,2018-07-24 01:34:06.564408,2018-08-24 16:02:44.908,United States,-122.4924064,45.5034238,
maxs-fanno-creek-brew-pub,Max's Fanno Creek Brew Pub,brewpub,12562 SW Main St,Portland,Oregon,97223-6195,http://www.maxsfannocreek.com,5036249400,2018-07-24 01:34:06.590117,2018-08-24 16:02:48.56444,United States,-122.6771146,45.5156226,
migration-brewing-co,Migration Brewing Co,brewpub,2828 NE Gilsan St,Portland,Oregon,97232,http://www.migrationbrewing.com,5032065221,2018-07-24 01:34:06.912929,2018-08-11 21:39:16.187815,United States,,,
migration-brewing-co,Migration Brewing Co,micro,1818 NE Wilkes Rd,Portland,Oregon,97230,,,2018-07-24 01:34:06.925354,2018-08-11 21:39:16.224015,United States,,,
occidental-brewing,Occidental Brewing,micro,6635 N Baltimore Ave Ste 100,Portland,Oregon,97203-5465,http://www.occidentalbrewing.com,5037197102,2018-07-24 01:34:07.12519,2018-08-11 21:39:16.897502,United States,,,
old-town-brewing,Old Town Brewing,brewpub,5201 NE M L King Blvd,Portland,Oregon,97211-3235,http://www.otbrewing.com,5032005988,2018-07-24 01:34:07.183762,2018-08-11 21:39:17.090695,United States,,,
mcmenamins-breweries,McMenamins Breweries,micro,430 N Killingsworth St,Portland,Oregon,97217-2441,http://www.mcmenamins.com,5032230109,2018-07-24 01:34:06.643679,2018-08-24 16:02:54.688405,United States,-122.6708111765,45.5624447,
mcmenamins-concordia-brewery-at-kennedy-school,McMenamins Concordia Brewery at Kennedy School,brewpub,5736 NE 33rd Ave,Portland,Oregon,97211-7302,http://www.mcmenamins.com,5032881937,2018-07-24 01:34:06.6568,2018-08-24 16:02:56.161059,United States,-122.629969421269,45.56447065,
mcmenamins-crystal-ballroom-brewery,McMenamins Crystal Ballroom Brewery,brewpub,1332 W Burnside St,Portland,Oregon,97209-2612,http://www.mcmenamins.com,5037785625,2018-07-24 01:34:06.682973,2018-08-24 16:02:59.092821,United States,-122.6850673,45.5228146,
mcmenamins-fulton-pub-and-brewery,McMenamins Fulton Pub and Brewery,micro,0618 SW Nebraska St,Portland,Oregon,97239-3556,http://www.mcmenamins.com,5032464363,2018-07-24 01:34:06.708862,2018-08-24 16:03:02.051768,United States,-122.672622265963,45.47711805,
mcmenamins-hillsdale-brewery-and-public-house,McMenamins Hillsdale Brewery and Public House,micro,1505 SW Sunset Blvd,Portland,Oregon,97239-2625,http://www.mcmenamins.com,5032931753,2018-07-24 01:34:06.750632,2018-08-24 16:03:06.453403,United States,-122.6936922,45.4792439,
modern-times-the-belmont-fermentorium,Modern Times - The Belmont Fermentorium,brewpub,630 SE Belmont St,Portland,Oregon,97214-2372,,,2018-07-24 01:34:06.950421,2018-08-24 16:03:28.994345,United States,-122.6590469,45.516294,
moonshrimp-brewing,Moonshrimp Brewing,micro,8428 SW 22nd Ave,Portland,Oregon,97219-2856,http://www.moonshrimpbrewing.com,5039702234,2018-07-24 01:34:06.990559,2018-08-24 16:03:33.495675,United States,-122.700080917205,45.4637206,
old-market-pub-and-brewery,Old Market Pub and Brewery,brewpub,6959 SW Multnomah Blvd,Portland,Oregon,97223-3439,http://www.drinkbeerhere.com,5032440450,2018-07-24 01:34:07.169655,2018-08-24 16:03:49.788638,United States,-122.748671455558,45.46603555,
pints-brewing-company-and-urban-taproom,PINTS Brewing Company and Urban Taproom,micro,412 NW 5th Ave Suite 200,Portland,Oregon,97209-3893,http://www.pintsbrewing.com,5035642739,2018-07-24 01:34:07.315134,2018-08-11 21:39:17.533917,United States,,,
royale-brewing-company,Royale Brewing Company,micro,55 NE Farragut St Ste 6,Portland,Oregon,97211-2245,http://www.royalebeer.com,9712795587,2018-07-24 01:34:07.5908,2018-08-11 21:39:18.318632,United States,,,
pono-brewing-company,Pono Brewing Company,contract,5716 SE 92nd Ave,Portland,Oregon,97266-4659,http://www.ponobrewing.com,5034328400,2018-07-24 01:34:07.341116,2018-08-24 16:04:08.1289,United States,-122.5679347,45.4808905,
portland-brewing/north-american-breweries,Portland Brewing/North American Breweries,regional,2730 NW 31st Ave,Portland,Oregon,97210-1718,http://www.portlandbrewing.com,5032267623,2018-07-24 01:34:07.367377,2018-08-24 16:04:11.269601,United States,-122.713089007345,45.54176525,
portland-u-brew-and-pub,Portland U-Brew & Pub,brewpub,6237 SE Milwaukie Ave,Portland,Oregon,97202-,http://www.portlandubrewandpub.com,5039432727,2018-07-24 01:34:07.381504,2018-08-24 16:04:12.800115,United States,-122.649392986749,45.47740515,
rock-bottom-brewery-portland,Rock Bottom Brewery - Portland,brewpub,206 SW Morrison St,Portland,Oregon,97204-3107,http://www.rockbottom.com,5037962739,2018-07-24 01:34:07.531582,2018-08-24 16:04:27.85941,United States,-122.6749783,45.5178662,
rogue-east-side-pub-and-pilot-brewery,Rogue East Side Pub & Pilot Brewery,micro,909 SE Yamhill St,Portland,Oregon,97214-2533,http://www.buckmanbrewing.com,5032413800,2018-07-24 01:34:07.560642,2018-08-24 16:04:30.880835,United States,-122.656467040816,45.5158688367347,
rosenstadt-brewery-llc,Rosenstadt Brewery LLC,micro,4110 SE Hawthorne Blvd # 735,Portland,Oregon,97214-5246,http://www.rosenstadtbrewery.com,,2018-07-24 01:34:07.577916,2018-08-24 16:04:32.436248,United States,-122.6199320937,45.5118679,
ruse-brewing-llc,"Ruse Brewing, LLC.",proprietor,4784 SE 17th Ave,Portland,Oregon,97202,http://www.rusebrewing.com,5036628325,2018-07-24 01:34:07.618413,2018-08-24 16:04:37.029131,United States,-122.6470059,45.4593922,
sasquatch-brewery,Sasquatch Brewery,micro,2531 NW 30th Ave,Portland,Oregon,97210-2015,http://www.sasquatchbrewery.com,5038415687,2018-07-24 01:34:07.694372,2018-08-24 16:04:44.584861,United States,-122.712570924623,45.5400892211055,
sasquatch-pub,Sasquatch Pub,brewpub,6440 SW Capitol Hwy.,Portland,Oregon,97239,,5038415687,2018-07-24 01:34:07.707443,2018-08-24 16:04:46.081205,United States,-122.698813209433,45.4776303,
second-profession-brewing-company,Second Profession Brewing Company,brewpub,5846 NE Sandy Blvd,Portland,Oregon,97213-3436,http://www.secondprofessionbrewing.com,5032885882,2018-07-24 01:34:07.751142,2018-08-24 16:04:49.153109,United States,-122.498321,45.5499485,
super-brewing-company-llc,Super Brewing Company LLC,planning,,Portland,Oregon,97202,,5037193435,2018-07-24 01:34:07.987442,2018-08-11 21:39:19.606286,United States,,,
upright-brewing-co,Upright Brewing Co,micro,240 N Broadway Ste 2,Portland,Oregon,97227-1880,http://www.uprightbrewing.com,,2018-07-24 01:34:08.172837,2018-08-11 21:39:20.014152,United States,,,
von-ebert-brewing,Von Ebert Brewing,planning,,Portland,Oregon,97230,,,2018-07-24 01:34:08.270815,2018-08-11 21:39:20.738367,United States,,,
uptown-market-brewing,Uptown Market Brewing,micro,6620 SW Scholls Ferry Rd,Portland,Oregon,97223-7166,http://www.uptownmarketpdx.com,5033364783,2018-07-24 01:34:08.186505,2018-08-24 16:05:31.177952,United States,-122.7423002,45.4958797,
von-ebert-brewing,Von Ebert Brewing,brewpub,131 NW 13th Ave,Portland,Oregon,97209-4110,http://vonebertbrewing.com,5038207721,2018-07-24 01:34:08.257769,2018-08-24 16:05:37.128192,United States,-122.684305755102,45.5238972653061,
wayfinder-beer,Wayfinder Beer,brewpub,304 SE 2nd Ave,Portland,Oregon,97214-1008,http://www.wayfinder.beer,5037182337,2018-07-24 01:34:08.31366,2018-08-24 16:05:40.037122,United States,-122.663488099778,45.5208914,
widmer-brothers-brewing,Widmer Brothers Brewing,regional,929 N Russell St,Portland,Oregon,97227-1733,,5032812437,2018-07-24 01:34:08.355375,2018-08-24 16:05:44.516781,United States,-122.676298285714,45.5410952857143,
zoiglhaus-brewing-company,Zoiglhaus Brewing Company,brewpub,5716 SE 92nd Ave,Portland,Oregon,97266-4659,http://www.zoiglhaus.com,9713392374,2018-07-24 01:34:08.513419,2018-08-24 16:05:57.716839,United States,-122.5679347,45.4808905,
grixsen-brewing-co,Grixsen Brewing Co,micro,1001 SE Division St Ste 1,Portland,Oregon,97202-1076,http://www.grixsen.com,9713473100,2018-07-24 01:34:06.173446,2018-08-11 21:39:14.190569,United States,,,
lompoc-brewing-llc/-the-5th-quadrant,"Lompoc Brewing, LLC/ The 5th Quadrant",brewpub,3901 N Williams Ave Ste B,Portland,Oregon,97227-1465,http://www.newoldlompoc.com/5thquadranthome.html,5032883996,2018-07-24 01:34:06.489313,2018-08-11 21:39:14.998122,United States,,,
alameda-brewing-co,Alameda Brewing Co,micro,4765 NE Fremont St,Portland,Oregon,97213-1724,http://www.alamedabrewing.com,5034609025,2018-07-24 01:34:04.539772,2018-08-24 15:45:46.71551,United States,-122.613620946786,45.54849565,
columbia-river-brewing-co,Columbia River Brewing Co,brewpub,1728 NE 40th Ave,Portland,Oregon,97212-5306,http://www.columbiariverbrewpub.com,5039436157,2018-07-24 01:34:05.504303,2018-08-24 15:46:13.613781,United States,-122.6217524,45.5357321,
deschutes-brewery-and-public-house,Deschutes Brewery & Public House,brewpub,210 NW 11th Ave,Portland,Oregon,97209-2929,http://www.deschutesbrewery.com,5032964906,2018-07-24 01:34:05.744833,2018-08-24 16:01:21.754685,United States,-122.681880808861,45.52468,
montavilla-brew-works,Montavilla Brew Works,micro,7805 SE Stark St,Portland,Oregon,97215-2339,http://www.montavillabrew.com,5039543440,2018-07-24 01:34:06.976739,2018-08-24 16:03:32.011697,United States,-122.58335572513,45.5193212,
mt-tabor-brewing-co,Mt Tabor Brewing Co,micro,124 SE 11th Ave,Portland,Oregon,97214-1354,http://www.mttaborbrewing.com,3605678199,2018-07-24 01:34:07.031411,2018-08-24 16:03:37.915053,United States,-122.654188025389,45.52171275,
natian-brewery,Natian Brewery,micro,1321 NE Couch St,Portland,Oregon,97232-3007,http://www.natianbrewery.com,9716787116,2018-07-24 01:34:07.045597,2018-08-24 16:03:39.389065,United States,-122.652973345472,45.5249032,
stormbreaker-brewing-st-johns,StormBreaker Brewing St. Johns,brewpub,8409 N Lombard St,Portland,Oregon,97203,http://www.stormbreakerbrewing.com,9712551481,2018-07-24 01:34:07.960768,2018-08-24 16:05:10.161862,United States,-122.753038,45.58988575,
ochoco-brewing-co,Ochoco Brewing Co,micro,380 N Main St,Prineville,Oregon,97754-1852,http://www.ochocobrewing.com,5412330883,2018-07-24 01:34:07.138535,2018-08-24 16:03:46.774106,United States,-120.846967510482,44.3035904064028,
wild-ride-brewing,Wild Ride Brewing,micro,332 SW 5th St,Redmond,Oregon,97756-2103,http://www.wildridebrew.com,5415168544,2018-07-24 01:34:08.369217,2018-08-24 16:05:46.014254,United States,-121.173076419679,44.2739129418471,
cascade-lakes-brewing-co,Cascade Lakes Brewing Co,micro,2141 SW 1st St,Redmond,Oregon,97756-7131,http://www.cascadelakes.com,5419233110,2018-07-24 01:34:05.381834,2018-08-11 21:39:11.971284,United States,,,
geist-beerworks,Geist Beerworks,micro,736 SW Umatilla Ave Suite F,Redmond,Oregon,97756,,5417288663,2018-07-24 01:34:06.05191,2018-08-11 21:39:13.82115,United States,,,
kobold-brewing,Kobold Brewing,micro,245 SW 6th St,Redmond,Oregon,97756-2108,http://www.koboldbrewing.com,5416783884,2018-07-24 01:34:06.374236,2018-08-24 16:02:25.411865,United States,-121.174408562221,44.2749960408258,
silver-moon-brewing,Silver Moon Brewing,micro,2095 SW Badger Ave,Redmond,Oregon,97756-8164,http://www.SilverMoonBrewing.com,5413888331,2018-07-24 01:34:07.816716,2018-08-24 16:04:55.040698,United States,-121.192157,44.2375883,
smith-rock-brewing,Smith Rock Brewing,brewpub,546 NW 7th St,Redmond,Oregon,97756-1628,http://www.smithrockbrewing.com,5412797005,2018-07-24 01:34:07.858095,2018-08-24 16:04:59.558025,United States,-121.175239,44.2805630159867,
defeat-river-brewery,Defeat River Brewery,micro,473 Fir Avenue,Reedsport,Oregon,97467,http://www.defeatriverbrewery.com,5418088862,2018-07-24 01:34:05.693725,2018-08-24 16:01:17.232241,United States,-124.09740210961,43.7023447057544,
backside-brewing-co,Backside Brewing Co,brewpub,1640 NE Odell Ave,Roseburg,Oregon,97470-3320,http://www.backsidebrewingco.com,5415801906,2018-07-24 01:34:04.704403,2018-08-24 15:45:51.872149,United States,-123.337788095084,43.2144983853367,
draper-brewing,Draper Brewing,micro,640 SE Jackson St,Roseburg,Oregon,97470,http://www.draperbrewing.com,5415805585,2018-07-24 01:34:05.79756,2018-08-24 16:01:26.213103,United States,-123.3445979,43.2084738,
north-forty-beer-company,North Forty Beer Company,planning,,Roseburg,Oregon,97470-4945,http://www.northfortybeer.com,5413216636,2018-07-24 01:34:07.072985,2018-08-11 21:39:16.718537,United States,,,
old-99-brewing-co,Old 99 Brewing Co,micro,3750 Hooker Rd Ste A,Roseburg,Oregon,97470-4501,http://www.old99brewing.com,5417848012,2018-07-24 01:34:07.153814,2018-08-11 21:39:16.992174,United States,,,
mcmenamins-roseburg-station-brewery,McMenamins Roseburg Station Brewery,micro,700 SE Sheridan St,Roseburg,Oregon,97470-3470,http://www.mcmenamins.com,5416721934,2018-07-24 01:34:06.860475,2018-08-24 16:03:18.618168,United States,-123.349051,43.208554,
two-shy-brewing,Two-Shy Brewing,micro,1308 NW Park St Ste 100,Roseburg,Oregon,97470-2058,http://www.twoshybrewing.com,5412362055,2018-07-24 01:34:08.157968,2018-08-11 21:39:19.98492,United States,,,
running-dogs-brewery,Running Dogs Brewery,proprietor,"291 S 1st St, St.",Saint Helens,Oregon,97051,http://www.runningdogsbrewery.com,5033971103,2018-07-24 01:34:07.605124,2018-08-11 21:39:18.401142,United States,,,
bine-valley-brewing,Bine Valley Brewing,micro,2027 25th St SE,Salem,Oregon,97302-1130,http://www.binebrews.com,7602249889,2018-07-24 01:34:04.913652,2018-08-24 15:45:59.437115,United States,-123.010424806815,44.9208396400313,
gilgamesh-brewing-co,Gilgamesh Brewing Co,micro,2065 Madrona Ave SE,Salem,Oregon,97302-1010,http://gilgameshbrewing.com,9702014409,2018-07-24 01:34:06.07896,2018-08-24 16:01:54.700075,United States,-123.019117754681,44.9050457598775,
mcmenamins-thompson-brewery,McMenamins Thompson Brewery,micro,3575 Liberty Rd S,Salem,Oregon,97302-5621,http://www.mcmenamins.com,5033712945,2018-07-24 01:34:06.873455,2018-08-24 16:03:20.077486,United States,-123.051309,44.904043,
ram-restaurant-and-brewery-salem,RAM Restaurant and Brewery - Salem,brewpub,515 12th St SE,Salem,Oregon,97301-4034,http://www.theram.com,5033631904,2018-07-24 01:34:07.449475,2018-08-24 16:04:20.342866,United States,-123.0292121,44.932777,
ratchet-brewery,Ratchet Brewery,brewpub,2701 22nd St SE,Salem,Oregon,97302-1553,,5035809864,2018-07-24 01:34:07.464793,2018-08-24 16:04:21.876691,United States,-123.017376175452,44.9141815841739,
salem-ale-works,Salem Ale Works,micro,2315 25th St SE,Salem,Oregon,97302-1145,http://www.aleinsalem.com,5039908486,2018-07-24 01:34:07.651006,2018-08-24 16:04:40.078105,United States,-123.010396800691,44.9199888811689,
vagabond-brewing,Vagabond Brewing,brewpub,2195 Hyacinth St NE Ste 172,Salem,Oregon,97301-3118,http://www.vagabondbrewing.com,5035129007,2018-07-24 01:34:08.199861,2018-08-11 21:39:20.464381,United States,,,
xicha-brewing-co,Xicha Brewing Co.,brewpub,"576 Patterson Street NW, Suite 140",Salem,Oregon,97304,https://www.xichabrewing.com,5039908292,2018-07-24 01:34:08.484322,2018-08-11 21:39:21.376319,United States,,,
santiam-brewing-co,Santiam Brewing Co,micro,2544 19th St SE,Salem,Oregon,97302-1501,http://www.santiambrewing.com,5035075257,2018-07-24 01:34:07.681608,2018-08-24 16:04:43.101117,United States,-123.020908362525,44.9164466517722,
bunsenbrewer,Bunsenbrewer,brewpub,16506 362nd Dr,Sandy,Oregon,97055-9279,http://www.bunsenbrewer.com,5033083150,2018-07-24 01:34:05.267589,2018-08-11 21:39:11.729778,United States,,,
wolf-tree-brewery,Wolf Tree Brewery,micro,199 N Wolkau Rd,Seal Rock,Oregon,97376-9526,http://www.wolftreebrewery.com,5419612022,2018-07-24 01:34:08.440455,2018-08-11 21:39:21.258011,United States,,,
damarkom-inc,"DAMARKOM, INC.",planning,,Seaside,Oregon,97138-5803,,,2018-07-24 01:34:05.638203,2018-08-11 21:39:12.706214,United States,,,
seaside-brewery,Seaside Brewery,brewpub,851 Broadway St,Seaside,Oregon,97138-6823,http://www.seasidebrewery.com,5037175451,2018-07-24 01:34:07.736802,2018-08-24 16:04:47.546017,United States,-123.922384151515,45.9929926060606,
smockville-brewhouse,Smockville Brewhouse,brewpub,22793 SW Pine St,Sherwood,Oregon,97140-9303,http://www.smockvillebrewhouse.com,5036101506,2018-07-24 01:34:07.870301,2018-08-24 16:05:01.092356,United States,-122.8406694,45.3566248,
two-kilts-brewing,Two Kilts Brewing,micro,14841 SW Tualatin Sherwood Rd Ste 501,Sherwood,Oregon,97140-7127,http://www.twokiltsbrewing.com,5036251700,2018-07-24 01:34:08.143643,2018-08-24 16:05:26.648634,United States,-122.830880223407,45.3677330501102,
seven-brides-brewery,Seven Brides Brewery,micro,990 North First Street,Silverton,Oregon,97381,http://www.sevenbridesbrewing.com,5038744677,2018-07-24 01:34:07.764103,2018-08-11 21:39:18.949224,United States,,,
silver-falls-brewery,Silver Falls Brewery,micro,207 Jersey St,Silverton,Oregon,97381,http://www.silverfallsbrewery.com,5038733022,2018-07-24 01:34:07.789647,2018-08-24 16:04:52.048217,United States,-122.782140236887,45.0042198398577,
three-creeks-production,Three Creeks Production,micro,265 E. Barclay Dr.,Sisters,Oregon,97759-9514,,5415491963,2018-07-24 01:34:08.104792,2018-08-11 21:39:19.872251,United States,,,
three-creeks-brewing-co,Three Creeks Brewing Co,brewpub,721 Desperado Ct,Sisters,Oregon,97759-9514,http://www.threecreeksbrewing.com,5415491963,2018-07-24 01:34:08.090823,2018-08-24 16:05:22.10683,United States,-121.534944,44.285254,
plank-town-brewing,Plank Town Brewing,micro,346 Main St,Springfield,Oregon,97477-5362,http://planktownbrewing.com,4582017039,2018-07-24 01:34:07.328533,2018-08-24 16:04:06.479528,United States,-123.021446840161,44.0462730752437,
hop-valley-brewing-co,Hop Valley Brewing Co,large,980 Kruse Way,Springfield,Oregon,97477-1073,http://www.hopvalleybrewing.com,5417443330,2018-07-24 01:34:06.283337,2018-08-24 16:02:14.815935,United States,-123.039979613407,44.0827062376223,
sunriver-brewing,Sunriver Brewing,micro,56840 Venture Ln,Sunriver,Oregon,97707-2100,http://www.sunriverbrewingcompany.com,5413065188,2018-07-24 01:34:07.974194,2018-08-11 21:39:19.572308,United States,,,
good-earth-brewing,Good Earth Brewing,planning,,Terrebonne,Oregon,97760-9709,http://www.goodearthbrewing.com,5598609998,2018-07-24 01:34:06.105781,2018-08-11 21:39:13.973618,United States,,,
freebridge-brewing,Freebridge Brewing,brewpub,710 E 2nd St Ste 1,The Dalles,Oregon,97058-2400,http://www.freebridgebrewing.com,5417691234,2018-07-24 01:34:05.968978,2018-08-11 21:39:13.589643,United States,,,
mcmenamins-john-barleycorns,McMenamins John Barleycorns,brewpub,14610 SW Sequoia Pkwy,Tigard,Oregon,97224-7185,http://www.mcmenamins.com,5036846253,2018-07-24 01:34:06.76733,2018-08-24 16:03:08.015681,United States,-122.746646597164,45.41452585,
de-garde-brewing,De Garde Brewing,micro,114 Ivy Ave,Tillamook,Oregon,97141-2214,http://www.degardebrewing.com/,5038151635,2018-07-24 01:34:05.651973,2018-08-24 16:01:12.852519,United States,-123.845403474896,45.45730575,
pelican-brewing-company-tillamook,Pelican Brewing Company - Tillamook,micro,1708 1st St,Tillamook,Oregon,97141-2104,,5039657007,2018-07-24 01:34:07.28849,2018-08-24 16:04:01.693149,United States,-123.846299061373,45.4578920701475,
werner-brewing-company,Werner Brewing Company,micro,2807 3rd St,Tillamook,Oregon,97141,,5038126040,2018-07-24 01:34:08.328256,2018-08-24 16:05:41.580593,United States,-123.8425805,45.4563275,
mcmenamins-edgefield-brewery,McMenamins Edgefield Brewery,micro,2126 SW Halsey St,Troutdale,Oregon,97060-1026,http://www.mcmenamins.com,5036674352,2018-07-24 01:34:06.695904,2018-08-24 16:03:00.587631,United States,-122.4060641,45.5368535,
ancestry-brewery,Ancestry Brewery,brewpub,20585 SW 115th Ave,Tualatin,Oregon,97062-6857,http://www.ancestrybrewing.com,5037060448,2018-07-24 01:34:04.621515,2018-08-24 15:45:49.45896,United States,-122.7967838,45.3711546,
g-man-brewery-/-g-man-sports-bar,G Man Brewery / G-Man Sports Bar,micro,18791 SW Martinazzi Ave,Tualatin,Oregon,97062-6808,http://www.hotseatsportsbar.com,5033105159,2018-07-24 01:34:06.026018,2018-08-24 16:01:48.583156,United States,-122.7598045,45.3841006,
mcmenamins-west-linn-brewery,McMenamins West Linn Brewery,micro,2090 8th Ave,West Linn,Oregon,97068-4612,http://www.mcmenamins.com,5036562935,2018-07-24 01:34:06.887222,2018-08-24 16:03:21.560546,United States,-122.65206536742,45.3460402947082,
wizards-of-williams-hops-garden-and-craft-brewery,Wizards of Williams Hops Garden and Craft Brewery,planning,,Williams,Oregon,97545,,5414156191,2018-07-24 01:34:08.410492,2018-08-11 21:39:21.186962,United States,,,
mcmenamins-old-church-brewery,McMenamins Old Church Brewery,brewpub,30340 SW Boones Ferry Rd,Wilsonville,Oregon,97070-,http://www.mcmenamins.com/Wilsonville,5034272505,2018-07-24 01:34:06.819802,2018-08-24 16:03:14.123768,United States,-122.772676461076,45.3007043,
vanguard-brewing-company,Vanguard Brewing Company,micro,27501 SW 95th Ave Ste 945,Wilsonville,Oregon,97070-5705,http://www.vanguardbrewing.com,5039293774,2018-07-24 01:34:08.21341,2018-08-24 16:05:34.12776,United States,-122.7733742,45.3211582,
lookingglass-brewery,Lookingglass Brewery,micro,192 SE Main St,Winston,Oregon,97496,http://www.lookingglassbrewery.com,5413788565,2018-07-24 01:34:06.526963,2018-08-11 21:39:15.0889,United States,,,
yachats-brewing,Yachats Brewing,brewpub,PO Box 308,Yachats,Oregon,97498-0308,,,2018-07-24 01:34:08.498477,2018-08-11 21:39:21.413498,United States,,,