id,name,brewery_type,street,city,state,postal_code,website_url,phone,created_at,updated_at,country,longitude,latitude,tags
albia-brewing-co,Albia Brewing Co,brewpub,11 Benton Ave E,Albia,Iowa,52531-2032,http://www.albiabrewingcompany.blogspot.com,6419324085,2018-07-24 01:33:23.354695,2018-08-24 00:33:44.626483,United States,-92.8073711031576,41.0271890321554,
millstream-brewing-co,Millstream Brewing Co,brewpub,835 48th Ave,Amana,Iowa,52203-8122,http://www.millstreambrewing.com,3196223672,2018-07-24 01:33:24.060977,2018-08-24 00:38:04.116007,United States,-91.8652726515593,41.794931800583,
alluvial-brewing-company,Alluvial Brewing Company,micro,3715 W 190th St,Ames,Iowa,50014-9316,http://www.alluvialbrewing.com,515337118,2018-07-24 01:33:23.366879,2018-08-11 21:37:22.756025,United States,,,
olde-main-brewing-co-and-restaurant,Olde Main Brewing Co & Restaurant,brewpub,316 Main St,Ames,Iowa,50010,http://www.oldemainbrewing.com/,5152320553,2018-07-24 01:33:24.205978,2018-08-24 00:38:06.454019,United States,-93.6141004285714,42.0250322653061,
torrent-brewing-co,Torrent Brewing Co,micro,504 Burnett Ave,Ames,Iowa,50010-6178,http://www.torrentbrewingco.com,5152333155,2018-07-24 01:33:24.465257,2018-08-24 00:38:16.481894,United States,-93.6152661632653,42.0260534081633,
mistress-brewing-company,Mistress Brewing Company,micro,1460 NE 69th Pl Ste 66,Ankeny,Iowa,50021-8934,http://www.mistressbrewing.com,5157712133,2018-07-24 01:33:24.074569,2018-08-11 21:37:24.412245,United States,,,
new-american-brewing-company,New American Brewing Company,micro,1631 SW Main St Ste 105,Ankeny,Iowa,50023-7254,http://www.newamericanbeer.com,5152505648,2018-07-24 01:33:24.166035,2018-08-11 21:37:24.446453,United States,,,
firetrucker-brewery,Firetrucker Brewery,micro,716 SW 3rd St,Ankeny,Iowa,50023-2615,http://www.firetrucker.com,5159641284,2018-07-24 01:33:23.720898,2018-08-24 00:37:52.258484,United States,-93.6098436917965,41.7299268,
river-ridge-brewing,River Ridge Brewing,micro,118 N Riverview St,Bellevue,Iowa,52031-1248,http://www.riverridgebrewing.com,5632310299,2018-07-24 01:33:24.323507,2018-08-11 21:37:24.806755,United States,,,
crawford-brew-works,Crawford Brew Works,micro,3659 Devils Glen Rd,Bettendorf,Iowa,52722,,,2018-07-24 01:33:23.593928,2018-08-24 00:33:55.965161,United States,-90.483443779661,41.5592441864407,
five-cities-brewing,Five Cities Brewing,micro,2255 Falcon Ave,Bettendorf,Iowa,52722,http://www.fivecitiesbrewing.com,5632326105,2018-07-24 01:33:23.736863,2018-08-24 00:37:52.805799,United States,-90.5012637754947,41.5743051839499,
reclaimed-rails-brewing-company,Reclaimed Rails Brewing Company,micro,101 Main St. SE,Bondurant,Iowa,50035-7722,http://www.reclaimedrailsbrewing.com,,2018-07-24 01:33:24.297281,2018-08-24 00:38:10.280267,United States,-93.461872,41.699717,
boone-valley-brewing-co,Boone Valley Brewing Co,micro,816 7th St,Boone,Iowa,50036-2818,http://www.boonevalleybrewing.com,5154321232,2018-07-24 01:33:23.478205,2018-08-24 00:33:50.095616,United States,-93.8809626530612,42.062643,
bent-river-brewing-co,Bent River Brewing Co,brewpub,500 Jefferson St,Burlington,Iowa,52601,http://www.burlingtonbentriver.com,3192092773,2018-07-24 01:33:23.418705,2018-08-24 00:33:47.217358,United States,-91.1052085,40.8106128,
parkside-brewing-company,Parkside Brewing Company,brewpub,2601 Madison Ave,Burlington,Iowa,52601-6622,http://www.parksidebrewing.com,3192092739,2018-07-24 01:33:24.231782,2018-08-24 00:38:07.484881,United States,-91.10791750082,40.7790539068929,
pivo-brewery,PIVO Brewery,micro,101 Huber Dr,Calmar,Iowa,52132,http://www.pivoblepta.com,5635621053,2018-07-24 01:33:24.258214,2018-08-11 21:37:24.657385,United States,,,
backroad-brewery,BackRoad Brewery,micro,90 School St,Carlisle,Iowa,50047,http://www.backroadbeer.com,5152102096,2018-07-24 01:33:23.392487,2018-08-24 00:33:46.19053,United States,-93.4853176666667,41.498501,
carroll-brewing-co,Carroll Brewing Co.,micro,226 E 5th St,Carroll,Iowa,51401-2743,http://www.carrollbrewing.com,5157090030,2018-07-24 01:33:23.514637,2018-08-24 00:33:52.0455,United States,-94.8653400750047,42.0638586825848,
second-state-brewing-company,Second State Brewing Company,micro,203 State St,Cedar Falls,Iowa,50613-3360,,3192400692,2018-07-24 01:33:24.348877,2018-08-24 00:38:12.387035,United States,-92.4442681020408,42.536744244898,
lion-bridge-brewing-company,Lion Bridge Brewing Company,brewpub,59 16th Ave SW,Cedar Rapids,Iowa,52404-5948,http://www.lionbridgebrewing.com,3192004460,2018-07-24 01:33:24.007407,2018-08-24 00:38:02.185034,United States,-91.66095280967,41.9647894789684,
quarter-barrel-arcade,Quarter Barrel Arcade,brewpub,616 2nd Ave SE,Cedar Rapids,Iowa,52401-1306,http://www.thequarterbarrel.com,3196211836,2018-07-24 01:33:24.283892,2018-08-24 00:38:09.776206,United States,-91.6631809387755,41.9806253265306,
clock-house-brewing,Clock House Brewing,micro,600 1st St SE,Cedar Rapids,Iowa,52401,http://www.clockhousebrewing.com,3192004099,2018-07-24 01:33:23.543583,2018-08-24 00:33:53.37047,United States,-91.665354,41.973813,
granite-city-food-and-brewery-#5,Granite City Food & Brewery (#5),brewpub,4755 1st Ave SE,Cedar Rapids,Iowa,52402-3211,http://www.gcfb.net,3193957500,2018-07-24 01:33:23.821119,2018-08-11 21:37:23.822291,United States,,,
iowa-brewing,Iowa Brewing,micro,708 3rd St SE,Cedar Rapids,Iowa,52401-2012,http://www.iowabrewing.beer,3193662337,2018-07-24 01:33:23.886051,2018-08-24 00:37:57.896985,United States,-91.6621246326531,41.9742173877551,
thew-brewing-company,Thew Brewing Company,micro,301 2nd Ave,Cedar Rapids,Iowa,52404,http://www.thewbrew.com,3193438439,2018-07-24 01:33:24.413355,2018-08-24 00:38:14.456187,United States,-91.67294,42.035746,
third-base-brewery,Third Base Brewery,brewpub,500 Blairs Ferry Rd NE Ste 2,Cedar Rapids,Iowa,52402-1466,http://www.Thirdbasebrew.com,3193789090,2018-07-24 01:33:24.426509,2018-08-11 21:37:25.023735,United States,,,
timbukbru,Timbukbru,micro,215 6th St SW,Clarion,Iowa,50525,http://www.timbukbru.com,5155320015,2018-07-24 01:33:24.439388,2018-08-24 00:38:15.511445,United States,-93.740532,42.731535,
lake-time-brewery,Lake Time Brewery,micro,801 Main Ave Ste C,Clear Lake,Iowa,50428-1919,http://www.laketimebrewery.com,6413572040,2018-07-24 01:33:23.964833,2018-08-11 21:37:24.167234,United States,,,
515-brewing-co,515 Brewing Co,micro,7700 University Ave,Clive,Iowa,50325-1271,http://www.515brewing.com,5156614615,2018-07-24 01:33:23.330244,2018-08-24 00:33:43.585221,United States,-93.7228408,41.599992,
granite-city-food-and-brewery-#4,Granite City Food & Brewery (#4),brewpub,12801 University Ave,Clive,Iowa,50325-8219,http://www.gcfb.net,5152241300,2018-07-24 01:33:23.807394,2018-08-24 00:37:55.618086,United States,-93.795293,41.600494,
backpocket-brewing-co,Backpocket Brewing Co,micro,903 Quarry Rd,Coralville,Iowa,52241-2208,http://www.backpocketbrewing.com,3194493700,2018-07-24 01:33:23.380021,2018-08-24 00:33:45.669162,United States,-91.5598133684211,41.6813948421053,
boot-n-flute-brewery-/-guild-wurst-tavern,Boot N Flute Brewery / Guild Wurst Tavern,brewpub,53 2nd St,Coralville,Iowa,52241,http://www.guildwursttavern.com,3193331740,2018-07-24 01:33:23.490032,2018-08-24 00:33:50.720774,United States,-91.5627174423354,41.6678846837987,
reunion-brewery,ReUnion Brewery,brewpub,516 2nd St,Coralville,Iowa,52241-2614,http://www.reunionbrewery.com,3193373000,2018-07-24 01:33:24.310361,2018-08-24 00:38:10.77472,United States,-91.5749860709225,41.6717143146739,
front-street-brewery-ia,Front Street Brewery - IA,brewpub,208 E River Dr,Davenport,Iowa,52801-1609,http://www.frontstreetbrew.com,5633221569,2018-07-24 01:33:23.79438,2018-08-24 00:37:55.114576,United States,-90.572491,41.520329,
granite-city-food-and-brewery-#6,Granite City Food & Brewery (#6),brewpub,5270 Utica Ridge Rd,Davenport,Iowa,52807-3872,http://www.gcfb.net,5633449700,2018-07-24 01:33:23.834497,2018-08-24 00:37:56.492258,United States,-90.5135797543194,41.5745721094442,
great-river-brewery,Great River Brewery,micro,332 E 2nd St,Davenport,Iowa,52801-1702,http://www.greatriverbrewery.com,3195415160,2018-07-24 01:33:23.859903,2018-08-24 00:37:57.397744,United States,-90.5706393674667,41.5213880458938,
pulpit-rock-brewing-co,Pulpit Rock Brewing Co.,micro,207 College Dr,Decorah,Iowa,52101-1304,http://www.pulpitrockbrewing.net,5633803610,2018-07-24 01:33:24.271118,2018-08-24 00:38:09.224263,United States,-91.7962545003461,43.3065402420925,
toppling-goliath-brewing-co,Toppling Goliath Brewing Co,micro,1600 Prosperity Rd,Decorah,Iowa,52101,http://www.tgbrews.com,5633826198,2018-07-24 01:33:24.452649,2018-08-24 00:38:15.99046,United States,-91.7250841,43.2727293,
confluence-brewing-co,Confluence Brewing Co,micro,1235 Thomas Beck Rd Ste A,Des Moines,Iowa,50315-1055,http://www.confluencebrewing.com,5152859005,2018-07-24 01:33:23.55632,2018-08-11 21:37:23.225904,United States,,,
court-avenue-brewing-co,Court Avenue Brewing Co,brewpub,309 Court Ave Ste 100,Des Moines,Iowa,50309-2230,http://www.courtavebrew.com,5152822739,2018-07-24 01:33:23.581385,2018-08-11 21:37:23.294961,United States,,,
flix-brewhouse,Flix Brewhouse,brewpub,3800 Merle Hay Rd,Des Moines,Iowa,50310-1305,,5122442739,2018-07-24 01:33:23.750857,2018-08-24 00:37:53.597737,United States,-93.6997831,41.6306427,
madhouse-brewing-co,Madhouse Brewing Co,micro,501 Scott Ave,Des Moines,Iowa,50309-5047,http://www.madhousebeer.com,9165017014,2018-07-24 01:33:24.035031,2018-08-24 00:38:03.135665,United States,-93.6076690652753,41.58113315,
exile-brewing,Exile Brewing,micro,1514 Walnut St,Des Moines,Iowa,50309-3420,http://www.exilebrewing.com,5158832337,2018-07-24 01:33:23.668831,2018-08-24 00:37:50.711454,United States,-93.6370215944771,41.5830167,
7-hills-brewing-company,7 Hills Brewing Company,brewpub,1085 Washington St,Dubuque,Iowa,52001-4932,http://www.7hillsbrew.com,5635878306,2018-07-24 01:33:23.342382,2018-08-24 00:33:44.096581,United States,-90.6635263,42.5045556,
catfish-charlies-/-catfish-creek-brew-pub,Catfish Charlies / Catfish Creek Brew Pub,brewpub,1630 E 16th St,Dubuque,Iowa,52001-2306,http://www.catfishcharliesdubuque.com,5635828600,2018-07-24 01:33:23.526898,2018-08-24 00:33:52.70743,United States,-90.6537288580055,42.5122589787176,
dimensional-brewing-co,Dimensional Brewing Co.,planning,,Dubuque,Iowa,52001,http://www.dimensionalbrewing.com,,2018-07-24 01:33:23.632073,2018-08-11 21:37:23.415618,United States,,,
jubeck-new-world-brewing,Jubeck New World Brewing,micro,115 W 11th St,Dubuque,Iowa,52001-4802,http://www.jubeckbrewing.com,7753755692,2018-07-24 01:33:23.923072,2018-08-24 00:37:59.334464,United States,-90.6677040399112,42.5036239260055,
debs-brewtopia,Deb's Brewtopia,micro,106 Cedar St,Elkader,Iowa,52043,http://www.debsbrewtopia.com,5632453737,2018-07-24 01:33:23.606936,2018-08-24 00:33:56.5006,United States,-91.4060835272074,42.8548668119706,
granite-city-food-and-wort-house,Granite City Food & Wort House,micro,1722 Detroit St,Ellsworth,Iowa,50075,http://www.gcfb.net,5158364060,2018-07-24 01:33:23.847099,2018-08-24 00:37:56.936021,United States,-93.5747379776529,42.3133091901518,
shiny-top-brewing,Shiny Top Brewing,micro,520 Central Ave,Fort Dodge,Iowa,50501-3810,http://www.shinytopbrewing.com,5153028055,2018-07-24 01:33:24.361879,2018-08-24 00:38:12.927955,United States,-94.1905789591837,42.5047420408163,
lost-duck-brewing-co,Lost Duck Brewing Co.,brewpub,723 Avenue H # 725,Fort Madison,Iowa,52627-2935,http://www.duckbrewing.com,3193728255,2018-07-24 01:33:24.020412,2018-08-24 00:38:02.675163,United States,-91.3102600901203,40.6300701726018,
keg-creek-brewing-company,Keg Creek Brewing Company,micro,111 Sharp St,Glenwood,Iowa,51534-1755,http://www.kegcreekbrewing.com,7125209029,2018-07-24 01:33:23.950875,2018-08-24 00:38:00.245242,United States,-95.7356912,41.0473453,
rustic-brew,Rustic Brew,brewpub,117 1st St NW,Hampton,Iowa,50441-1701,http://www.rusticbrew.com,6414562141,2018-07-24 01:33:24.335823,2018-08-24 00:38:11.88174,United States,-93.2085598367347,42.7429814897959,
tractorlift-brewery,TractorLift Brewery,micro,708 Sumner Ave,Humboldt,Iowa,50548-1763,,5158909484,2018-07-24 01:33:24.483025,2018-08-24 00:38:16.989142,United States,-94.2189566530612,42.7209454693878,
fenceline-beer-lab,Fenceline Beer Lab,planning,,Huxley,Iowa,50124-9311,,,2018-07-24 01:33:23.694125,2018-08-11 21:37:23.557987,United States,,,
big-grove-brewery,Big Grove Brewery,micro,1225 S Gilbert St,Iowa City,Iowa,52240-4507,http://www.biggrovebrewery.com,3195941891,2018-07-24 01:33:23.430686,2018-08-24 00:33:47.933139,United States,-91.5318982755102,41.6471329897959,
big-grove-brewery-and-tap-room,Big Grove Brewery & Tap Room,brewpub,1225 S Gilbert St,Iowa City,Iowa,52240-4507,,3196242337,2018-07-24 01:33:23.442982,2018-08-24 00:33:48.539522,United States,-91.5318982755102,41.6471329897959,
kalona-brewing-company,Kalona Brewing Company,brewpub,405 B Ave,Kalona,Iowa,52247,http://www.kalonabrewing.com,3196563335,2018-07-24 01:33:23.937103,2018-08-24 00:37:59.811718,United States,-91.7075553,41.4833131,
vs-restaurant-and-brewpub,V's Restaurant and Brewpub,brewpub,3461 Main St,Keokuk,Iowa,52632-2227,,3193138384,2018-07-24 01:33:24.507086,2018-08-24 00:38:18.039237,United States,-91.4089421100193,40.4205561441476,
peace-tree-brewing-company,Peace Tree Brewing Company,micro,107 W Main St,Knoxville,Iowa,50138-2528,http://www.peacetreebrewing.com,6418422739,2018-07-24 01:33:24.244814,2018-08-24 00:38:08.01951,United States,-93.0997082287897,41.3190352342891,
5-alarm-brewing-co,5 Alarm Brewing Co,micro,211 W Main St,Lake Mills,Iowa,50450,,6415922739,2018-07-24 01:33:23.318383,2018-08-24 00:33:42.982525,United States,-93.533987877403,43.4192661500845,
green-tree-brewery,Green Tree Brewery,micro,309 N Cody Road,Le Claire,Iowa,52753,,,2018-07-24 01:33:23.873343,2018-08-11 21:37:23.940453,United States,,,
franklin-street-brewing-company,Franklin Street Brewing Company,micro,116 S Franklin St,Manchester,Iowa,52057-2121,http://www.franklinstreetbrewing.com,5639272722,2018-07-24 01:33:23.78142,2018-08-24 00:37:54.640356,United States,-91.4577792857143,42.483293244898,
iowa-river-brewing-company,Iowa River Brewing Company,micro,107 N 1st St,Marshalltown,Iowa,50158-5803,http://www.iowariverbrewing.com,6417512848,2018-07-24 01:33:23.898246,2018-08-24 00:37:58.388287,United States,-92.9145041898883,42.0506107577935,
fat-hill-brewing,Fat Hill Brewing,micro,17 N Federal Ave,Mason City,Iowa,50401-3250,http://FatHillBrewing.com,9524126272,2018-07-24 01:33:23.680888,2018-08-24 00:37:51.290226,United States,-93.2009650909838,43.152034586148,
mason-city-brewing,Mason City Brewing,micro,28 E State St,Mason City,Iowa,50401-3318,http://www.masoncitybrewing.com,6414231080,2018-07-24 01:33:24.048012,2018-08-24 00:38:03.639064,United States,-93.2003337291667,43.151607875,
west-o-beer,West O Beer,micro,503 Terrace Park Blvd,Milford,Iowa,51351-7300,http://www.westobeer.com,7123328090,2018-07-24 01:33:24.51893,2018-08-24 00:38:18.480966,United States,-95.1499696488768,43.3465769675141,
bigs-bbq-brewpub,Big's BBQ Brewpub,brewpub,124 2nd Ave NW,Mount Vernon,Iowa,52314,http://www.bigsbbqmv.com,3195351060,2018-07-24 01:33:23.46654,2018-08-24 00:33:49.566353,United States,-91.4177200204082,41.9229993877551,
contrary-brewing-co,Contrary Brewing Co,micro,411 W Mississippi Dr,Muscatine,Iowa,52761-3150,http://www.contrarybrewing.com,5632997894,2018-07-24 01:33:23.569047,2018-08-24 00:33:54.630952,United States,-91.051214547691,41.417005217179,
dubuque-star-brands-/-otter-tail-brewery,Dubuque Star Brands / Otter Tail Brewery,contract,132 Sheridan St,Muscatine,Iowa,52761-5543,,,2018-07-24 01:33:23.656512,2018-08-24 00:37:50.224905,United States,-91.0293753592479,41.4334673722347,
worth-brewing-co,Worth Brewing Co,brewpub,835 Central Ave,Northwood,Iowa,50459-1519,http://www.worthbrewing.com,6413249899,2018-07-24 01:33:24.530849,2018-08-24 00:38:18.956276,United States,-93.219581,43.444038,
limestone-brewers,Limestone Brewers,micro,518 Main St,Osage,Iowa,50461,http://www.limestonebrewers.com,6418323100,2018-07-24 01:33:23.992099,2018-08-24 00:38:01.706013,United States,-92.813673,43.2839156,
nocoast-beer-co,NoCoast Beer Co,micro,1407 17th Ave E Ste B,Oskaloosa,Iowa,52577-3563,http://www.nocoastbeer.co,6416733481,2018-07-24 01:33:24.179817,2018-08-11 21:37:24.482123,United States,,,
pallister-brothers-brewing-company,Pallister Brothers Brewing Company,micro,116 N Market St,Ottumwa,Iowa,52501,,,2018-07-24 01:33:24.219168,2018-08-24 00:38:06.991296,United States,-92.4101724,41.0180942,
fenders-brewing-company,Fenders Brewing Company,micro,212 W Van Dorn St,Polk City,Iowa,50226-2297,http://fendersbrewing.com,,2018-07-24 01:33:23.706624,2018-08-24 00:37:51.763939,United States,-93.71392,41.7707988163265,
depot-deli-and-lounge,Depot Deli and Lounge,brewpub,101 N Railroad St,Shenandoah,Iowa,51601-1158,http://www.depotdeli.com,7122464444,2018-07-24 01:33:23.61964,2018-08-24 00:33:57.114794,United States,-95.376823,40.765042,
drink-me-brewing,Drink Me Brewing,micro,210 9th St,Sibley,Iowa,51249-1812,http://www.drinkmebrewing.com,2173161890,2018-07-24 01:33:23.64482,2018-08-24 00:37:49.72857,United States,-95.7506988979592,43.3994220612245,
brioux-city-brewery,Brioux City Brewery,micro,1306 Court St,Sioux City,Iowa,51105,http://www.briouxcitybrewery.com,7122779568,2018-07-24 01:33:23.502349,2018-08-24 00:33:51.410595,United States,-96.39640025,42.50441425,
jackson-street-brewing,Jackson Street Brewing,micro,607 5th St,Sioux City,Iowa,51101-1301,,7125748403,2018-07-24 01:33:23.910205,2018-08-24 00:37:58.836433,United States,-96.4032342857143,42.4953384897959,
okoboji-brewing-co,Okoboji Brewing Co,micro,3705 Highway 71,Spirit Lake,Iowa,51360-7196,http://www.brewokoboji.com,7123303363,2018-07-24 01:33:24.192691,2018-08-11 21:37:24.514153,United States,,,
lark-brewing,Lark Brewing,brewpub,3295 University Ave,Waterloo,Iowa,50701-2003,http://www.larkbrewing.com,3192385275,2018-07-24 01:33:23.978462,2018-08-24 00:38:01.25274,United States,-92.3900212909091,42.5014700727273,
single-speed-brewing-co,Single Speed Brewing Co,brewpub,325 Commercial St,"Waterloo ",Iowa,50701,http://www.singlespeedbrewing.com,3198833604,2018-07-24 01:33:24.374248,2018-08-24 00:38:13.471131,United States,-92.3424968571428,42.4970957142857,
single-speed-brewing-co-tap-room,Single Speed Brewing Co Tap Room,brewpub,325 Commercial St,Waterloo,Iowa,50701-1315,,3198833604,2018-07-24 01:33:24.387954,2018-08-24 00:38:13.93672,United States,-92.3424968571428,42.4970957142857,
twisted-vine-brewery,Twisted Vine Brewery,micro,3320 Westown Pkwy,West Des Moines,Iowa,50266-1111,http://www.twistedvinebrewery.com,5157202940,2018-07-24 01:33:24.49535,2018-08-24 00:38:17.525868,United States,-93.7489517002412,41.5936597,
barn-town-brewing-co,Barn Town Brewing Co.,brewpub,9500 University Ave,West Des Moines,Iowa,50266-1888,,5159786767,2018-07-24 01:33:23.405241,2018-08-24 00:33:46.68512,United States,-93.8385143,41.5996472,
fox-brewing,Fox Brewing,micro,103 S 11th St,West Des Moines,Iowa,50265-4410,http://www.foxbrewco.com,5156350323,2018-07-24 01:33:23.766861,2018-08-24 00:37:54.139044,United States,-93.718210375,41.569708625,
big-rack-brew-haus,Big Rack Brew Haus,micro,2475 Hiatt Apple Trl,Winterset,Iowa,50273-8113,http://www.bigrackbrewhaus.com,,2018-07-24 01:33:23.45481,2018-08-11 21:37:22.966134,United States,,,